PrecinctName,PrecinctCode,Latitude,Longitude,Address,TotalMemberHH,Counting
ST. PAUL W-1 P-01,540,44.941873,-93.1513206,"1211 SUMMIT AVE, ST PAUL, MN, 55105",3.0,2
ST. PAUL W-1 P-01,540,44.9418847,-93.1489098,"1157 SUMMIT AVE, ST PAUL, MN, 55105",2.0,2
ST. PAUL W-1 P-01,540,44.9418864,-93.15149709999999,"1213 SUMMIT AVE, ST PAUL, MN, 55105",2.0,2
ST. PAUL W-1 P-01,540,44.9419105,-93.1605341,"1425 SUMMIT AVE, ST PAUL, MN, 55105",1.0,1
ST. PAUL W-1 P-01,540,44.941928499999996,-93.16120059999999,"1445 SUMMIT AVE, ST PAUL, MN, 55105",3.0,2
ST. PAUL W-1 P-01,540,44.9419379,-93.1602008,"1415 SUMMIT AVE, ST PAUL, MN, 55105",3.0,2
ST. PAUL W-1 P-01,540,44.9419444,-93.1599655,"1411 SUMMIT AVE, ST PAUL, MN, 55105",2.0,2
ST. PAUL W-1 P-01,540,44.941962,-93.1639454,"1507 SUMMIT AVE, ST PAUL, MN, 55105",2.0,2
ST. PAUL W-1 P-01,540,44.941968200000005,-93.15910290000001,"1397 SUMMIT AVE, ST PAUL, MN, 55105",4.0,2
ST. PAUL W-1 P-01,540,44.9419875,-93.1663178,"1567 SUMMIT AVE, ST PAUL, MN, 55105",3.0,1
ST. PAUL W-1 P-01,540,44.9419902,-93.1589657,"1395 SUMMIT AVE, ST PAUL, MN, 55105",2.0,1
ST. PAUL W-1 P-01,540,44.94199099999999,-93.157071,"1345 SUMMIT AVE, ST PAUL, MN, 55105",4.0,2
ST. PAUL W-1 P-01,540,44.941996200000006,-93.1660041,"1559 SUMMIT AVE, ST PAUL, MN, 55105",2.0,1
ST. PAUL W-1 P-01,540,44.9420144,-93.1640286,"1509 SUMMIT AVE, ST PAUL, MN, 55105",4.0,1
ST. PAUL W-1 P-01,540,44.9425369,-93.1649038,"1522 PORTLAND AVE, ST PAUL, MN, 55104",34.0,1
ST. PAUL W-1 P-01,540,44.942538299999995,-93.1595734,"1402 PORTLAND AVE, ST PAUL, MN, 55104",16.0,1
ST. PAUL W-1 P-01,540,44.9425626,-93.1549021,"1290 PORTLAND AVE, ST PAUL, MN, 55104",4.0,2
ST. PAUL W-1 P-01,540,44.942578000000005,-93.158488,"1380 PORTLAND AVE, ST PAUL, MN, 55104",2.0,2
ST. PAUL W-1 P-01,540,44.9426171,-93.149439,"1162 PORTLAND AVE, ST PAUL, MN, 55104",3.0,2
ST. PAUL W-1 P-01,540,44.942636900000004,-93.1665531,"1572 PORTLAND AVE, ST PAUL, MN, 55104",9.0,1
ST. PAUL W-1 P-01,540,44.9426468,-93.151007,"1204 PORTLAND AVE, ST PAUL, MN, 55104",2.0,2
ST. PAUL W-1 P-01,540,44.9426472,-93.1609066,"1436 PORTLAND AVE, ST PAUL, MN, 55104",1.0,1
ST. PAUL W-1 P-01,540,44.9426476,-93.1615535,"1452 PORTLAND AVE, ST PAUL, MN, 55104",2.0,2
ST. PAUL W-1 P-01,540,44.942649700000004,-93.1502426,"1184 PORTLAND AVE, ST PAUL, MN, 55104",2.0,1
ST. PAUL W-1 P-01,540,44.9426503,-93.154849,"1288 PORTLAND AVE, ST PAUL, MN, 55104",2.0,2
ST. PAUL W-1 P-01,540,44.942654,-93.1500858,"1180 PORTLAND AVE, ST PAUL, MN, 55104",1.0,1
ST. PAUL W-1 P-01,540,44.9426583,-93.149929,"1176 PORTLAND AVE, ST PAUL, MN, 55104",1.0,1
ST. PAUL W-1 P-01,540,44.9426598,-93.1505366,"1192 PORTLAND AVE, ST PAUL, MN, 55104",2.0,2
ST. PAUL W-1 P-01,540,44.94266079999999,-93.15578990000002,"1312 PORTLAND AVE, ST PAUL, MN, 55104",2.0,2
ST. PAUL W-1 P-01,540,44.9426626,-93.1497722,"1172 PORTLAND AVE, ST PAUL, MN, 55104",4.0,2
ST. PAUL W-1 P-01,540,44.942666700000004,-93.1582207,"1372 PORTLAND AVE, ST PAUL, MN, 55104",2.0,2
ST. PAUL W-1 P-01,540,44.9426669,-93.14961540000002,"1168 PORTLAND AVE, ST PAUL, MN, 55104",1.0,1
ST. PAUL W-1 P-01,540,44.942669200000005,-93.1607693,"1432 PORTLAND AVE, ST PAUL, MN, 55104",2.0,2
ST. PAUL W-1 P-01,540,44.9426695,-93.1554763,"1306 PORTLAND AVE, ST PAUL, MN, 55104",2.0,2
ST. PAUL W-1 P-01,540,44.942671000000004,-93.1600439,"1414 PORTLAND AVE, ST PAUL, MN, 55104",2.0,2
ST. PAUL W-1 P-01,540,44.942673799999994,-93.1553194,"1302 PORTLAND AVE, ST PAUL, MN, 55104",4.0,1
ST. PAUL W-1 P-01,540,44.942674600000004,-93.1513206,"1210 PORTLAND AVE, ST PAUL, MN, 55104",2.0,1
ST. PAUL W-1 P-01,540,44.9426912,-93.158652,"1384 PORTLAND AVE, ST PAUL, MN, 55104",2.0,2
ST. PAUL W-1 P-01,540,44.942693,-93.1559467,"1320 PORTLAND AVE, ST PAUL, MN, 55104",3.0,2
ST. PAUL W-1 P-01,540,44.94269329999999,-93.1565936,"46 HAMLINE AVE N, ST PAUL, MN, 55104",3.0,1
ST. PAUL W-1 P-01,540,44.94269370000001,-93.1572406,"1346 PORTLAND AVE, ST PAUL, MN, 55104",2.0,1
ST. PAUL W-1 P-01,540,44.9427008,-93.1579757,"1362 PORTLAND AVE, ST PAUL, MN, 55104",1.0,1
ST. PAUL W-1 P-01,540,44.942715899999996,-93.1637285,"1500 PORTLAND AVE, ST PAUL, MN, 55104",5.0,1
ST. PAUL W-1 P-01,540,44.9427162,-93.1524575,"1234 PORTLAND AVE, ST PAUL, MN, 55104",3.0,1
ST. PAUL W-1 P-01,540,44.94271639999999,-93.1564172,"1330 PORTLAND AVE, ST PAUL, MN, 55104",1.0,1
ST. PAUL W-1 P-01,540,44.9427204,-93.1575934,"1354 PORTLAND AVE, ST PAUL, MN, 55104",2.0,2
ST. PAUL W-1 P-01,540,44.9428099,-93.1649311,"1524 PORTLAND AVE, ST PAUL, MN, 55104",24.0,2
ST. PAUL W-1 P-01,540,44.9431127,-93.1526143,"1241 PORTLAND AVE, ST PAUL, MN, 55104",2.0,2
ST. PAUL W-1 P-01,540,44.9431227,-93.16216130000001,"1463 PORTLAND AVE, ST PAUL, MN, 55104",2.0,1
ST. PAUL W-1 P-01,540,44.943127000000004,-93.1600243,"1415 PORTLAND AVE, ST PAUL, MN, 55104",1.0,1
ST. PAUL W-1 P-01,540,44.9431281,-93.1639454,"1507 PORTLAND AVE, ST PAUL, MN, 55104",2.0,2
ST. PAUL W-1 P-01,540,44.94313140000001,-93.1598675,"1411 PORTLAND AVE, ST PAUL, MN, 55104",2.0,2
ST. PAUL W-1 P-01,540,44.9431375,-93.16096540000001,"1439 PORTLAND AVE, ST PAUL, MN, 55104",1.0,1
ST. PAUL W-1 P-01,540,44.94314,-93.1595538,"1401 PORTLAND AVE, ST PAUL, MN, 55104",2.0,2
ST. PAUL W-1 P-01,540,44.943145799999996,-93.1580247,"1367 PORTLAND AVE, ST PAUL, MN, 55104",2.0,2
ST. PAUL W-1 P-01,540,44.9431483,-93.1605733,"1429 PORTLAND AVE, ST PAUL, MN, 55104",2.0,1
ST. PAUL W-1 P-01,540,44.9431494,-93.1512814,"1211 PORTLAND AVE, ST PAUL, MN, 55104",2.0,2
ST. PAUL W-1 P-01,540,44.94315270000001,-93.1511638,"1209 PORTLAND AVE, ST PAUL, MN, 55104",2.0,1
ST. PAUL W-1 P-01,540,44.94315350000001,-93.1524575,"1235 PORTLAND AVE, ST PAUL, MN, 55104",2.0,2
ST. PAUL W-1 P-01,540,44.94315570000001,-93.16623940000001,"1563 PORTLAND AVE, ST PAUL, MN, 55104",5.0,2
ST. PAUL W-1 P-01,540,44.943156200000004,-93.1550058,"1297 PORTLAND AVE, ST PAUL, MN, 55104",1.0,1
ST. PAUL W-1 P-01,540,44.94315779999999,-93.1523007,"1233 PORTLAND AVE, ST PAUL, MN, 55104",2.0,2
ST. PAUL W-1 P-01,540,44.9431588,-93.1575542,"1355 PORTLAND AVE, ST PAUL, MN, 55104",2.0,2
ST. PAUL W-1 P-01,540,44.9431641,-93.1500858,"1181 PORTLAND AVE, ST PAUL, MN, 55104",4.0,3
ST. PAUL W-1 P-01,540,44.9431652,-93.16325920000001,"1491 PORTLAND AVE, ST PAUL, MN, 55104",22.0,6
ST. PAUL W-1 P-01,540,44.9431652,-93.155339,"1305 PORTLAND AVE, ST PAUL, MN, 55104",2.0,1
ST. PAUL W-1 P-01,540,44.9431682,-93.15853440000001,"1381 PORTLAND AVE, ST PAUL, MN, 55104",2.0,1
ST. PAUL W-1 P-01,540,44.9431684,-93.149929,"1177 PORTLAND AVE, ST PAUL, MN, 55104",2.0,1
ST. PAUL W-1 P-01,540,44.943169899999994,-93.1505366,"1193 PORTLAND AVE, ST PAUL, MN, 55104",1.0,1
ST. PAUL W-1 P-01,540,44.9431739,-93.16294549999999,"1485 PORTLAND AVE, ST PAUL, MN, 55104",6.0,2
ST. PAUL W-1 P-01,540,44.9431753,-93.1503406,"1189 PORTLAND AVE, ST PAUL, MN, 55104",3.0,2
ST. PAUL W-1 P-01,540,44.9431771,-93.14961540000002,"1169 PORTLAND AVE, ST PAUL, MN, 55104",2.0,2
ST. PAUL W-1 P-01,540,44.9431804,-93.1627102,"1479 PORTLAND AVE, ST PAUL, MN, 55104",8.0,1
ST. PAUL W-1 P-01,540,44.9431818,-93.1652983,"1539 PORTLAND AVE, ST PAUL, MN, 55104",9.0,2
ST. PAUL W-1 P-01,540,44.943197,-93.149392,"1163 PORTLAND AVE, ST PAUL, MN, 55104",2.0,2
ST. PAUL W-1 P-01,540,44.9431995,-93.15739740000001,"1351 PORTLAND AVE, ST PAUL, MN, 55104",2.0,1
ST. PAUL W-1 P-01,540,44.943216,-93.1581719,"1371 PORTLAND AVE, ST PAUL, MN, 55104",2.0,1
ST. PAUL W-1 P-01,540,44.94336999999999,-93.165543,"1543 PORTLAND AVE, ST PAUL, MN, 55104",2.0,2
ST. PAUL W-1 P-01,540,44.9436212,-93.1652198,"1540 ASHLAND AVE, ST PAUL, MN, 55104",19.0,3
ST. PAUL W-1 P-01,540,44.943666,-93.16015,"1416 ASHLAND AVE, ST PAUL, MN, 55104",2.0,2
ST. PAUL W-1 P-01,540,44.9436915,-93.14945859999999,"1164 ASHLAND AVE, ST PAUL, MN, 55104",3.0,2
ST. PAUL W-1 P-01,540,44.94369520000001,-93.16320040000001,"1490 ASHLAND AVE, ST PAUL, MN, 55104",4.0,2
ST. PAUL W-1 P-01,540,44.9437,-93.1597303,"1404 ASHLAND AVE, ST PAUL, MN, 55104",3.0,2
ST. PAUL W-1 P-01,540,44.94370139999999,-93.1623181,"1466 ASHLAND AVE, ST PAUL, MN, 55104",2.0,2
ST. PAUL W-1 P-01,540,44.9437079,-93.1508502,"1200 ASHLAND AVE, ST PAUL, MN, 55104",2.0,1
ST. PAUL W-1 P-01,540,44.94370869999999,-93.1521439,"1228 ASHLAND AVE, ST PAUL, MN, 55104",2.0,1
ST. PAUL W-1 P-01,540,44.943714899999996,-93.1532416,"1256 ASHLAND AVE, ST PAUL, MN, 55104",1.0,1
ST. PAUL W-1 P-01,540,44.9437201,-93.1642787,"1516 ASHLAND AVE, ST PAUL, MN, 55104",7.0,1
ST. PAUL W-1 P-01,540,44.9437235,-93.152928,"1248 ASHLAND AVE, ST PAUL, MN, 55104",1.0,1
ST. PAUL W-1 P-01,540,44.9437244,-93.1641219,"1514 ASHLAND AVE, ST PAUL, MN, 55104",3.0,1
ST. PAUL W-1 P-01,540,44.9437281,-93.1606909,"1432 ASHLAND AVE, ST PAUL, MN, 55104",1.0,1
ST. PAUL W-1 P-01,540,44.94373600000001,-93.1610634,"1440 ASHLAND AVE, ST PAUL, MN, 55104",2.0,2
ST. PAUL W-1 P-01,540,44.943742799999995,-93.1502426,"1184 ASHLAND AVE, ST PAUL, MN, 55104",3.0,2
ST. PAUL W-1 P-01,540,44.9437461,-93.15739740000001,"1350 ASHLAND AVE, ST PAUL, MN, 55104",2.0,2
ST. PAUL W-1 P-01,540,44.94374699999999,-93.1533984,"1260 ASHLAND AVE, ST PAUL, MN, 55104",1.0,1
ST. PAUL W-1 P-01,540,44.9437471,-93.1500858,"1178 ASHLAND AVE, ST PAUL, MN, 55104",2.0,2
ST. PAUL W-1 P-01,540,44.94374759999999,-93.1580051,"1368 ASHLAND AVE, ST PAUL, MN, 55104",2.0,2
ST. PAUL W-1 P-01,540,44.9437514,-93.149929,"1176 ASHLAND AVE, ST PAUL, MN, 55104",1.0,1
ST. PAUL W-1 P-01,540,44.94375549999999,-93.16035759999998,"1422 ASHLAND AVE, ST PAUL, MN, 55104",2.0,2
ST. PAUL W-1 P-01,540,44.9441651,-93.1527711,"1245 ASHLAND AVE, ST PAUL, MN, 55104",2.0,2
ST. PAUL W-1 P-01,540,44.9441729,-93.1511638,"1209 ASHLAND AVE, ST PAUL, MN, 55104",2.0,1
ST. PAUL W-1 P-01,540,44.9441757,-93.15039940000001,"1189 ASHLAND AVE, ST PAUL, MN, 55104",1.0,1
ST. PAUL W-1 P-01,540,44.944180100000004,-93.1502426,"1185 ASHLAND AVE, ST PAUL, MN, 55104",2.0,2
ST. PAUL W-1 P-01,540,44.9441844,-93.1500858,"1183 ASHLAND AVE, ST PAUL, MN, 55104",3.0,2
ST. PAUL W-1 P-01,540,44.9441859,-93.1506934,"1197 ASHLAND AVE, ST PAUL, MN, 55104",2.0,2
ST. PAUL W-1 P-01,540,44.944188700000005,-93.149929,"1177 ASHLAND AVE, ST PAUL, MN, 55104",2.0,2
ST. PAUL W-1 P-01,540,44.94419129999999,-93.16371020000001,"1503 ASHLAND AVE, ST PAUL, MN, 55104",2.0,1
ST. PAUL W-1 P-01,540,44.944193,-93.1497722,"1173 ASHLAND AVE, ST PAUL, MN, 55104",2.0,1
ST. PAUL W-1 P-01,540,44.944195799999996,-93.1661806,"1563 ASHLAND AVE, ST PAUL, MN, 55104",2.0,2
ST. PAUL W-1 P-01,540,44.9441967,-93.1635141,"1499 ASHLAND AVE, ST PAUL, MN, 55104",4.0,2
ST. PAUL W-1 P-01,540,44.9442021,-93.163318,"1493 ASHLAND AVE, ST PAUL, MN, 55104",2.0,2
ST. PAUL W-1 P-01,540,44.9442064,-93.1631612,"1491 ASHLAND AVE, ST PAUL, MN, 55104",1.0,1
ST. PAUL W-1 P-01,540,44.9442088,-93.16571,"1549 ASHLAND AVE, ST PAUL, MN, 55104",4.0,2
ST. PAUL W-1 P-01,540,44.94421079999999,-93.1630043,"1487 ASHLAND AVE, ST PAUL, MN, 55104",3.0,3
ST. PAUL W-1 P-01,540,44.9442145,-93.1523007,"1233 ASHLAND AVE, ST PAUL, MN, 55104",2.0,1
ST. PAUL W-1 P-01,540,44.94421579999999,-93.16216130000001,"1463 ASHLAND AVE, ST PAUL, MN, 55104",2.0,2
ST. PAUL W-1 P-01,540,44.944218400000004,-93.15149709999999,"1217 ASHLAND AVE, ST PAUL, MN, 55104",1.0,1
ST. PAUL W-1 P-01,540,44.944219399999994,-93.1626906,"1477 ASHLAND AVE, ST PAUL, MN, 55104",1.0,1
ST. PAUL W-1 P-01,540,44.9442292,-93.1623377,"1467 ASHLAND AVE, ST PAUL, MN, 55104",1.0,1
ST. PAUL W-1 P-01,540,44.9442294,-93.16496500000001,"1531 ASHLAND AVE, ST PAUL, MN, 55104",3.0,2
ST. PAUL W-1 P-01,540,44.944233700000005,-93.152928,"1249 ASHLAND AVE, ST PAUL, MN, 55104",1.0,1
ST. PAUL W-1 P-01,540,44.9442359,-93.1647297,"1523 ASHLAND AVE, ST PAUL, MN, 55104",3.0,1
ST. PAUL W-1 P-01,540,44.9442399,-93.1540257,"1277 ASHLAND AVE, ST PAUL, MN, 55104",2.0,2
ST. PAUL W-1 P-01,540,44.944244299999994,-93.1505562,"1191 ASHLAND AVE, ST PAUL, MN, 55104",2.0,2
ST. PAUL W-1 P-01,540,44.9443351,-93.1545353,"91 SYNDICATE ST N, ST PAUL, MN, 55104",2.0,1
ST. PAUL W-1 P-01,540,44.944705,-93.166066,"1560 LAUREL AVE, ST PAUL, MN, 55104",1.0,1
ST. PAUL W-1 P-01,540,44.9447059,-93.16622,"1562 LAUREL AVE, ST PAUL, MN, 55104",2.0,2
ST. PAUL W-1 P-01,540,44.944726,-93.15052,"1190 LAUREL AVE, ST PAUL, MN, 55104",1.0,1
ST. PAUL W-1 P-01,540,44.9447465,-93.1633965,"1496 LAUREL AVE, ST PAUL, MN, 55104",2.0,2
ST. PAUL W-1 P-01,540,44.94475870000001,-93.15039940000001,"1188 LAUREL AVE, ST PAUL, MN, 55104",2.0,2
ST. PAUL W-1 P-01,540,44.944777200000004,-93.1508175,"1198 LAUREL AVE, ST PAUL, MN, 55104",2.0,2
ST. PAUL W-1 P-01,540,44.9447781,-93.1509383,"1202 LAUREL AVE, ST PAUL, MN, 55104",2.0,1
ST. PAUL W-1 P-01,540,44.9447846,-93.14945859999999,"1162 LAUREL AVE, ST PAUL, MN, 55104",2.0,1
ST. PAUL W-1 P-01,540,44.9447862,-93.1632788,"1494 LAUREL AVE, ST PAUL, MN, 55104",2.0,1
ST. PAUL W-1 P-01,540,44.944788,-93.1513206,"1214 LAUREL AVE, ST PAUL, MN, 55104",3.0,1
ST. PAUL W-1 P-01,540,44.9447893,-93.16514140000001,"1534 LAUREL AVE, ST PAUL, MN, 55104",2.0,2
ST. PAUL W-1 P-01,540,44.944790399999995,-93.1499094,"1176 LAUREL AVE, ST PAUL, MN, 55104",2.0,2
ST. PAUL W-1 P-01,540,44.9447967,-93.151007,"1204 LAUREL AVE, ST PAUL, MN, 55104",1.0,1
ST. PAUL W-1 P-01,540,44.9447981,-93.1628475,"1480 LAUREL AVE, ST PAUL, MN, 55104",1.0,1
ST. PAUL W-1 P-01,540,44.9448042,-93.1639454,"1510 LAUREL AVE, ST PAUL, MN, 55104",1.0,1
ST. PAUL W-1 P-01,540,44.94480799999999,-93.1532416,"1254 LAUREL AVE, ST PAUL, MN, 55104",2.0,2
ST. PAUL W-1 P-01,540,44.9448138,-93.1536924,"1268 LAUREL AVE, ST PAUL, MN, 55104",2.0,2
ST. PAUL W-1 P-01,540,44.944821000000005,-93.1527711,"1244 LAUREL AVE, ST PAUL, MN, 55104",4.0,2
ST. PAUL W-1 P-01,540,44.944827200000006,-93.1538689,"1272 LAUREL AVE, ST PAUL, MN, 55104",1.0,1
ST. PAUL W-1 P-01,540,44.9448401,-93.1533984,"1260 LAUREL AVE, ST PAUL, MN, 55104",2.0,2
ST. PAUL W-1 P-01,540,44.944840899999996,-93.1546922,"1288 LAUREL AVE, ST PAUL, MN, 55104",4.0,2
ST. PAUL W-1 P-01,540,44.94486440000001,-93.1551626,"1302 LAUREL AVE, ST PAUL, MN, 55104",1.0,1
ST. PAUL W-1 P-01,540,44.9488199,-93.1692966,"44 ALBERT ST N, ST PAUL, MN, 55104",2.0,2
ST. PAUL W-1 P-01,540,44.967557299999996,-93.1516907,"33 GRIGGS ST N, ST PAUL, MN, 55104",3.0,1
ST. PAUL W-1 P-01,540,44.967557299999996,-93.1516907,"41 GRIGGS ST N, ST PAUL, MN, 55104",2.0,2
ST. PAUL W-1 P-01,540,44.967557299999996,-93.1516907,"69 GRIGGS ST N, ST PAUL, MN, 55104",5.0,2
ST. PAUL W-1 P-01,540,44.967557299999996,-93.1516907,"7 GRIGGS ST N, ST PAUL, MN, 55104",1.0,1
ST. PAUL W-1 P-02,550,44.944174700000005,-93.157711,"1361 ASHLAND AVE, ST PAUL, MN, 55104",1.0,1
ST. PAUL W-1 P-02,550,44.9441924,-93.1597107,"1405 ASHLAND AVE, ST PAUL, MN, 55104",3.0,2
ST. PAUL W-1 P-02,550,44.94420179999999,-93.1606909,"1433 ASHLAND AVE, ST PAUL, MN, 55104",2.0,2
ST. PAUL W-1 P-02,550,44.9442176,-93.1614359,"1451 ASHLAND AVE, ST PAUL, MN, 55104",2.0,2
ST. PAUL W-1 P-02,550,44.94424179999999,-93.1612202,"1445 ASHLAND AVE, ST PAUL, MN, 55104",8.0,2
ST. PAUL W-1 P-02,550,44.944266,-93.1610046,"1439 ASHLAND AVE, ST PAUL, MN, 55104",8.0,1
ST. PAUL W-1 P-02,550,44.94480859999999,-93.15982829999999,"1408 LAUREL AVE, ST PAUL, MN, 55104",2.0,2
ST. PAUL W-1 P-02,550,44.9448104,-93.15910290000001,"1398 LAUREL AVE, ST PAUL, MN, 55104",2.0,2
ST. PAUL W-1 P-02,550,44.94481469999999,-93.1589461,"1390 LAUREL AVE, ST PAUL, MN, 55104",1.0,1
ST. PAUL W-1 P-02,550,44.9448991,-93.1578679,"1362 LAUREL AVE, ST PAUL, MN, 55104",2.0,1
ST. PAUL W-1 P-02,550,44.94518619999999,-93.163965,"1511 LAUREL AVE, ST PAUL, MN, 55104",4.0,2
ST. PAUL W-1 P-02,550,44.9452089,-93.149929,"1177 LAUREL AVE, ST PAUL, MN, 55104",2.0,2
ST. PAUL W-1 P-02,550,44.9452126,-93.1636709,"1503 LAUREL AVE, ST PAUL, MN, 55104",2.0,1
ST. PAUL W-1 P-02,550,44.94521470000001,-93.1503798,"1189 LAUREL AVE, ST PAUL, MN, 55104",3.0,1
ST. PAUL W-1 P-02,550,44.9452155,-93.1609262,"1437 LAUREL AVE, ST PAUL, MN, 55104",2.0,2
ST. PAUL W-1 P-02,550,44.94521760000001,-93.14961540000002,"1167 LAUREL AVE, ST PAUL, MN, 55104",2.0,1
ST. PAUL W-1 P-02,550,44.9452193,-93.16606290000001,"1561 LAUREL AVE, ST PAUL, MN, 55104",3.0,2
ST. PAUL W-1 P-02,550,44.9452195,-93.1601224,"1417 LAUREL AVE, ST PAUL, MN, 55104",1.0,1
ST. PAUL W-1 P-02,550,44.9452197,-93.1647297,"1523 LAUREL AVE, ST PAUL, MN, 55104",2.0,1
ST. PAUL W-1 P-02,550,44.945223600000006,-93.1659061,"1555 LAUREL AVE, ST PAUL, MN, 55104",2.0,1
ST. PAUL W-1 P-02,550,44.9452303,-93.1617104,"1457 LAUREL AVE, ST PAUL, MN, 55104",2.0,1
ST. PAUL W-1 P-02,550,44.94523230000001,-93.153712,"1267 LAUREL AVE, ST PAUL, MN, 55104",3.0,2
ST. PAUL W-1 P-02,550,44.9452346,-93.1615535,"1455 LAUREL AVE, ST PAUL, MN, 55104",2.0,2
ST. PAUL W-1 P-02,550,44.9452347,-93.1523007,"1233 LAUREL AVE, ST PAUL, MN, 55104",2.0,1
ST. PAUL W-1 P-02,550,44.9452361,-93.1509286,"1203 LAUREL AVE, ST PAUL, MN, 55104",3.0,1
ST. PAUL W-1 P-02,550,44.9452386,-93.15149709999999,"1217 LAUREL AVE, ST PAUL, MN, 55104",2.0,1
ST. PAUL W-1 P-02,550,44.9452399,-93.1653179,"1541 LAUREL AVE, ST PAUL, MN, 55104",2.0,1
ST. PAUL W-1 P-02,550,44.9452425,-93.1506934,"1197 LAUREL AVE, ST PAUL, MN, 55104",5.0,1
ST. PAUL W-1 P-02,550,44.945245299999996,-93.1532416,"1255 LAUREL AVE, ST PAUL, MN, 55104",1.0,1
ST. PAUL W-1 P-02,550,44.9452469,-93.1505366,"1193 LAUREL AVE, ST PAUL, MN, 55104",2.0,1
ST. PAUL W-1 P-02,550,44.9452473,-93.15118340000001,"1209 LAUREL AVE, ST PAUL, MN, 55104",2.0,1
ST. PAUL W-1 P-02,550,44.9452539,-93.152928,"1247 LAUREL AVE, ST PAUL, MN, 55104",2.0,2
ST. PAUL W-1 P-02,550,44.9452669,-93.1524575,"1235 LAUREL AVE, ST PAUL, MN, 55104",5.0,1
ST. PAUL W-1 P-02,550,44.9452809,-93.15194790000001,"1223 LAUREL AVE, ST PAUL, MN, 55104",2.0,2
ST. PAUL W-1 P-02,550,44.9454875,-93.147087,"135 LEXINGTON PKWY N, ST PAUL, MN, 55104",3.0,2
ST. PAUL W-1 P-02,550,44.9455179,-93.1655328,"1546 HAGUE AVE, ST PAUL, MN, 55104",1.0,1
ST. PAUL W-1 P-02,550,44.9455606,-93.16623940000001,"1562 HAGUE AVE, ST PAUL, MN, 55104",3.0,1
ST. PAUL W-1 P-02,550,44.945562200000005,-93.16288670000002,"1482 HAGUE AVE, ST PAUL, MN, 55104",2.0,1
ST. PAUL W-1 P-02,550,44.9455727,-93.1598675,"1408 HAGUE AVE, ST PAUL, MN, 55104",2.0,2
ST. PAUL W-1 P-02,550,44.9455752,-93.1624162,"1470 HAGUE AVE, ST PAUL, MN, 55104",1.0,1
ST. PAUL W-1 P-02,550,44.94558189999999,-93.14961540000002,"1168 HAGUE AVE, ST PAUL, MN, 55104",2.0,2
ST. PAUL W-1 P-02,550,44.9455867,-93.1501054,"1180 HAGUE AVE, ST PAUL, MN, 55104",2.0,2
ST. PAUL W-1 P-02,550,44.94558989999999,-93.16320040000001,"1490 HAGUE AVE, ST PAUL, MN, 55104",1.0,1
ST. PAUL W-1 P-02,550,44.94559479999999,-93.1524575,"1236 HAGUE AVE, ST PAUL, MN, 55104",2.0,2
ST. PAUL W-1 P-02,550,44.9456062,-93.1626122,"1474 HAGUE AVE, ST PAUL, MN, 55104",2.0,1
ST. PAUL W-1 P-02,550,44.9456131,-93.1610438,"1442 HAGUE AVE, ST PAUL, MN, 55104",2.0,2
ST. PAUL W-1 P-02,550,44.9456144,-93.1557115,"1316 HAGUE AVE, ST PAUL, MN, 55104",1.0,1
ST. PAUL W-1 P-02,550,44.945615999999994,-93.1510266,"1204 HAGUE AVE, ST PAUL, MN, 55104",2.0,2
ST. PAUL W-1 P-02,550,44.94561969999999,-93.1535356,"1264 HAGUE AVE, ST PAUL, MN, 55104",1.0,1
ST. PAUL W-1 P-02,550,44.9456199,-93.150223,"1184 HAGUE AVE, ST PAUL, MN, 55104",3.0,2
ST. PAUL W-1 P-02,550,44.94562029999999,-93.1508698,"1200 HAGUE AVE, ST PAUL, MN, 55104",1.0,1
ST. PAUL W-1 P-02,550,44.94562579999999,-93.1526535,"1240 HAGUE AVE, ST PAUL, MN, 55104",3.0,1
ST. PAUL W-1 P-02,550,44.94563549999999,-93.1523007,"1232 HAGUE AVE, ST PAUL, MN, 55104",2.0,1
ST. PAUL W-1 P-02,550,44.9456388,-93.15218309999999,"1226 HAGUE AVE, ST PAUL, MN, 55104",1.0,1
ST. PAUL W-1 P-02,550,44.945964000000004,-93.1648277,"1525 HAGUE AVE, ST PAUL, MN, 55104",3.0,2
ST. PAUL W-1 P-02,550,44.9459683,-93.1646709,"1521 HAGUE AVE, ST PAUL, MN, 55104",1.0,1
ST. PAUL W-1 P-02,550,44.9459884,-93.1533788,"1259 HAGUE AVE, ST PAUL, MN, 55104",2.0,2
ST. PAUL W-1 P-02,550,44.945992100000005,-93.1638082,"1507 HAGUE AVE, ST PAUL, MN, 55104",2.0,2
ST. PAUL W-1 P-02,550,44.9460014,-93.15290840000002,"1247 HAGUE AVE, ST PAUL, MN, 55104",5.0,1
ST. PAUL W-1 P-02,550,44.946003000000005,-93.1554959,"1309 HAGUE AVE, ST PAUL, MN, 55104",2.0,2
ST. PAUL W-1 P-02,550,44.9460031,-93.15218309999999,"1229 HAGUE AVE, ST PAUL, MN, 55104",3.0,2
ST. PAUL W-1 P-02,550,44.9460037,-93.16272990000002,"1479 HAGUE AVE, ST PAUL, MN, 55104",2.0,2
ST. PAUL W-1 P-02,550,44.94600620000001,-93.1500858,"1181 HAGUE AVE, ST PAUL, MN, 55104",2.0,2
ST. PAUL W-1 P-02,550,44.9460093,-93.1532808,"1257 HAGUE AVE, ST PAUL, MN, 55104",1.0,1
ST. PAUL W-1 P-02,550,44.946011600000006,-93.1551822,"1299 HAGUE AVE, ST PAUL, MN, 55104",2.0,1
ST. PAUL W-1 P-02,550,44.94601369999999,-93.153124,"1253 HAGUE AVE, ST PAUL, MN, 55104",1.0,1
ST. PAUL W-1 P-02,550,44.9460159,-93.15502540000001,"1295 HAGUE AVE, ST PAUL, MN, 55104",3.0,2
ST. PAUL W-1 P-02,550,44.946020700000005,-93.150223,"1185 HAGUE AVE, ST PAUL, MN, 55104",3.0,1
ST. PAUL W-1 P-02,550,44.9460223,-93.1528104,"1245 HAGUE AVE, ST PAUL, MN, 55104",2.0,1
ST. PAUL W-1 P-02,550,44.946026,-93.16286590000001,"1483 HAGUE AVE, ST PAUL, MN, 55104",1.0,1
ST. PAUL W-1 P-02,550,44.9460307,-93.1538297,"1271 HAGUE AVE, ST PAUL, MN, 55104",3.0,2
ST. PAUL W-1 P-02,550,44.9460355,-93.151007,"1205 HAGUE AVE, ST PAUL, MN, 55104",3.0,2
ST. PAUL W-1 P-02,550,44.9460816,-93.1559467,"1321 HAGUE AVE, ST PAUL, MN, 55104",1.0,1
ST. PAUL W-1 P-02,550,44.946113700000005,-93.1561036,"1325 HAGUE AVE, ST PAUL, MN, 55104",2.0,1
ST. PAUL W-1 P-02,550,44.946304999999995,-93.162717,"1476 SELBY AVE, ST PAUL, MN, 55104",2.0,1
ST. PAUL W-1 P-02,550,44.946381,-93.16619200000001,"1564 SELBY AVE, ST PAUL, MN, 55104",7.0,1
ST. PAUL W-1 P-02,550,44.9463813,-93.149336,"167 DUNLAP ST N, ST PAUL, MN, 55104",6.0,1
ST. PAUL W-1 P-02,550,44.946387200000004,-93.16335720000001,"1494 SELBY AVE, ST PAUL, MN, 55104",4.0,2
ST. PAUL W-1 P-02,550,44.9463917,-93.1519675,"1220 SELBY AVE, ST PAUL, MN, 55104",9.0,1
ST. PAUL W-1 P-02,550,44.946426200000005,-93.150713,"1196 SELBY AVE, ST PAUL, MN, 55104",2.0,1
ST. PAUL W-1 P-02,550,44.9464294,-93.1578679,"1364 SELBY AVE, ST PAUL, MN, 55104",2.0,1
ST. PAUL W-1 P-02,550,44.9464424,-93.15739740000001,"1350 SELBY AVE, ST PAUL, MN, 55104",2.0,2
ST. PAUL W-1 P-02,550,44.946442700000006,-93.1560644,"1322 SELBY AVE, ST PAUL, MN, 55104",1.0,1
ST. PAUL W-1 P-02,550,44.9464614,-93.15406490000001,"1278 SELBY AVE, ST PAUL, MN, 55104",1.0,1
ST. PAUL W-1 P-02,550,44.9467143,-93.1656113,"1555 SELBY AVE, ST PAUL, MN, 55104",156.0,7
ST. PAUL W-1 P-02,550,44.946810299999996,-93.1563123,"1331 SELBY AVE, ST PAUL, MN, 55104",2.0,1
ST. PAUL W-1 P-02,550,44.9468561,-93.1496546,"1171 SELBY AVE, ST PAUL, MN, 55104",16.0,2
ST. PAUL W-1 P-02,550,44.9468606,-93.1514775,"1217 SELBY AVE, ST PAUL, MN, 55104",2.0,1
ST. PAUL W-1 P-02,550,44.9468774,-93.1554959,"1309 SELBY AVE, ST PAUL, MN, 55104",2.0,2
ST. PAUL W-1 P-02,550,44.94687889999999,-93.1561036,"1325 SELBY AVE, ST PAUL, MN, 55104",1.0,1
ST. PAUL W-1 P-02,550,44.9468875,-93.15578990000002,"1317 SELBY AVE, ST PAUL, MN, 55104",3.0,1
ST. PAUL W-1 P-02,550,44.947009,-93.1540257,"186 SYNDICATE ST N, ST PAUL, MN, 55104",1.0,1
ST. PAUL W-1 P-02,550,44.9472278,-93.150713,"1194 DAYTON AVE, ST PAUL, MN, 55104",2.0,2
ST. PAUL W-1 P-02,550,44.94723629999999,-93.153712,"1268 DAYTON AVE, ST PAUL, MN, 55104",2.0,1
ST. PAUL W-1 P-02,550,44.94724069999999,-93.1502426,"1184 DAYTON AVE, ST PAUL, MN, 55104",1.0,1
ST. PAUL W-1 P-02,550,44.947244899999994,-93.1533984,"1260 DAYTON AVE, ST PAUL, MN, 55104",3.0,1
ST. PAUL W-1 P-02,550,44.9472461,-93.155339,"1304 DAYTON AVE, ST PAUL, MN, 55104",2.0,2
ST. PAUL W-1 P-02,550,44.94724979999999,-93.15057579999998,"1192 DAYTON AVE, ST PAUL, MN, 55104",2.0,1
ST. PAUL W-1 P-02,550,44.947253700000005,-93.1497722,"1170 DAYTON AVE, ST PAUL, MN, 55104",2.0,2
ST. PAUL W-1 P-02,550,44.94726729999999,-93.1539081,"1272 DAYTON AVE, ST PAUL, MN, 55104",1.0,1
ST. PAUL W-1 P-02,550,44.94726970000001,-93.1524967,"1236 DAYTON AVE, ST PAUL, MN, 55104",2.0,1
ST. PAUL W-1 P-02,550,44.9472797,-93.1561036,"1326 DAYTON AVE, ST PAUL, MN, 55104",1.0,1
ST. PAUL W-1 P-02,550,44.9472807,-93.1540845,"1276 DAYTON AVE, ST PAUL, MN, 55104",1.0,1
ST. PAUL W-1 P-02,550,44.9473306,-93.1531448,"1252 DAYTON AVE, ST PAUL, MN, 55104",1.0,1
ST. PAUL W-1 P-02,550,44.94765659999999,-93.15649570000001,"1333 DAYTON AVE, ST PAUL, MN, 55104",3.0,1
ST. PAUL W-1 P-02,550,44.9476607,-93.1508698,"1201 DAYTON AVE, ST PAUL, MN, 55104",2.0,2
ST. PAUL W-1 P-02,550,44.947691999999996,-93.15502540000001,"1297 DAYTON AVE, ST PAUL, MN, 55104",1.0,1
ST. PAUL W-1 P-02,550,44.94770159999999,-93.1526927,"1243 DAYTON AVE, ST PAUL, MN, 55104",2.0,2
ST. PAUL W-1 P-02,550,44.947707,-93.1524967,"1237 DAYTON AVE, ST PAUL, MN, 55104",3.0,2
ST. PAUL W-1 P-02,550,44.9477071,-93.1544765,"1283 DAYTON AVE, ST PAUL, MN, 55104",2.0,2
ST. PAUL W-1 P-02,550,44.94771129999999,-93.15233990000002,"1231 DAYTON AVE, ST PAUL, MN, 55104",4.0,2
ST. PAUL W-1 P-02,550,44.947716299999996,-93.15149709999999,"1217 DAYTON AVE, ST PAUL, MN, 55104",1.0,1
ST. PAUL W-1 P-02,550,44.94771859999999,-93.1533984,"1261 DAYTON AVE, ST PAUL, MN, 55104",1.0,1
ST. PAUL W-1 P-02,550,44.94772589999999,-93.15643680000001,"1331 DAYTON AVE, ST PAUL, MN, 55104",2.0,1
ST. PAUL W-1 P-02,550,44.94772649999999,-93.1537708,"1269 DAYTON AVE, ST PAUL, MN, 55104",2.0,1
ST. PAUL W-1 P-02,550,44.9482523,-93.1505562,"1190 MARSHALL AVE, ST PAUL, MN, 55104",3.0,1
ST. PAUL W-1 P-02,550,44.9482648,-93.1547314,"1288 MARSHALL AVE, ST PAUL, MN, 55104",2.0,2
ST. PAUL W-1 P-02,550,44.94827120000001,-93.15251629999999,"1236 MARSHALL AVE, ST PAUL, MN, 55104",2.0,2
ST. PAUL W-1 P-02,550,44.9482749,-93.15502540000001,"1296 MARSHALL AVE, ST PAUL, MN, 55104",1.0,1
ST. PAUL W-1 P-02,550,44.9482813,-93.1528104,"1244 MARSHALL AVE, ST PAUL, MN, 55104",4.0,2
ST. PAUL W-1 P-02,550,44.9482954,-93.1489882,"1158 MARSHALL AVE, ST PAUL, MN, 55104",2.0,2
ST. PAUL W-1 P-02,550,44.948312200000004,-93.1510266,"1204 MARSHALL AVE, ST PAUL, MN, 55104",2.0,1
ST. PAUL W-1 P-02,550,44.948315,-93.1502622,"1184 MARSHALL AVE, ST PAUL, MN, 55104",2.0,1
ST. PAUL W-1 P-02,550,44.9483208,-93.150713,"1196 MARSHALL AVE, ST PAUL, MN, 55104",2.0,2
ST. PAUL W-1 P-02,550,44.94832359999999,-93.14994859999999,"1176 MARSHALL AVE, ST PAUL, MN, 55104",2.0,1
ST. PAUL W-1 P-02,550,44.949141,-93.1639062,"1506 IGLEHART AVE, ST PAUL, MN, 55104",4.0,1
ST. PAUL W-1 P-02,550,44.9491436,-93.1624946,"1472 IGLEHART AVE, ST PAUL, MN, 55104",2.0,1
ST. PAUL W-1 P-02,550,44.949167700000004,-93.1642591,"1516 IGLEHART AVE, ST PAUL, MN, 55104",2.0,2
ST. PAUL W-1 P-02,550,44.949532700000006,-93.1655532,"1543 IGLEHART AVE, ST PAUL, MN, 55104",2.0,1
ST. PAUL W-1 P-02,550,44.9495685,-93.1642591,"1515 IGLEHART AVE, ST PAUL, MN, 55104",1.0,1
ST. PAUL W-1 P-02,550,44.94957489999999,-93.1660041,"1555 IGLEHART AVE, ST PAUL, MN, 55104",1.0,1
ST. PAUL W-1 P-02,550,44.949579299999996,-93.16386700000001,"1507 IGLEHART AVE, ST PAUL, MN, 55104",1.0,1
ST. PAUL W-1 P-02,550,44.94960820000001,-93.16216130000001,"1461 IGLEHART AVE, ST PAUL, MN, 55104",3.0,1
ST. PAUL W-1 P-02,550,44.950061600000005,-93.1635533,"1500 CARROLL AVE, ST PAUL, MN, 55104",2.0,1
ST. PAUL W-1 P-02,550,44.950074799999996,-93.16571,"1548 CARROLL AVE, ST PAUL, MN, 55104",5.0,4
ST. PAUL W-1 P-02,550,44.9504793,-93.1642591,"1521 CARROLL AVE, ST PAUL, MN, 55104",2.0,1
ST. PAUL W-1 P-02,550,44.95055199999999,-93.163637,"1501 CARROLL AVE, ST PAUL, MN, 55104",1.0,1
ST. PAUL W-1 P-02,550,44.952703,-93.15298680000001,"1247 ST ANTHONY AVE, ST PAUL, MN, 55104",377.0,33
ST. PAUL W-1 P-02,550,44.953727,-93.1488706,"412 DUNLAP ST N, ST PAUL, MN, 55104",49.0,1
ST. PAUL W-1 P-02,550,44.967557299999996,-93.1516907,"197 GRIGGS ST N, ST PAUL, MN, 55104",2.0,2
ST. PAUL W-1 P-03,560,44.959538099999996,-93.1349095,"823 THOMAS AVE, ST PAUL, MN, 55104",1.0,1
ST. PAUL W-1 P-03,560,44.9595388,-93.1328852,"775 THOMAS AVE, ST PAUL, MN, 55104",3.0,2
ST. PAUL W-1 P-03,560,44.959542799999994,-93.1420453,"989 THOMAS AVE, ST PAUL, MN, 55104",2.0,2
ST. PAUL W-1 P-03,560,44.9595463,-93.140591,"957 THOMAS AVE, ST PAUL, MN, 55104",2.0,2
ST. PAUL W-1 P-03,560,44.9595467,-93.1286017,"673 THOMAS AVE, ST PAUL, MN, 55104",3.0,1
ST. PAUL W-1 P-03,560,44.9595489,-93.1378393,"891 THOMAS AVE, ST PAUL, MN, 55104",2.0,1
ST. PAUL W-1 P-03,560,44.95956049999999,-93.1294286,"689 THOMAS AVE, ST PAUL, MN, 55104",2.0,1
ST. PAUL W-1 P-03,560,44.959563,-93.1359932,"849 THOMAS AVE, ST PAUL, MN, 55104",2.0,2
ST. PAUL W-1 P-03,560,44.9595718,-93.140987,"969 THOMAS AVE, ST PAUL, MN, 55104",4.0,2
ST. PAUL W-1 P-03,560,44.9595723,-93.1383137,"905 THOMAS AVE, ST PAUL, MN, 55104",2.0,1
ST. PAUL W-1 P-03,560,44.9595768,-93.1368203,"865 THOMAS AVE, ST PAUL, MN, 55104",4.0,1
ST. PAUL W-1 P-03,560,44.959613,-93.137548,"885 THOMAS AVE, ST PAUL, MN, 55104",4.0,2
ST. PAUL W-1 P-03,560,44.959867700000004,-93.134179,"800 LAFOND AVE, ST PAUL, MN, 55104",1.0,1
ST. PAUL W-1 P-03,560,44.9600109,-93.1462252,"622 LEXINGTON PKWY N, ST PAUL, MN, 55104",2.0,1
ST. PAUL W-1 P-03,560,44.9600395,-93.1358882,"846 LAFOND AVE, ST PAUL, MN, 55104",2.0,2
ST. PAUL W-1 P-03,560,44.9600461,-93.1343165,"806 LAFOND AVE, ST PAUL, MN, 55104",2.0,2
ST. PAUL W-1 P-03,560,44.9600479,-93.14023320000001,"950 LAFOND AVE, ST PAUL, MN, 55104",2.0,2
ST. PAUL W-1 P-03,560,44.960050700000004,-93.13946690000002,"928 LAFOND AVE, ST PAUL, MN, 55104",3.0,2
ST. PAUL W-1 P-03,560,44.9600567,-93.1352611,"830 LAFOND AVE, ST PAUL, MN, 55104",3.0,2
ST. PAUL W-1 P-03,560,44.9600571,-93.1312517,"738 LAFOND AVE, ST PAUL, MN, 55104",2.0,2
ST. PAUL W-1 P-03,560,44.9600576,-93.1319003,"748 LAFOND AVE, ST PAUL, MN, 55104",7.0,3
ST. PAUL W-1 P-03,560,44.9600689,-93.1308206,"724 LAFOND AVE, ST PAUL, MN, 55104",1.0,1
ST. PAUL W-1 P-03,560,44.9600696,-93.1347908,"816 LAFOND AVE, ST PAUL, MN, 55104",1.0,1
ST. PAUL W-1 P-03,560,44.9600711,-93.1387222,"914 LAFOND AVE, ST PAUL, MN, 55104",1.0,1
ST. PAUL W-1 P-03,560,44.960072600000004,-93.1360098,"848 LAFOND AVE, ST PAUL, MN, 55104",3.0,1
ST. PAUL W-1 P-03,560,44.9600799,-93.137072,"870 LAFOND AVE, ST PAUL, MN, 55104",1.0,1
ST. PAUL W-1 P-03,560,44.9600911,-93.1406508,"958 LAFOND AVE, ST PAUL, MN, 55104",1.0,1
ST. PAUL W-1 P-03,560,44.960119799999994,-93.1462371,"628 LEXINGTON PKWY N, ST PAUL, MN, 55104",4.0,3
ST. PAUL W-1 P-03,560,44.9604372,-93.13333730000001,"787 LAFOND AVE, ST PAUL, MN, 55104",5.0,1
ST. PAUL W-1 P-03,560,44.960443,-93.129132,"683 LAFOND AVE, ST PAUL, MN, 55104",3.0,1
ST. PAUL W-1 P-03,560,44.9604467,-93.1343211,"807 LAFOND AVE, ST PAUL, MN, 55104",2.0,2
ST. PAUL W-1 P-03,560,44.960468,-93.1302157,"709 LAFOND AVE, ST PAUL, MN, 55104",4.0,1
ST. PAUL W-1 P-03,560,44.960471999999996,-93.1327318,"771 LAFOND AVE, ST PAUL, MN, 55104",1.0,1
ST. PAUL W-1 P-03,560,44.9604773,-93.13719420000001,"875 LAFOND AVE, ST PAUL, MN, 55104",1.0,1
ST. PAUL W-1 P-03,560,44.960479600000006,-93.1424234,"999 LAFOND AVE, ST PAUL, MN, 55104",1.0,1
ST. PAUL W-1 P-03,560,44.9604805,-93.1370766,"873 LAFOND AVE, ST PAUL, MN, 55104",2.0,1
ST. PAUL W-1 P-03,560,44.960516999999996,-93.13226,"759 LAFOND AVE, ST PAUL, MN, 55104",3.0,1
ST. PAUL W-1 P-03,560,44.9605267,-93.1305788,"723 LAFOND AVE, ST PAUL, MN, 55104",2.0,2
ST. PAUL W-1 P-03,560,44.96093820000001,-93.1336673,"794 BLAIR AVE, ST PAUL, MN, 55104",2.0,2
ST. PAUL W-1 P-03,560,44.960945,-93.1294227,"690 BLAIR AVE, ST PAUL, MN, 55104",3.0,1
ST. PAUL W-1 P-03,560,44.9609511,-93.133197,"782 BLAIR AVE, ST PAUL, MN, 55104",2.0,2
ST. PAUL W-1 P-03,560,44.9609636,-93.1353998,"834 BLAIR AVE, ST PAUL, MN, 55104",4.0,1
ST. PAUL W-1 P-03,560,44.96097279999999,-93.1297402,"698 BLAIR AVE, ST PAUL, MN, 55104",1.0,1
ST. PAUL W-1 P-03,560,44.9609914,-93.1357173,"842 BLAIR AVE, ST PAUL, MN, 55104",1.0,1
ST. PAUL W-1 P-03,560,44.9613456,-93.1294272,"691 BLAIR AVE, ST PAUL, MN, 55104",2.0,1
ST. PAUL W-1 P-03,560,44.961349,-93.12797330000001,"659 BLAIR AVE, ST PAUL, MN, 55104",4.0,4
ST. PAUL W-1 P-03,560,44.9613514,-93.1358747,"847 BLAIR AVE, ST PAUL, MN, 55104",3.0,2
ST. PAUL W-1 P-03,560,44.961352000000005,-93.1305285,"719 BLAIR AVE, ST PAUL, MN, 55104",2.0,2
ST. PAUL W-1 P-03,560,44.96135599999999,-93.1330448,"779 BLAIR AVE, ST PAUL, MN, 55104",2.0,1
ST. PAUL W-1 P-03,560,44.9613605,-93.130215,"711 BLAIR AVE, ST PAUL, MN, 55104",1.0,1
ST. PAUL W-1 P-03,560,44.9613685,-93.13524759999999,"831 BLAIR AVE, ST PAUL, MN, 55104",2.0,1
ST. PAUL W-1 P-03,560,44.9613691,-93.1299015,"701 BLAIR AVE, ST PAUL, MN, 55104",2.0,2
ST. PAUL W-1 P-03,560,44.96138070000001,-93.1321433,"753 BLAIR AVE, ST PAUL, MN, 55104",2.0,1
ST. PAUL W-1 P-03,560,44.9614691,-93.14618890000001,"668 LEXINGTON PKWY N, ST PAUL, MN, 55104",1.0,1
ST. PAUL W-1 P-03,560,44.961577,-93.14624,"674 LEXINGTON PKWY N, ST PAUL, MN, 55104",1.0,1
ST. PAUL W-1 P-03,560,44.96184359999999,-93.1272019,"638 VANBUREN AVE, ST PAUL, MN, 55104",3.0,1
ST. PAUL W-1 P-03,560,44.96185089999999,-93.12960040000002,"694 VANBUREN AVE, ST PAUL, MN, 55104",3.0,1
ST. PAUL W-1 P-03,560,44.96185699999999,-93.1333748,"786 VANBUREN AVE, ST PAUL, MN, 55104",1.0,1
ST. PAUL W-1 P-03,560,44.96187379999999,-93.1354209,"834 VANBUREN AVE, ST PAUL, MN, 55104",1.0,1
ST. PAUL W-1 P-03,560,44.9618818,-93.13113680000001,"734 VANBUREN AVE, ST PAUL, MN, 55104",3.0,2
ST. PAUL W-1 P-03,560,44.96189040000001,-93.1308233,"726 VANBUREN AVE, ST PAUL, MN, 55104",5.0,1
ST. PAUL W-1 P-03,560,44.96191629999999,-93.13320440000001,"782 VANBUREN AVE, ST PAUL, MN, 55104",1.0,1
ST. PAUL W-1 P-03,560,44.9620799,-93.1413461,"660 CHATSWORTH ST N, ST PAUL, MN, 55104",3.0,1
ST. PAUL W-1 P-03,560,44.962241799999994,-93.1312941,"737 VANBUREN AVE, ST PAUL, MN, 55104",1.0,1
ST. PAUL W-1 P-03,560,44.9622513,-93.1322779,"759 VANBUREN AVE, ST PAUL, MN, 55104",2.0,1
ST. PAUL W-1 P-03,560,44.96225379999999,-93.1341848,"803 VANBUREN AVE, ST PAUL, MN, 55104",2.0,2
ST. PAUL W-1 P-03,560,44.962259,-93.1306671,"721 VANBUREN AVE, ST PAUL, MN, 55104",4.0,2
ST. PAUL W-1 P-03,560,44.9622745,-93.1357339,"843 VANBUREN AVE, ST PAUL, MN, 55104",2.0,2
ST. PAUL W-1 P-03,560,44.9622821,-93.1338145,"799 VANBUREN AVE, ST PAUL, MN, 55104",1.0,1
ST. PAUL W-1 P-03,560,44.962295000000005,-93.13334410000002,"787 VANBUREN AVE, ST PAUL, MN, 55104",1.0,1
ST. PAUL W-1 P-03,560,44.962360600000004,-93.1460575,"698 LEXINGTON PKWY N, ST PAUL, MN, 55104",3.0,1
ST. PAUL W-1 P-03,560,44.9624843,-93.137192,"872 MINNEHAHA AVE W, ST PAUL, MN, 55104",1.0,1
ST. PAUL W-1 P-03,560,44.962485,-93.137192,"864 MINNEHAHA AVE W, ST PAUL, MN, 55104",3.0,3
ST. PAUL W-1 P-03,560,44.96270560000001,-93.13224300000002,"756 MINNEHAHA AVE W, ST PAUL, MN, 55104",1.0,1
ST. PAUL W-1 P-03,560,44.9627779,-93.1330039,"778 MINNEHAHA AVE W, ST PAUL, MN, 55104",2.0,1
ST. PAUL W-1 P-03,560,44.9627922,-93.1284848,"670 MINNEHAHA AVE W, ST PAUL, MN, 55104",2.0,1
ST. PAUL W-1 P-03,560,44.9628042,-93.1426786,"1004 MINNEHAHA AVE W, ST PAUL, MN, 55104",2.0,1
ST. PAUL W-1 P-03,560,44.9628528,-93.13914,"876 MINNEHAHA AVE W, ST PAUL, MN, 55104",2.0,2
ST. PAUL W-1 P-03,560,44.96316420000001,-93.1328693,"775 MINNEHAHA AVE W, ST PAUL, MN, 55104",5.0,2
ST. PAUL W-1 P-03,560,44.9631816,-93.13422750000001,"805 MINNEHAHA AVE W, ST PAUL, MN, 55104",2.0,2
ST. PAUL W-1 P-03,560,44.9633494,-93.137994,"903 MINNEHAHA AVE W, ST PAUL, MN, 55104",8.0,1
ST. PAUL W-1 P-03,560,44.9634359,-93.1462085,"734 LEXINGTON PKWY N, ST PAUL, MN, 55104",1.0,1
ST. PAUL W-1 P-03,560,44.9636891,-93.1343224,"806 ENGLEWOOD AVE, ST PAUL, MN, 55104",2.0,2
ST. PAUL W-1 P-03,560,44.964088399999994,-93.1423478,"995 ENGLEWOOD AVE, ST PAUL, MN, 55104",2.0,1
ST. PAUL W-1 P-03,560,44.9641122,-93.1381628,"750 MILTON ST N, ST PAUL, MN, 55104",77.0,2
ST. PAUL W-1 P-03,560,44.96420089999999,-93.1462139,"758 LEXINGTON PKWY N, ST PAUL, MN, 55104",1.0,1
ST. PAUL W-1 P-03,560,44.964352399999996,-93.1461989,"764 LEXINGTON PKWY N, ST PAUL, MN, 55104",1.0,1
ST. PAUL W-1 P-03,560,44.964462,-93.135918,"846 PIERCE BUTLER RTE, ST PAUL, MN, 55104",10.0,1
ST. PAUL W-1 P-03,560,44.964576799999996,-93.1418116,"984 SEMINARY AVE, ST PAUL, MN, 55104",2.0,1
ST. PAUL W-1 P-03,560,44.964583700000006,-93.1422252,"992 SEMINARY AVE, ST PAUL, MN, 55104",2.0,1
ST. PAUL W-1 P-03,560,44.96548920000001,-93.14175440000001,"805 CHATSWORTH ST N, ST PAUL, MN, 55104",3.0,1
ST. PAUL W-1 P-03,560,44.9656144,-93.1462861,"808 LEXINGTON PKWY N, ST PAUL, MN, 55104",1.0,1
ST. PAUL W-1 P-03,560,44.9658914,-93.1423688,"999 HUBBARD AVE, ST PAUL, MN, 55104",2.0,1
ST. PAUL W-1 P-03,560,44.9659498,-93.1462095,"814 LEXINGTON PKWY N, ST PAUL, MN, 55104",1.0,1
ST. PAUL W-1 P-03,560,44.9702099,-93.1364708,"621 VICTORIA ST N, ST PAUL, MN, 55104",3.0,1
ST. PAUL W-1 P-04,570,44.9559785,-93.1358578,"839 UNIVERSITY AVE W, ST PAUL, MN, 55104",18.0,1
ST. PAUL W-1 P-04,570,44.955991,-93.1320761,"755 UNIVERSITY AVE W, ST PAUL, MN, 55104",3.0,2
ST. PAUL W-1 P-04,570,44.956298700000005,-93.1387971,"498 MILTON ST N, ST PAUL, MN, 55104",2.0,1
ST. PAUL W-1 P-04,570,44.956416100000006,-93.13783690000001,"892 SHERBURNE AVE, ST PAUL, MN, 55104",2.0,2
ST. PAUL W-1 P-04,570,44.9564211,-93.13432940000001,"804 SHERBURNE AVE, ST PAUL, MN, 55104",2.0,2
ST. PAUL W-1 P-04,570,44.956436100000005,-93.1337808,"798 SHERBURNE AVE, ST PAUL, MN, 55104",7.0,1
ST. PAUL W-1 P-04,570,44.9564555,-93.1403844,"950 SHERBURNE AVE, ST PAUL, MN, 55104",2.0,2
ST. PAUL W-1 P-04,570,44.9564576,-93.132997,"776 SHERBURNE AVE, ST PAUL, MN, 55104",2.0,2
ST. PAUL W-1 P-04,570,44.9564657,-93.14067840000001,"958 SHERBURNE AVE, ST PAUL, MN, 55104",1.0,1
ST. PAUL W-1 P-04,570,44.9564683,-93.14124670000001,"974 SHERBURNE AVE, ST PAUL, MN, 55104",3.0,1
ST. PAUL W-1 P-04,570,44.956824100000006,-93.1402277,"949 SHERBURNE AVE, ST PAUL, MN, 55104",2.0,1
ST. PAUL W-1 P-04,570,44.9568326,-93.14124670000001,"977 SHERBURNE AVE, ST PAUL, MN, 55104",2.0,1
ST. PAUL W-1 P-04,570,44.95684250000001,-93.1461914,"516 LEXINGTON PKWY N, ST PAUL, MN, 55104",4.0,1
ST. PAUL W-1 P-04,570,44.956843299999996,-93.1408548,"965 SHERBURNE AVE, ST PAUL, MN, 55104",2.0,2
ST. PAUL W-1 P-04,570,44.956846899999995,-93.1367396,"863 SHERBURNE AVE, ST PAUL, MN, 55104",2.0,1
ST. PAUL W-1 P-04,570,44.9568476,-93.140698,"959 SHERBURNE AVE, ST PAUL, MN, 55104",1.0,1
ST. PAUL W-1 P-04,570,44.9568539,-93.1417954,"983 SHERBURNE AVE, ST PAUL, MN, 55104",2.0,2
ST. PAUL W-1 P-04,570,44.956855600000004,-93.1284319,"671 SHERBURNE AVE, ST PAUL, MN, 55104",3.0,1
ST. PAUL W-1 P-04,570,44.956860999999996,-93.1269038,"629 SHERBURNE AVE, ST PAUL, MN, 55104",2.0,1
ST. PAUL W-1 P-04,570,44.9568665,-93.13934580000002,"927 SHERBURNE AVE, ST PAUL, MN, 55104",3.0,1
ST. PAUL W-1 P-04,570,44.9570145,-93.12898670000001,"525 ST ALBANS ST N, ST PAUL, MN, 55104",2.0,1
ST. PAUL W-1 P-04,570,44.9572794,-93.14620009999999,"536 LEXINGTON PKWY N, ST PAUL, MN, 55104",1.0,1
ST. PAUL W-1 P-04,570,44.9573178,-93.134175,"800 CHARLES AVE, ST PAUL, MN, 55104",5.0,1
ST. PAUL W-1 P-04,570,44.9573256,-93.1392073,"922 CHARLES AVE, ST PAUL, MN, 55104",2.0,1
ST. PAUL W-1 P-04,570,44.957327299999996,-93.1418021,"982 CHARLES AVE, ST PAUL, MN, 55104",3.0,1
ST. PAUL W-1 P-04,570,44.9573298,-93.1324075,"760 CHARLES AVE, ST PAUL, MN, 55104",1.0,1
ST. PAUL W-1 P-04,570,44.9573331,-93.1309536,"730 CHARLES AVE, ST PAUL, MN, 55104",3.0,1
ST. PAUL W-1 P-04,570,44.9573343,-93.1295782,"692 CHARLES AVE, ST PAUL, MN, 55104",1.0,1
ST. PAUL W-1 P-04,570,44.957338299999996,-93.1400735,"944 CHARLES AVE, ST PAUL, MN, 55104",4.0,2
ST. PAUL W-1 P-04,570,44.957346,-93.1304834,"718 CHARLES AVE, ST PAUL, MN, 55104",7.0,4
ST. PAUL W-1 P-04,570,44.9573469,-93.13976,"936 CHARLES AVE, ST PAUL, MN, 55104",2.0,2
ST. PAUL W-1 P-04,570,44.9573532,-93.1328817,"776 CHARLES AVE, ST PAUL, MN, 55104",1.0,1
ST. PAUL W-1 P-04,570,44.9573561,-93.1420804,"990 CHARLES AVE, ST PAUL, MN, 55104",2.0,2
ST. PAUL W-1 P-04,570,44.957369899999996,-93.13160620000001,"537 GROTTO ST N, ST PAUL, MN, 55104",6.0,2
ST. PAUL W-1 P-04,570,44.9573825,-93.1278149,"656 CHARLES AVE, ST PAUL, MN, 55104",1.0,1
ST. PAUL W-1 P-04,570,44.9577116,-93.13708759999999,"873 CHARLES AVE, ST PAUL, MN, 55104",4.0,1
ST. PAUL W-1 P-04,570,44.957720200000004,-93.1321162,"755 CHARLES AVE, ST PAUL, MN, 55104",3.0,1
ST. PAUL W-1 P-04,570,44.957722,-93.13005290000001,"707 CHARLES AVE, ST PAUL, MN, 55104",2.0,2
ST. PAUL W-1 P-04,570,44.9577242,-93.1346322,"815 CHARLES AVE, ST PAUL, MN, 55104",1.0,1
ST. PAUL W-1 P-04,570,44.957726,-93.1405485,"957 CHARLES AVE, ST PAUL, MN, 55104",3.0,2
ST. PAUL W-1 P-04,570,44.9577304,-93.1324121,"763 CHARLES AVE, ST PAUL, MN, 55104",1.0,1
ST. PAUL W-1 P-04,570,44.957730600000005,-93.1297394,"697 CHARLES AVE, ST PAUL, MN, 55104",3.0,1
ST. PAUL W-1 P-04,570,44.957733700000006,-93.13095820000001,"731 CHARLES AVE, ST PAUL, MN, 55104",1.0,1
ST. PAUL W-1 P-04,570,44.95774489999999,-93.13587259999998,"847 CHARLES AVE, ST PAUL, MN, 55104",2.0,1
ST. PAUL W-1 P-04,570,44.957747499999996,-93.1397646,"937 CHARLES AVE, ST PAUL, MN, 55104",1.0,1
ST. PAUL W-1 P-04,570,44.9577477,-93.1291125,"683 CHARLES AVE, ST PAUL, MN, 55104",3.0,1
ST. PAUL W-1 P-04,570,44.957788,-93.13346999999999,"793 CHARLES AVE, ST PAUL, MN, 55104",2.0,1
ST. PAUL W-1 P-04,570,44.957802,-93.14242420000001,"999 CHARLES AVE, ST PAUL, MN, 55104",4.0,1
ST. PAUL W-1 P-04,570,44.9578439,-93.1462032,"550 LEXINGTON PKWY N, ST PAUL, MN, 55104",1.0,1
ST. PAUL W-1 P-04,570,44.958056,-93.126644,"557 DALE ST N, ST PAUL, MN, 55103",1.0,1
ST. PAUL W-1 P-04,570,44.958172,-93.127493,"646 EDMUND AVE, ST PAUL, MN, 55104",2.0,1
ST. PAUL W-1 P-04,570,44.9582224,-93.1357284,"842 2 EDMUND AVE, ST PAUL, MN, 55104",1.0,1
ST. PAUL W-1 P-04,570,44.958231899999994,-93.1367122,"860 EDMUND AVE, ST PAUL, MN, 55104",1.0,1
ST. PAUL W-1 P-04,570,44.9582465,-93.13883659999999,"918 EDMUND AVE, ST PAUL, MN, 55104",2.0,2
ST. PAUL W-1 P-04,570,44.958251800000006,-93.1306611,"722 EDMUND AVE, ST PAUL, MN, 55104",6.0,1
ST. PAUL W-1 P-04,570,44.958267600000006,-93.1407259,"960 EDMUND AVE, ST PAUL, MN, 55104",3.0,1
ST. PAUL W-1 P-04,570,44.9586264,-93.12828490000001,"667 EDMUND AVE, ST PAUL, MN, 55104",3.0,2
ST. PAUL W-1 P-04,570,44.958627299999996,-93.1355762,"839 EDMUND AVE, ST PAUL, MN, 55104",2.0,1
ST. PAUL W-1 P-04,570,44.95863139999999,-93.1328641,"775 EDMUND AVE, ST PAUL, MN, 55104",2.0,2
ST. PAUL W-1 P-04,570,44.958637,-93.1352235,"831 EDMUND AVE, ST PAUL, MN, 55104",2.0,1
ST. PAUL W-1 P-04,570,44.95864160000001,-93.1323939,"761 EDMUND AVE, ST PAUL, MN, 55104",6.0,1
ST. PAUL W-1 P-04,570,44.9586458,-93.140217,"949 EDMUND AVE, ST PAUL, MN, 55104",2.0,1
ST. PAUL W-1 P-04,570,44.95865089999999,-93.1413577,"979 EDMUND AVE, ST PAUL, MN, 55104",2.0,1
ST. PAUL W-1 P-04,570,44.9586531,-93.1346356,"815 EDMUND AVE, ST PAUL, MN, 55104",2.0,2
ST. PAUL W-1 P-04,570,44.958657099999996,-93.1424592,"999 EDMUND AVE, ST PAUL, MN, 55104",1.0,1
ST. PAUL W-1 P-04,570,44.9586574,-93.1411225,"971 EDMUND AVE, ST PAUL, MN, 55104",1.0,1
ST. PAUL W-1 P-04,570,44.9586695,-93.1393547,"925 EDMUND AVE, ST PAUL, MN, 55104",2.0,2
ST. PAUL W-1 P-04,570,44.959089,-93.137202,"876 THOMAS AVE, ST PAUL, MN, 55104",3.0,2
ST. PAUL W-1 P-04,570,44.959122,-93.1348049,"818 THOMAS AVE, ST PAUL, MN, 55104",2.0,1
ST. PAUL W-1 P-04,570,44.9591534,-93.13099559999999,"730 THOMAS AVE, ST PAUL, MN, 55104",5.0,2
ST. PAUL W-1 P-04,570,44.959156899999996,-93.1408431,"964 THOMAS AVE, ST PAUL, MN, 55104",2.0,1
ST. PAUL W-1 P-04,570,44.959162000000006,-93.1306821,"720 THOMAS AVE, ST PAUL, MN, 55104",5.0,1
ST. PAUL W-1 P-04,570,44.959163700000005,-93.1412567,"974 THOMAS AVE, ST PAUL, MN, 55104",6.0,2
ST. PAUL W-1 P-04,570,44.959164,-93.13991999999999,"940 THOMAS AVE, ST PAUL, MN, 55104",2.0,1
ST. PAUL W-1 P-04,570,44.959167799999996,-93.1424366,"1000 THOMAS AVE, ST PAUL, MN, 55104",3.0,2
ST. PAUL W-1 P-04,570,44.959168,-93.1410999,"970 THOMAS AVE, ST PAUL, MN, 55104",2.0,1
ST. PAUL W-1 P-04,570,44.9591753,-93.1421622,"990 THOMAS AVE, ST PAUL, MN, 55104",2.0,1
ST. PAUL W-1 P-05,580,44.9523239,-93.1409331,"967 ST ANTHONY AVE, ST PAUL, MN, 55104",2.0,1
ST. PAUL W-1 P-05,580,44.95232439999999,-93.1302736,"713 ST ANTHONY AVE, ST PAUL, MN, 55104",4.0,1
ST. PAUL W-1 P-05,580,44.952336200000005,-93.12984250000001,"703 ST ANTHONY AVE, ST PAUL, MN, 55104",3.0,2
ST. PAUL W-1 P-05,580,44.9523406,-93.1396594,"935 ST ANTHONY AVE, ST PAUL, MN, 55104",6.0,2
ST. PAUL W-1 P-05,580,44.952345799999996,-93.1268254,"629 ST ANTHONY AVE, ST PAUL, MN, 55104",2.0,1
ST. PAUL W-1 P-05,580,44.9523512,-93.12796170000001,"661 ST ANTHONY AVE, ST PAUL, MN, 55104",11.0,2
ST. PAUL W-1 P-05,580,44.952364700000004,-93.14077640000001,"961 ST ANTHONY AVE, ST PAUL, MN, 55104",2.0,1
ST. PAUL W-1 P-05,580,44.95236509999999,-93.1327815,"771 ST ANTHONY AVE, ST PAUL, MN, 55104",2.0,1
ST. PAUL W-1 P-05,580,44.9528162,-93.1322721,"756 CENTRAL AVE W, ST PAUL, MN, 55104",2.0,1
ST. PAUL W-1 P-05,580,44.95284729999999,-93.1271389,"636 CENTRAL AVE W, ST PAUL, MN, 55104",2.0,2
ST. PAUL W-1 P-05,580,44.9528674,-93.1383856,"906 CENTRAL AVE W, ST PAUL, MN, 55104",1.0,1
ST. PAUL W-1 P-05,580,44.95320170000001,-93.1307436,"727 CENTRAL AVE W, ST PAUL, MN, 55104",6.0,1
ST. PAUL W-1 P-05,580,44.9532181,-93.128236,"667 CENTRAL AVE W, ST PAUL, MN, 55104",3.0,1
ST. PAUL W-1 P-05,580,44.953223799999996,-93.1366808,"863 CENTRAL AVE W, ST PAUL, MN, 55104",2.0,1
ST. PAUL W-1 P-05,580,44.953224,-93.1286866,"677 CENTRAL AVE W, ST PAUL, MN, 55104",3.0,1
ST. PAUL W-1 P-05,580,44.953232,-93.12772659999999,"655 CENTRAL AVE W, ST PAUL, MN, 55104",1.0,1
ST. PAUL W-1 P-05,580,44.9532446,-93.1379153,"895 CENTRAL AVE W, ST PAUL, MN, 55104",2.0,1
ST. PAUL W-1 P-05,580,44.95324890000001,-93.1377585,"891 CENTRAL AVE W, ST PAUL, MN, 55104",2.0,2
ST. PAUL W-1 P-05,580,44.9532534,-93.1409135,"967 CENTRAL AVE W, ST PAUL, MN, 55104",3.0,2
ST. PAUL W-1 P-05,580,44.9532537,-93.13824840000001,"903 CENTRAL AVE W, ST PAUL, MN, 55104",6.0,6
ST. PAUL W-1 P-05,580,44.9532593,-93.1413643,"979 CENTRAL AVE W, ST PAUL, MN, 55104",3.0,2
ST. PAUL W-1 P-05,580,44.9532625,-93.14124670000001,"977 CENTRAL AVE W, ST PAUL, MN, 55104",1.0,1
ST. PAUL W-1 P-05,580,44.953273700000004,-93.1355247,"833 CENTRAL AVE W, ST PAUL, MN, 55104",2.0,2
ST. PAUL W-1 P-05,580,44.9533026,-93.135799,"843 CENTRAL AVE W, ST PAUL, MN, 55104",2.0,2
ST. PAUL W-1 P-05,580,44.953678100000005,-93.1369345,"430 VICTORIA ST N, ST PAUL, MN, 55104",1.0,1
ST. PAUL W-1 P-05,580,44.953682,-93.13464990000001,"818 FULLER AVE, ST PAUL, MN, 55104",4.0,2
ST. PAUL W-1 P-05,580,44.953706,-93.1423441,"996 FULLER AVE, ST PAUL, MN, 55104",2.0,2
ST. PAUL W-1 P-05,580,44.9537078,-93.1402865,"950 FULLER AVE, ST PAUL, MN, 55104",3.0,1
ST. PAUL W-1 P-05,580,44.953712,-93.1274915,"646 FULLER AVE, ST PAUL, MN, 55104",1.0,1
ST. PAUL W-1 P-05,580,44.953716899999996,-93.1406196,"958 FULLER AVE, ST PAUL, MN, 55104",1.0,1
ST. PAUL W-1 P-05,580,44.9537189,-93.1395516,"930 FULLER AVE, ST PAUL, MN, 55104",2.0,1
ST. PAUL W-1 P-05,580,44.953733500000006,-93.1293723,"690 FULLER AVE, ST PAUL, MN, 55104",1.0,1
ST. PAUL W-1 P-05,580,44.95373379999999,-93.1366808,"860 FULLER AVE, ST PAUL, MN, 55104",2.0,1
ST. PAUL W-1 P-05,580,44.9537355,-93.1419326,"986 FULLER AVE, ST PAUL, MN, 55104",5.0,2
ST. PAUL W-1 P-05,580,44.953747299999996,-93.1355247,"836 FULLER AVE, ST PAUL, MN, 55104",3.0,2
ST. PAUL W-1 P-05,580,44.953749,-93.14077640000001,"962 FULLER AVE, ST PAUL, MN, 55104",2.0,1
ST. PAUL W-1 P-05,580,44.9537546,-93.1379153,"894 FULLER AVE, ST PAUL, MN, 55104",2.0,1
ST. PAUL W-1 P-05,580,44.9537782,-93.1383856,"906 FULLER AVE, ST PAUL, MN, 55104",2.0,2
ST. PAUL W-1 P-05,580,44.95412779999999,-93.1309397,"731 FULLER AVE, ST PAUL, MN, 55104",1.0,1
ST. PAUL W-1 P-05,580,44.9541283,-93.1329187,"775 FULLER AVE, ST PAUL, MN, 55104",3.0,1
ST. PAUL W-1 P-05,580,44.9541305,-93.1401493,"947 FULLER AVE, ST PAUL, MN, 55104",3.0,1
ST. PAUL W-1 P-05,580,44.954132,-93.1334477,"783 FULLER AVE, ST PAUL, MN, 55104",3.0,2
ST. PAUL W-1 P-05,580,44.954139500000004,-93.1345058,"815 FULLER AVE, ST PAUL, MN, 55104",2.0,1
ST. PAUL W-1 P-05,580,44.954144899999996,-93.1303128,"715 FULLER AVE, ST PAUL, MN, 55104",5.0,5
ST. PAUL W-1 P-05,580,44.954147,-93.1342315,"803 FULLER AVE, ST PAUL, MN, 55104",1.0,1
ST. PAUL W-1 P-05,580,44.9541479,-93.13685720000001,"867 FULLER AVE, ST PAUL, MN, 55104",3.0,2
ST. PAUL W-1 P-05,580,44.9541492,-93.1274915,"647 FULLER AVE, ST PAUL, MN, 55104",2.0,2
ST. PAUL W-1 P-05,580,44.9541519,-93.13205649999999,"753 FULLER AVE, ST PAUL, MN, 55104",1.0,1
ST. PAUL W-1 P-05,580,44.954153999999996,-93.1266491,"623 FULLER AVE, ST PAUL, MN, 55104",1.0,1
ST. PAUL W-1 P-05,580,44.95415759999999,-93.1424813,"1001 FULLER AVE, ST PAUL, MN, 55104",2.0,1
ST. PAUL W-1 P-05,580,44.9541708,-93.13934580000002,"925 FULLER AVE, ST PAUL, MN, 55104",2.0,1
ST. PAUL W-1 P-05,580,44.9541756,-93.1398357,"939 FULLER AVE, ST PAUL, MN, 55104",2.0,1
ST. PAUL W-1 P-05,580,44.95422139999999,-93.1265583,"429 DALE ST N, ST PAUL, MN, 55103",1.0,1
ST. PAUL W-1 P-05,580,44.954569000000006,-93.134191,"804 AURORA AVE, ST PAUL, MN, 55104",2.0,1
ST. PAUL W-1 P-05,580,44.9546024,-93.128236,"666 AURORA AVE, ST PAUL, MN, 55104",2.0,2
ST. PAUL W-1 P-05,580,44.954607700000004,-93.1267078,"626 AURORA AVE, ST PAUL, MN, 55104",3.0,1
ST. PAUL W-1 P-05,580,44.9546078,-93.1293723,"690 AURORA AVE, ST PAUL, MN, 55104",5.0,1
ST. PAUL W-1 P-05,580,44.9546099,-93.1306262,"722 AURORA AVE, ST PAUL, MN, 55104",2.0,2
ST. PAUL W-1 P-05,580,44.954612700000006,-93.1398357,"936 AURORA AVE, ST PAUL, MN, 55104",2.0,1
ST. PAUL W-1 P-05,580,44.95461629999999,-93.1343882,"808 AURORA AVE, ST PAUL, MN, 55104",1.0,1
ST. PAUL W-1 P-05,580,44.95462149999999,-93.13685720000001,"866 AURORA AVE, ST PAUL, MN, 55104",3.0,1
ST. PAUL W-1 P-05,580,44.954624700000004,-93.1359838,"850 AURORA AVE, ST PAUL, MN, 55104",7.0,2
ST. PAUL W-1 P-05,580,44.95463170000001,-93.1358186,"844 AURORA AVE, ST PAUL, MN, 55104",2.0,2
ST. PAUL W-1 P-05,580,44.954640500000004,-93.1401493,"946 AURORA AVE, ST PAUL, MN, 55104",3.0,2
ST. PAUL W-1 P-05,580,44.954642,-93.1334477,"780 AURORA AVE, ST PAUL, MN, 55104",1.0,1
ST. PAUL W-1 P-05,580,44.95464260000001,-93.1327619,"770 AURORA AVE, ST PAUL, MN, 55104",3.0,1
ST. PAUL W-1 P-05,580,44.954646399999994,-93.1406,"958 AURORA AVE, ST PAUL, MN, 55104",3.0,1
ST. PAUL W-1 P-05,580,44.95465069999999,-93.1404432,"954 AURORA AVE, ST PAUL, MN, 55104",2.0,2
ST. PAUL W-1 P-05,580,44.9546537,-93.1356814,"840 AURORA AVE, ST PAUL, MN, 55104",2.0,1
ST. PAUL W-1 P-05,580,44.954657700000006,-93.13952220000002,"930 AURORA AVE, ST PAUL, MN, 55104",2.0,2
ST. PAUL W-1 P-05,580,44.9546727,-93.14030600000001,"950 AURORA AVE, ST PAUL, MN, 55104",3.0,1
ST. PAUL W-1 P-05,580,44.954942200000005,-93.12666379999999,"627 AURORA AVE, ST PAUL, MN, 55104",76.0,2
ST. PAUL W-1 P-05,580,44.95498689999999,-93.1375324,"885 AURORA AVE, ST PAUL, MN, 55104",1.0,1
ST. PAUL W-1 P-05,580,44.9550051,-93.1361517,"855 AURORA AVE, ST PAUL, MN, 55104",1.0,1
ST. PAUL W-1 P-05,580,44.9550074,-93.1280793,"663 AURORA AVE, ST PAUL, MN, 55104",5.0,2
ST. PAUL W-1 P-05,580,44.955015,-93.1404432,"955 AURORA AVE, ST PAUL, MN, 55104",5.0,2
ST. PAUL W-1 P-05,580,44.9550177,-93.139679,"935 AURORA AVE, ST PAUL, MN, 55104",1.0,1
ST. PAUL W-1 P-05,580,44.9550179,-93.13701390000001,"871 AURORA AVE, ST PAUL, MN, 55104",3.0,1
ST. PAUL W-1 P-05,580,44.9550219,-93.12954870000002,"695 AURORA AVE, ST PAUL, MN, 55104",2.0,2
ST. PAUL W-1 P-05,580,44.955026700000005,-93.1327031,"771 AURORA AVE, ST PAUL, MN, 55104",1.0,1
ST. PAUL W-1 P-05,580,44.9550306,-93.1392086,"459 MILTON ST N, ST PAUL, MN, 55104",2.0,2
ST. PAUL W-1 P-05,580,44.95503529999999,-93.1283927,"671 AURORA AVE, ST PAUL, MN, 55104",5.0,1
ST. PAUL W-1 P-05,580,44.95504400000001,-93.129039,"681 AURORA AVE, ST PAUL, MN, 55104",2.0,2
ST. PAUL W-1 P-05,580,44.955053,-93.137517,"883 AURORA AVE, ST PAUL, MN, 55104",2.0,1
ST. PAUL W-1 P-05,580,44.95539400000001,-93.135988,"850 UNIVERSITY AVE W, ST PAUL, MN, 55104",3.0,3
ST. PAUL W-1 P-05,580,44.955422999999996,-93.1355247,"838 UNIVERSITY AVE W, ST PAUL, MN, 55104",2.0,1
ST. PAUL W-1 P-06,590,44.94509910000001,-93.13225059999999,"759 LAUREL AVE, ST PAUL, MN, 55104",4.0,2
ST. PAUL W-1 P-06,590,44.9451069,-93.12979490000001,"703 LAUREL AVE, ST PAUL, MN, 55104",14.0,3
ST. PAUL W-1 P-06,590,44.94513509999999,-93.1320369,"753 LAUREL AVE, ST PAUL, MN, 55104",2.0,2
ST. PAUL W-1 P-06,590,44.9451404,-93.13184100000001,"751 LAUREL AVE, ST PAUL, MN, 55104",2.0,1
ST. PAUL W-1 P-06,590,44.9451527,-93.13338890000001,"781 LAUREL AVE, ST PAUL, MN, 55104",2.0,2
ST. PAUL W-1 P-06,590,44.9451527,-93.12805970000001,"667 LAUREL AVE, ST PAUL, MN, 55104",4.0,2
ST. PAUL W-1 P-06,590,44.9451549,-93.1306458,"725 LAUREL AVE, ST PAUL, MN, 55104",7.0,1
ST. PAUL W-1 P-06,590,44.945161299999995,-93.1277462,"657 LAUREL AVE, ST PAUL, MN, 55104",2.0,2
ST. PAUL W-1 P-06,590,44.945168100000004,-93.1374842,"885 LAUREL AVE, ST PAUL, MN, 55104",2.0,1
ST. PAUL W-1 P-06,590,44.9451716,-93.14067840000001,"961 LAUREL AVE, ST PAUL, MN, 55104",2.0,2
ST. PAUL W-1 P-06,590,44.9451763,-93.1351916,"829 LAUREL AVE, ST PAUL, MN, 55104",1.0,1
ST. PAUL W-1 P-06,590,44.945177,-93.130234,"715 LAUREL AVE, ST PAUL, MN, 55104",2.0,2
ST. PAUL W-1 P-06,590,44.945178799999994,-93.1384248,"909 LAUREL AVE, ST PAUL, MN, 55104",2.0,1
ST. PAUL W-1 P-06,590,44.9451802,-93.14036479999999,"951 LAUREL AVE, ST PAUL, MN, 55104",2.0,2
ST. PAUL W-1 P-06,590,44.9451814,-93.131709,"747 LAUREL AVE, ST PAUL, MN, 55104",2.0,2
ST. PAUL W-1 P-06,590,44.9451829,-93.1396006,"933 LAUREL AVE, ST PAUL, MN, 55104",2.0,2
ST. PAUL W-1 P-06,590,44.9451832,-93.1356031,"841 LAUREL AVE, ST PAUL, MN, 55104",2.0,2
ST. PAUL W-1 P-06,590,44.945190999999994,-93.1399729,"941 LAUREL AVE, ST PAUL, MN, 55104",4.0,1
ST. PAUL W-1 P-06,590,44.9451974,-93.1397377,"937 LAUREL AVE, ST PAUL, MN, 55104",3.0,2
ST. PAUL W-1 P-06,590,44.945206,-93.13942420000001,"929 LAUREL AVE, ST PAUL, MN, 55104",2.0,1
ST. PAUL W-1 P-06,590,44.9452083,-93.1366808,"863 LAUREL AVE, ST PAUL, MN, 55104",3.0,2
ST. PAUL W-1 P-06,590,44.9452139,-93.1411291,"973 LAUREL AVE, ST PAUL, MN, 55104",2.0,2
ST. PAUL W-1 P-06,590,44.945215999999995,-93.1297446,"697 LAUREL AVE, ST PAUL, MN, 55104",10.0,2
ST. PAUL W-1 P-06,590,44.9452232,-93.1387971,"917 LAUREL AVE, ST PAUL, MN, 55104",2.0,2
ST. PAUL W-1 P-06,590,44.9455594,-93.1338396,"796 HAGUE AVE, ST PAUL, MN, 55104",3.0,2
ST. PAUL W-1 P-06,590,44.9455596,-93.1398161,"938 HAGUE AVE, ST PAUL, MN, 55104",3.0,1
ST. PAUL W-1 P-06,590,44.9455818,-93.13701390000001,"872 HAGUE AVE, ST PAUL, MN, 55104",2.0,1
ST. PAUL W-1 P-06,590,44.9455829,-93.1356423,"840 HAGUE AVE, ST PAUL, MN, 55104",1.0,1
ST. PAUL W-1 P-06,590,44.945589399999996,-93.1274131,"646 HAGUE AVE, ST PAUL, MN, 55104",3.0,2
ST. PAUL W-1 P-06,590,44.945594299999996,-93.1305675,"720 HAGUE AVE, ST PAUL, MN, 55104",4.0,1
ST. PAUL W-1 P-06,590,44.9456216,-93.13156670000001,"742 HAGUE AVE, ST PAUL, MN, 55104",4.0,2
ST. PAUL W-1 P-06,590,44.9456241,-93.1374646,"882 HAGUE AVE, ST PAUL, MN, 55104",4.0,1
ST. PAUL W-1 P-06,590,44.9456307,-93.1318998,"750 HAGUE AVE, ST PAUL, MN, 55104",3.0,1
ST. PAUL W-1 P-06,590,44.9459324,-93.1321937,"759 HAGUE AVE, ST PAUL, MN, 55104",2.0,2
ST. PAUL W-1 P-06,590,44.9459324,-93.1308614,"729 HAGUE AVE, ST PAUL, MN, 55104",4.0,2
ST. PAUL W-1 P-06,590,44.9459345,-93.1294507,"695 HAGUE AVE, ST PAUL, MN, 55104",2.0,1
ST. PAUL W-1 P-06,590,44.9459549,-93.127374,"647 HAGUE AVE, ST PAUL, MN, 55104",3.0,1
ST. PAUL W-1 P-06,590,44.94595579999999,-93.1366612,"863 HAGUE AVE, ST PAUL, MN, 55104",3.0,2
ST. PAUL W-1 P-06,590,44.9459559,-93.1339963,"801 HAGUE AVE, ST PAUL, MN, 55104",2.0,2
ST. PAUL W-1 P-06,590,44.9459591,-93.1272172,"643 HAGUE AVE, ST PAUL, MN, 55104",2.0,1
ST. PAUL W-1 P-06,590,44.945968799999996,-93.1335261,"787 HAGUE AVE, ST PAUL, MN, 55104",4.0,1
ST. PAUL W-1 P-06,590,44.945969700000006,-93.1374842,"885 HAGUE AVE, ST PAUL, MN, 55104",4.0,4
ST. PAUL W-1 P-06,590,44.945975,-93.1386208,"915 HAGUE AVE, ST PAUL, MN, 55104",3.0,1
ST. PAUL W-1 P-06,590,44.945977899999995,-93.1351916,"825 HAGUE AVE, ST PAUL, MN, 55104",2.0,1
ST. PAUL W-1 P-06,590,44.94598010000001,-93.1297838,"701 HAGUE AVE, ST PAUL, MN, 55104",2.0,2
ST. PAUL W-1 P-06,590,44.9459822,-93.13237,"761 HAGUE AVE, ST PAUL, MN, 55104",2.0,1
ST. PAUL W-1 P-06,590,44.945983700000006,-93.1356423,"841 HAGUE AVE, ST PAUL, MN, 55104",4.0,2
ST. PAUL W-1 P-06,590,44.945992200000006,-93.13799370000001,"897 HAGUE AVE, ST PAUL, MN, 55104",4.0,2
ST. PAUL W-1 P-06,590,44.94599669999999,-93.1311748,"737 HAGUE AVE, ST PAUL, MN, 55104",2.0,1
ST. PAUL W-1 P-06,590,44.9460018,-93.137641,"889 HAGUE AVE, ST PAUL, MN, 55104",2.0,2
ST. PAUL W-1 P-06,590,44.9463359,-93.13009720000001,"710 SELBY AVE, ST PAUL, MN, 55104",6.0,1
ST. PAUL W-1 P-06,590,44.9463445,-93.1297838,"700 SELBY AVE, ST PAUL, MN, 55104",4.0,1
ST. PAUL W-1 P-06,590,44.946386700000005,-93.1275699,"650 SELBY AVE, ST PAUL, MN, 55104",2.0,1
ST. PAUL W-1 P-06,590,44.9464026,-93.137641,"888 SELBY AVE, ST PAUL, MN, 55104",5.0,2
ST. PAUL W-1 P-06,590,44.9464046,-93.1402277,"950 SELBY AVE, ST PAUL, MN, 55104",2.0,1
ST. PAUL W-1 P-06,590,44.946751899999995,-93.1272837,"645 SELBY AVE, ST PAUL, MN, 55104",4.0,1
ST. PAUL W-1 P-06,590,44.9467571,-93.12805920000001,"663 SELBY AVE, ST PAUL, MN, 55104",5.0,2
ST. PAUL W-1 P-06,590,44.94676679999999,-93.12718079999999,"641 SELBY AVE, ST PAUL, MN, 55104",7.0,1
ST. PAUL W-1 P-06,590,44.946767799999996,-93.1316255,"755 SELBY AVE, ST PAUL, MN, 55104",31.0,2
ST. PAUL W-1 P-06,590,44.9467726,-93.13750920000001,"883 SELBY AVE, ST PAUL, MN, 55104",4.0,1
ST. PAUL W-1 P-06,590,44.946814,-93.1399141,"941 SELBY AVE, ST PAUL, MN, 55104",2.0,2
ST. PAUL W-1 P-06,590,44.9468191,-93.135074,"825 SELBY AVE, ST PAUL, MN, 55104",1.0,1
ST. PAUL W-1 P-06,590,44.94682589999999,-93.1381505,"901 SELBY AVE, ST PAUL, MN, 55104",4.0,1
ST. PAUL W-1 P-06,590,44.9468269,-93.1394438,"929 SELBY AVE, ST PAUL, MN, 55104",2.0,2
ST. PAUL W-1 P-06,590,44.9468289,-93.140698,"961 SELBY AVE, ST PAUL, MN, 55104",2.0,1
ST. PAUL W-1 P-06,590,44.9471482,-93.1297054,"698 DAYTON AVE, ST PAUL, MN, 55104",2.0,1
ST. PAUL W-1 P-06,590,44.947179799999994,-93.1318802,"748 DAYTON AVE, ST PAUL, MN, 55104",1.0,1
ST. PAUL W-1 P-06,590,44.9471852,-93.1290197,"682 DAYTON AVE, ST PAUL, MN, 55104",5.0,3
ST. PAUL W-1 P-06,590,44.9471904,-93.1354855,"836 DAYTON AVE, ST PAUL, MN, 55104",4.0,1
ST. PAUL W-1 P-06,590,44.947194700000004,-93.1353287,"830 DAYTON AVE, ST PAUL, MN, 55104",1.0,1
ST. PAUL W-1 P-06,590,44.9472039,-93.1276678,"650 DAYTON AVE, ST PAUL, MN, 55104",5.0,2
ST. PAUL W-1 P-06,590,44.9472049,-93.1462442,"194 LEXINGTON PKWY N, ST PAUL, MN, 55104",4.0,1
ST. PAUL W-1 P-06,590,44.9472065,-93.1362301,"856 DAYTON AVE, ST PAUL, MN, 55104",6.0,1
ST. PAUL W-1 P-06,590,44.9472173,-93.1421864,"989 DAYTON AVE, ST PAUL, MN, 55104",3.0,1
ST. PAUL W-1 P-06,590,44.9472234,-93.1396006,"932 DAYTON AVE, ST PAUL, MN, 55104",1.0,1
ST. PAUL W-1 P-06,590,44.947235,-93.1418346,"984 DAYTON AVE, ST PAUL, MN, 55104",1.0,1
ST. PAUL W-1 P-06,590,44.947235299999996,-93.13783690000001,"892 DAYTON AVE, ST PAUL, MN, 55104",2.0,2
ST. PAUL W-1 P-06,590,44.947236100000005,-93.1291568,"686 DAYTON AVE, ST PAUL, MN, 55104",2.0,2
ST. PAUL W-1 P-06,590,44.947238299999995,-93.1403844,"952 DAYTON AVE, ST PAUL, MN, 55104",5.0,5
ST. PAUL W-1 P-06,590,44.9472488,-93.1366808,"862 DAYTON AVE, ST PAUL, MN, 55104",2.0,1
ST. PAUL W-1 P-06,590,44.9472555,-93.1397573,"936 DAYTON AVE, ST PAUL, MN, 55104",2.0,2
ST. PAUL W-1 P-06,590,44.94726179999999,-93.1408548,"964 DAYTON AVE, ST PAUL, MN, 55104",1.0,1
ST. PAUL W-1 P-06,590,44.9472968,-93.1372147,"876 DAYTON AVE, ST PAUL, MN, 55104",4.0,1
ST. PAUL W-1 P-06,590,44.947601,-93.1311357,"737 DAYTON AVE, ST PAUL, MN, 55104",2.0,2
ST. PAUL W-1 P-06,590,44.9476257,-93.142193,"993 DAYTON AVE, ST PAUL, MN, 55104",3.0,1
ST. PAUL W-1 P-06,590,44.947632399999996,-93.1359754,"851 DAYTON AVE, ST PAUL, MN, 55104",3.0,1
ST. PAUL W-1 P-06,590,44.9476406,-93.1296858,"699 DAYTON AVE, ST PAUL, MN, 55104",2.0,2
ST. PAUL W-1 P-06,590,44.9476437,-93.1362301,"857 DAYTON AVE, ST PAUL, MN, 55104",3.0,1
ST. PAUL W-1 P-06,590,44.9476513,-93.1346233,"817 DAYTON AVE, ST PAUL, MN, 55104",2.0,1
ST. PAUL W-1 P-06,590,44.9476539,-93.12719759999999,"643 DAYTON AVE, ST PAUL, MN, 55104",5.0,2
ST. PAUL W-1 P-06,590,44.9476625,-93.1268842,"633 DAYTON AVE, ST PAUL, MN, 55104",10.0,1
ST. PAUL W-1 P-06,590,44.947664200000006,-93.13282070000001,"775 DAYTON AVE, ST PAUL, MN, 55104",6.0,2
ST. PAUL W-1 P-06,590,44.947664700000004,-93.1294703,"695 DAYTON AVE, ST PAUL, MN, 55104",1.0,1
ST. PAUL W-1 P-06,590,44.947669299999994,-93.1379545,"897 DAYTON AVE, ST PAUL, MN, 55104",2.0,1
ST. PAUL W-1 P-06,590,44.9476924,-93.1276683,"653 DAYTON AVE, ST PAUL, MN, 55104",1.0,1
ST. PAUL W-1 P-06,590,44.94770490000001,-93.1413055,"977 DAYTON AVE, ST PAUL, MN, 55104",1.0,1
ST. PAUL W-1 P-06,590,44.9477439,-93.1265707,"625 DAYTON AVE, ST PAUL, MN, 55104",12.0,4
ST. PAUL W-1 P-06,590,44.94789189999999,-93.1291568,"217 ST ALBANS ST N, ST PAUL, MN, 55104",2.0,2
ST. PAUL W-1 P-06,590,44.9479018,-93.13112590000001,"218 GROTTO ST N, ST PAUL, MN, 55104",3.0,2
ST. PAUL W-1 P-06,590,44.947916,-93.1462246,"214 LEXINGTON PKWY N, ST PAUL, MN, 55104",2.0,1
ST. PAUL W-1 P-06,590,44.94804129999999,-93.1350152,"223 FISK ST, ST PAUL, MN, 55104",3.0,1
ST. PAUL W-1 P-06,590,44.948057500000004,-93.129098,"225 ST ALBANS ST N, ST PAUL, MN, 55104",1.0,1
ST. PAUL W-1 P-06,590,44.9480759,-93.1443823,"223 OXFORD ST N, ST PAUL, MN, 55104",2.0,2
ST. PAUL W-1 P-06,590,44.9481559,-93.1383404,"228 VICTORIA ST N, ST PAUL, MN, 55104",5.0,2
ST. PAUL W-1 P-06,590,44.9482167,-93.14125340000001,"976 MARSHALL AVE, ST PAUL, MN, 55104",2.0,2
ST. PAUL W-1 P-06,590,44.9482193,-93.1411487,"972 MARSHALL AVE, ST PAUL, MN, 55104",4.0,1
ST. PAUL W-1 P-06,590,44.948263,-93.132998,"776 MARSHALL AVE, ST PAUL, MN, 55104",3.0,1
ST. PAUL W-1 P-06,590,44.9482843,-93.1394438,"930 MARSHALL AVE, ST PAUL, MN, 55104",4.0,1
ST. PAUL W-1 P-06,590,44.9482879,-93.1413055,"978 MARSHALL AVE, ST PAUL, MN, 55104",4.0,1
ST. PAUL W-1 P-06,590,44.9482937,-93.1417562,"235 CHATSWORTH ST N, ST PAUL, MN, 55104",2.0,2
ST. PAUL W-1 P-06,590,44.9483136,-93.1317235,"746 MARSHALL AVE, ST PAUL, MN, 55104",1.0,1
ST. PAUL W-1 P-06,590,44.948319899999994,-93.1354855,"834 MARSHALL AVE, ST PAUL, MN, 55104",2.0,2
ST. PAUL W-1 P-06,590,44.9483205,-93.1268058,"630 MARSHALL AVE, ST PAUL, MN, 55104",6.0,1
ST. PAUL W-1 P-06,590,44.9483227,-93.13205649999999,"754 MARSHALL AVE, ST PAUL, MN, 55104",1.0,1
ST. PAUL W-1 P-06,590,44.948323200000004,-93.1327031,"770 MARSHALL AVE, ST PAUL, MN, 55104",2.0,1
ST. PAUL W-1 P-06,590,44.948364399999996,-93.1306825,"724 MARSHALL AVE, ST PAUL, MN, 55104",2.0,1
ST. PAUL W-1 P-06,590,44.94837400000001,-93.12665150000001,"624 MARSHALL AVE, ST PAUL, MN, 55104",2.0,2
ST. PAUL W-1 P-06,590,44.948376700000004,-93.138262,"238 VICTORIA ST N, ST PAUL, MN, 55104",2.0,1
ST. PAUL W-1 P-06,590,44.9483982,-93.1325196,"764 MARSHALL AVE, ST PAUL, MN, 55104",1.0,1
ST. PAUL W-1 P-06,590,44.94869620000001,-93.1339625,"797 MARSHALL AVE, ST PAUL, MN, 55104",2.0,1
ST. PAUL W-1 P-06,590,44.948727500000004,-93.13973670000001,"935 MARSHALL AVE, ST PAUL, MN, 55104",1.0,1
ST. PAUL W-1 P-06,590,44.948744299999994,-93.1346233,"817 MARSHALL AVE, ST PAUL, MN, 55104",4.0,3
ST. PAUL W-1 P-06,590,44.948747,-93.12719759999999,"641 MARSHALL AVE, ST PAUL, MN, 55104",5.0,2
ST. PAUL W-1 P-06,590,44.94876199999999,-93.1319782,"753 MARSHALL AVE, ST PAUL, MN, 55104",1.0,1
ST. PAUL W-1 P-06,590,44.9487669,-93.1311357,"739 MARSHALL AVE, ST PAUL, MN, 55104",1.0,1
ST. PAUL W-1 P-06,590,44.9487709,-93.137641,"887 MARSHALL AVE, ST PAUL, MN, 55104",2.0,2
ST. PAUL W-1 P-06,590,44.948795600000004,-93.1367396,"863 MARSHALL AVE, ST PAUL, MN, 55104",5.0,1
ST. PAUL W-1 P-06,590,44.948798499999995,-93.1306458,"725 MARSHALL AVE, ST PAUL, MN, 55104",4.0,1
ST. PAUL W-1 P-06,590,44.9488049,-93.13041070000001,"719 MARSHALL AVE, ST PAUL, MN, 55104",8.0,3
ST. PAUL W-1 P-06,590,44.9488339,-93.1406588,"961 MARSHALL AVE, ST PAUL, MN, 55104",2.0,1
ST. PAUL W-1 P-06,590,44.9491884,-93.1350348,"261 FISK ST, ST PAUL, MN, 55104",2.0,1
ST. PAUL W-1 P-06,590,44.949208,-93.1272759,"642 IGLEHART AVE, ST PAUL, MN, 55104",3.0,1
ST. PAUL W-1 P-06,590,44.949208399999996,-93.1323113,"760 IGLEHART AVE, ST PAUL, MN, 55104",2.0,2
ST. PAUL W-1 P-06,590,44.949218200000004,-93.1392674,"924 IGLEHART AVE, ST PAUL, MN, 55104",3.0,1
ST. PAUL W-1 P-06,590,44.94921850000001,-93.1286082,"676 IGLEHART AVE, ST PAUL, MN, 55104",5.0,1
ST. PAUL W-1 P-06,590,44.9492285,-93.1368963,"868 IGLEHART AVE, ST PAUL, MN, 55104",2.0,1
ST. PAUL W-1 P-06,590,44.949233500000005,-93.1307242,"722 IGLEHART AVE, ST PAUL, MN, 55104",3.0,1
ST. PAUL W-1 P-06,590,44.9492416,-93.1297642,"702 IGLEHART AVE, ST PAUL, MN, 55104",2.0,2
ST. PAUL W-1 P-06,590,44.9492438,-93.1409919,"966 IGLEHART AVE, ST PAUL, MN, 55104",1.0,1
ST. PAUL W-1 P-06,590,44.9492458,-93.1282752,"666 IGLEHART AVE, ST PAUL, MN, 55104",3.0,1
ST. PAUL W-1 P-06,590,44.949248499999996,-93.1328403,"774 IGLEHART AVE, ST PAUL, MN, 55104",2.0,1
ST. PAUL W-1 P-06,590,44.9492528,-93.12735440000002,"644 IGLEHART AVE, ST PAUL, MN, 55104",2.0,1
ST. PAUL W-1 P-06,590,44.9496008,-93.1374639,"883 IGLEHART AVE, ST PAUL, MN, 55104",3.0,3
ST. PAUL W-1 P-06,590,44.949618799999996,-93.1406,"959 IGLEHART AVE, ST PAUL, MN, 55104",1.0,1
ST. PAUL W-1 P-06,590,44.949625700000006,-93.1350348,"821 IGLEHART AVE, ST PAUL, MN, 55104",4.0,2
ST. PAUL W-1 P-06,590,44.949631,-93.14214820000001,"995 IGLEHART AVE, ST PAUL, MN, 55104",2.0,2
ST. PAUL W-1 P-06,590,44.94963449999999,-93.1393654,"927 IGLEHART AVE, ST PAUL, MN, 55104",3.0,1
ST. PAUL W-1 P-06,590,44.9496465,-93.1362693,"857 IGLEHART AVE, ST PAUL, MN, 55104",2.0,2
ST. PAUL W-1 P-06,590,44.949653700000006,-93.1399925,"943 IGLEHART AVE, ST PAUL, MN, 55104",2.0,2
ST. PAUL W-1 P-06,590,44.9496745,-93.1285886,"282 ST ALBANS ST N, ST PAUL, MN, 55104",4.0,1
ST. PAUL W-1 P-06,590,44.9496771,-93.1358186,"845 IGLEHART AVE, ST PAUL, MN, 55104",2.0,1
ST. PAUL W-1 P-06,590,44.949684000000005,-93.14028,"951 IGLEHART AVE, ST PAUL, MN, 55104",4.0,1
ST. PAUL W-1 P-06,590,44.950057,-93.142578,"1000 CARROLL AVE, ST PAUL, MN, 55104",1.0,1
ST. PAUL W-1 P-06,590,44.950057,-93.142514,"998 CARROLL AVE, ST PAUL, MN, 55104",2.0,1
ST. PAUL W-1 P-06,590,44.950082200000004,-93.1316647,"295 GROTTO ST N, ST PAUL, MN, 55104",1.0,1
ST. PAUL W-1 P-06,590,44.950092299999994,-93.1346233,"816 CARROLL AVE, ST PAUL, MN, 55104",2.0,1
ST. PAUL W-1 P-06,590,44.950114500000005,-93.14046280000001,"954 CARROLL AVE, ST PAUL, MN, 55104",1.0,1
ST. PAUL W-1 P-06,590,44.9501328,-93.138464,"908 CARROLL AVE, ST PAUL, MN, 55104",2.0,1
ST. PAUL W-1 P-06,590,44.950145899999995,-93.1339963,"798 CARROLL AVE, ST PAUL, MN, 55104",1.0,1
ST. PAUL W-1 P-06,590,44.9501576,-93.1362301,"856 CARROLL AVE, ST PAUL, MN, 55104",1.0,1
ST. PAUL W-1 P-06,590,44.9504905,-93.1413643,"977 CARROLL AVE, ST PAUL, MN, 55104",2.0,2
ST. PAUL W-1 P-06,590,44.9505273,-93.1373666,"881 CARROLL AVE, ST PAUL, MN, 55104",2.0,2
ST. PAUL W-1 P-06,590,44.9505349,-93.1344274,"809 CARROLL AVE, ST PAUL, MN, 55104",1.0,1
ST. PAUL W-1 P-06,590,44.95053859999999,-93.13628890000001,"857 CARROLL AVE, ST PAUL, MN, 55104",2.0,1
ST. PAUL W-1 P-06,590,44.9505551,-93.1376802,"889 CARROLL AVE, ST PAUL, MN, 55104",3.0,3
ST. PAUL W-1 P-06,590,44.950561799999996,-93.130783,"727 CARROLL AVE, ST PAUL, MN, 55104",1.0,1
ST. PAUL W-1 P-06,590,44.95056599999999,-93.1346233,"817 CARROLL AVE, ST PAUL, MN, 55104",2.0,1
ST. PAUL W-1 P-06,590,44.950568,-93.1372099,"877 CARROLL AVE, ST PAUL, MN, 55104",3.0,1
ST. PAUL W-1 P-06,590,44.950783,-93.12735440000002,"313 DALE ST N, ST PAUL, MN, 55103",64.0,3
ST. PAUL W-1 P-06,590,44.95082350000001,-93.1438336,"320 OXFORD ST N, ST PAUL, MN, 55104",4.0,3
ST. PAUL W-1 P-06,590,44.9508596,-93.1319823,"754 CONCORDIA AVE, ST PAUL, MN, 55104",10.0,1
ST. PAUL W-1 P-06,590,44.9509464,-93.1316845,"746 CONCORDIA AVE, ST PAUL, MN, 55104",14.0,2
ST. PAUL W-1 P-06,590,44.950998999999996,-93.1294507,"694 CONCORDIA AVE, ST PAUL, MN, 55104",2.0,2
ST. PAUL W-1 P-06,590,44.951006,-93.135951,"846 CONCORDIA AVE, ST PAUL, MN, 55104",2.0,1
ST. PAUL W-1 P-06,590,44.95102259999999,-93.1398945,"932 CONCORDIA AVE, ST PAUL, MN, 55104",29.0,1
ST. PAUL W-1 P-06,590,44.95105900000001,-93.12809200000001,"662 CONCORDIA AVE, ST PAUL, MN, 55104",2.0,1
ST. PAUL W-1 P-06,590,44.9510675,-93.13360440000001,"788 CONCORDIA AVE, ST PAUL, MN, 55104",2.0,1
ST. PAUL W-1 P-06,590,44.951087799999996,-93.1341923,"804 CONCORDIA AVE, ST PAUL, MN, 55104",3.0,1
ST. PAUL W-1 P-06,590,44.9510948,-93.141913,"984 CONCORDIA AVE, ST PAUL, MN, 55104",2.0,2
ST. PAUL W-1 P-06,590,44.9511101,-93.1302308,"712 CONCORDIA AVE, ST PAUL, MN, 55104",1.0,1
ST. PAUL W-1 P-06,590,44.9511721,-93.1387309,"914 CONCORDIA AVE, ST PAUL, MN, 55104",5.0,2
ST. PAUL W-1 P-07,600,44.94159399999999,-93.13030400000001,"719 SUMMIT AVE, ST PAUL, MN, 55105",2.0,1
ST. PAUL W-1 P-07,600,44.94159699999999,-93.130213,"717 SUMMIT AVE, ST PAUL, MN, 55105",1.0,1
ST. PAUL W-1 P-07,600,44.941598,-93.13064,"727 SUMMIT AVE, ST PAUL, MN, 55105",1.0,1
ST. PAUL W-1 P-07,600,44.941641,-93.1283,"669 SUMMIT AVE, ST PAUL, MN, 55105",3.0,2
ST. PAUL W-1 P-07,600,44.94164199999999,-93.128532,"677 SUMMIT AVE, ST PAUL, MN, 55105",4.0,1
ST. PAUL W-1 P-07,600,44.94165,-93.126941,"635 SUMMIT AVE, ST PAUL, MN, 55105",4.0,3
ST. PAUL W-1 P-07,600,44.941767600000006,-93.1425597,"1003 SUMMIT AVE, ST PAUL, MN, 55105",3.0,3
ST. PAUL W-1 P-07,600,44.941829999999996,-93.1402865,"955 SUMMIT AVE, ST PAUL, MN, 55105",4.0,2
ST. PAUL W-1 P-07,600,44.94184509999999,-93.1397377,"937 SUMMIT AVE, ST PAUL, MN, 55105",3.0,2
ST. PAUL W-1 P-07,600,44.9418537,-93.13942420000001,"929 SUMMIT AVE, ST PAUL, MN, 55105",7.0,1
ST. PAUL W-1 P-07,600,44.941902,-93.141806,"985 SUMMIT AVE, ST PAUL, MN, 55105",4.0,1
ST. PAUL W-1 P-07,600,44.941952,-93.1285103,"20 ST ALBANS ST N, ST PAUL, MN, 55104",7.0,1
ST. PAUL W-1 P-07,600,44.942025,-93.130279,"718 PORTLAND AVE, ST PAUL, MN, 55104",13.0,1
ST. PAUL W-1 P-07,600,44.942026,-93.1271389,"642 PORTLAND AVE, ST PAUL, MN, 55104",2.0,1
ST. PAUL W-1 P-07,600,44.942079,-93.1285299,"28 ST ALBANS ST N, ST PAUL, MN, 55104",4.0,1
ST. PAUL W-1 P-07,600,44.9420876,-93.1282164,"670 PORTLAND AVE, ST PAUL, MN, 55104",3.0,2
ST. PAUL W-1 P-07,600,44.942113899999995,-93.131718,"746 PORTLAND AVE, ST PAUL, MN, 55104",1.0,1
ST. PAUL W-1 P-07,600,44.942242,-93.1418738,"23 CHATSWORTH ST N, ST PAUL, MN, 55104",2.0,2
ST. PAUL W-1 P-07,600,44.942432200000006,-93.1282752,"671 PORTLAND AVE, ST PAUL, MN, 55104",3.0,2
ST. PAUL W-1 P-07,600,44.9424842,-93.1297054,"703 PORTLAND AVE, ST PAUL, MN, 55104",4.0,2
ST. PAUL W-1 P-07,600,44.9424949,-93.1346429,"817 PORTLAND AVE, ST PAUL, MN, 55104",1.0,1
ST. PAUL W-1 P-07,600,44.9425265,-93.1341531,"805 PORTLAND AVE, ST PAUL, MN, 55104",3.0,2
ST. PAUL W-1 P-07,600,44.9425321,-93.12989350000001,"709 PORTLAND AVE, ST PAUL, MN, 55104",7.0,2
ST. PAUL W-1 P-07,600,44.9425322,-93.1299563,"711 PORTLAND AVE, ST PAUL, MN, 55104",6.0,2
ST. PAUL W-1 P-07,600,44.942580299999996,-93.1395026,"930 PORTLAND AVE, ST PAUL, MN, 55104",1.0,1
ST. PAUL W-1 P-07,600,44.94260329999999,-93.1406588,"960 PORTLAND AVE, ST PAUL, MN, 55104",4.0,3
ST. PAUL W-1 P-07,600,44.9426214,-93.1300189,"713 PORTLAND AVE, ST PAUL, MN, 55104",4.0,1
ST. PAUL W-1 P-07,600,44.94262519999999,-93.1405216,"956 PORTLAND AVE, ST PAUL, MN, 55104",2.0,2
ST. PAUL W-1 P-07,600,44.9426268,-93.1411291,"972 PORTLAND AVE, ST PAUL, MN, 55104",2.0,1
ST. PAUL W-1 P-07,600,44.9426417,-93.141913,"988 PORTLAND AVE, ST PAUL, MN, 55104",2.0,1
ST. PAUL W-1 P-07,600,44.942646,-93.1417562,"43 CHATSWORTH ST N, ST PAUL, MN, 55104",2.0,2
ST. PAUL W-1 P-07,600,44.9426465,-93.14240290000001,"1000 PORTLAND AVE, ST PAUL, MN, 55104",3.0,2
ST. PAUL W-1 P-07,600,44.942912,-93.130211,"714 HOLLY AVE, ST PAUL, MN, 55104",2.0,2
ST. PAUL W-1 P-07,600,44.9429198,-93.1357598,"846 HOLLY AVE, ST PAUL, MN, 55104",3.0,1
ST. PAUL W-1 P-07,600,44.9429279,-93.1321349,"758 HOLLY AVE, ST PAUL, MN, 55104",2.0,1
ST. PAUL W-1 P-07,600,44.9429321,-93.1346429,"814 HOLLY AVE, ST PAUL, MN, 55104",2.0,2
ST. PAUL W-1 P-07,600,44.9429343,-93.12923520000001,"688 HOLLY AVE, ST PAUL, MN, 55104",5.0,1
ST. PAUL W-1 P-07,600,44.9429408,-93.1316647,"746 HOLLY AVE, ST PAUL, MN, 55104",3.0,2
ST. PAUL W-1 P-07,600,44.9429455,-93.1361517,"854 HOLLY AVE, ST PAUL, MN, 55104",3.0,1
ST. PAUL W-1 P-07,600,44.9429466,-93.1347801,"820 HOLLY AVE, ST PAUL, MN, 55104",1.0,1
ST. PAUL W-1 P-07,600,44.942949799999994,-93.135995,"852 HOLLY AVE, ST PAUL, MN, 55104",2.0,2
ST. PAUL W-1 P-07,600,44.9429686,-93.1279813,"662 HOLLY AVE, ST PAUL, MN, 55104",2.0,1
ST. PAUL W-1 P-07,600,44.9429691,-93.1326248,"770 HOLLY AVE, ST PAUL, MN, 55104",3.0,3
ST. PAUL W-1 P-07,600,44.9429793,-93.1329187,"778 HOLLY AVE, ST PAUL, MN, 55104",2.0,2
ST. PAUL W-1 P-07,600,44.943090500000004,-93.1395026,"931 PORTLAND AVE, ST PAUL, MN, 55104",2.0,2
ST. PAUL W-1 P-07,600,44.943101,-93.1417758,"983 PORTLAND AVE, ST PAUL, MN, 55104",2.0,2
ST. PAUL W-1 P-07,600,44.943105700000004,-93.1422658,"997 PORTLAND AVE, ST PAUL, MN, 55104",3.0,1
ST. PAUL W-1 P-07,600,44.94310910000001,-93.1408156,"965 PORTLAND AVE, ST PAUL, MN, 55104",2.0,2
ST. PAUL W-1 P-07,600,44.9431139,-93.1413055,"977 PORTLAND AVE, ST PAUL, MN, 55104",8.0,2
ST. PAUL W-1 P-07,600,44.9431311,-93.14067840000001,"961 PORTLAND AVE, ST PAUL, MN, 55104",2.0,2
ST. PAUL W-1 P-07,600,44.9431375,-93.1404432,"955 PORTLAND AVE, ST PAUL, MN, 55104",2.0,1
ST. PAUL W-1 P-07,600,44.943144000000004,-93.1402081,"947 PORTLAND AVE, ST PAUL, MN, 55104",1.0,1
ST. PAUL W-1 P-07,600,44.9433278,-93.1265282,"61 DALE ST N, ST PAUL, MN, 55102",3.0,1
ST. PAUL W-1 P-07,600,44.94335170000001,-93.12796170000001,"661 HOLLY AVE, ST PAUL, MN, 55104",2.0,1
ST. PAUL W-1 P-07,600,44.943356,-93.1331342,"781 HOLLY AVE, ST PAUL, MN, 55104",2.0,1
ST. PAUL W-1 P-07,600,44.94336089999999,-93.1322917,"763 HOLLY AVE, ST PAUL, MN, 55104",2.0,1
ST. PAUL W-1 P-07,600,44.9433629,-93.1348781,"823 HOLLY AVE, ST PAUL, MN, 55104",2.0,1
ST. PAUL W-1 P-07,600,44.9433758,-93.1344078,"811 HOLLY AVE, ST PAUL, MN, 55104",1.0,1
ST. PAUL W-1 P-07,600,44.943377500000004,-93.1336828,"797 HOLLY AVE, ST PAUL, MN, 55104",2.0,1
ST. PAUL W-1 P-07,600,44.9433817,-93.1268646,"633 HOLLY AVE, ST PAUL, MN, 55104",3.0,3
ST. PAUL W-1 P-07,600,44.943382299999996,-93.13417270000001,"807 HOLLY AVE, ST PAUL, MN, 55104",3.0,2
ST. PAUL W-1 P-07,600,44.9433881,-93.1359558,"849 HOLLY AVE, ST PAUL, MN, 55104",2.0,1
ST. PAUL W-1 P-07,600,44.9433903,-93.13454499999999,"813 HOLLY AVE, ST PAUL, MN, 55104",2.0,2
ST. PAUL W-1 P-07,600,44.94339240000001,-93.135799,"847 HOLLY AVE, ST PAUL, MN, 55104",3.0,1
ST. PAUL W-1 P-07,600,44.943399400000004,-93.1335457,"795 HOLLY AVE, ST PAUL, MN, 55104",4.0,1
ST. PAUL W-1 P-07,600,44.943401,-93.1354855,"835 HOLLY AVE, ST PAUL, MN, 55104",2.0,2
ST. PAUL W-1 P-07,600,44.943408500000004,-93.1285495,"679 HOLLY AVE, ST PAUL, MN, 55104",2.0,2
ST. PAUL W-1 P-07,600,44.943420200000006,-93.1361125,"855 HOLLY AVE, ST PAUL, MN, 55104",3.0,3
ST. PAUL W-1 P-07,600,44.94342049999999,-93.1316777,"741 HOLLY AVE, ST PAUL, MN, 55104",16.0,1
ST. PAUL W-1 P-07,600,44.943478999999996,-93.139287,"69 MILTON ST N, ST PAUL, MN, 55104",3.0,1
ST. PAUL W-1 P-07,600,44.94361989999999,-93.1387971,"916 ASHLAND AVE, ST PAUL, MN, 55104",11.0,1
ST. PAUL W-1 P-07,600,44.9436495,-93.1370531,"870 ASHLAND AVE, ST PAUL, MN, 55104",2.0,1
ST. PAUL W-1 P-07,600,44.94365379999999,-93.1368963,"866 ASHLAND AVE, ST PAUL, MN, 55104",2.0,2
ST. PAUL W-1 P-07,600,44.9436584,-93.1400513,"942 ASHLAND AVE, ST PAUL, MN, 55104",7.0,2
ST. PAUL W-1 P-07,600,44.943661299999995,-93.1379545,"896 ASHLAND AVE, ST PAUL, MN, 55104",4.0,2
ST. PAUL W-1 P-07,600,44.94366309999999,-93.1402558,"948 ASHLAND AVE, ST PAUL, MN, 55104",1.0,1
ST. PAUL W-1 P-07,600,44.9436754,-93.1420894,"990 ASHLAND AVE, ST PAUL, MN, 55104",1.0,1
ST. PAUL W-1 P-07,600,44.943705200000004,-93.1376802,"888 ASHLAND AVE, ST PAUL, MN, 55104",2.0,2
ST. PAUL W-1 P-07,600,44.9437138,-93.1373666,"880 ASHLAND AVE, ST PAUL, MN, 55104",3.0,1
ST. PAUL W-1 P-07,600,44.9437141,-93.14067840000001,"958 ASHLAND AVE, ST PAUL, MN, 55104",2.0,1
ST. PAUL W-1 P-07,600,44.9437286,-93.1408156,"964 ASHLAND AVE, ST PAUL, MN, 55104",2.0,2
ST. PAUL W-1 P-07,600,44.943791100000006,-93.1274339,"646 ASHLAND AVE, ST PAUL, MN, 55104",1.0,1
ST. PAUL W-1 P-07,600,44.9437959,-93.12704090000001,"638 ASHLAND AVE, ST PAUL, MN, 55104",1.0,1
ST. PAUL W-1 P-07,600,44.9438131,-93.1344078,"810 ASHLAND AVE, ST PAUL, MN, 55104",2.0,1
ST. PAUL W-1 P-07,600,44.9438217,-93.1340943,"802 ASHLAND AVE, ST PAUL, MN, 55104",1.0,1
ST. PAUL W-1 P-07,600,44.943826,-93.1286082,"676 ASHLAND AVE, ST PAUL, MN, 55104",13.0,1
ST. PAUL W-1 P-07,600,44.9438324,-93.1337024,"796 ASHLAND AVE, ST PAUL, MN, 55104",6.0,2
ST. PAUL W-1 P-07,600,44.94383819999999,-93.1354855,"838 ASHLAND AVE, ST PAUL, MN, 55104",2.0,1
ST. PAUL W-1 P-07,600,44.94383939999999,-93.1327815,"774 ASHLAND AVE, ST PAUL, MN, 55104",5.0,1
ST. PAUL W-1 P-07,600,44.94384960000001,-93.13307540000001,"780 ASHLAND AVE, ST PAUL, MN, 55104",2.0,1
ST. PAUL W-1 P-07,600,44.9438543,-93.1269038,"634 ASHLAND AVE, ST PAUL, MN, 55104",6.0,1
ST. PAUL W-1 P-07,600,44.943859700000004,-93.1267078,"630 ASHLAND AVE, ST PAUL, MN, 55104",2.0,2
ST. PAUL W-1 P-07,600,44.9441193,-93.139189,"87 MILTON ST N, ST PAUL, MN, 55104",3.0,3
ST. PAUL W-1 P-07,600,44.94412,-93.1371707,"877 ASHLAND AVE, ST PAUL, MN, 55104",4.0,2
ST. PAUL W-1 P-07,600,44.944123,-93.1397181,"935 ASHLAND AVE, ST PAUL, MN, 55104",2.0,1
ST. PAUL W-1 P-07,600,44.944132200000006,-93.1387187,"915 ASHLAND AVE, ST PAUL, MN, 55104",2.0,1
ST. PAUL W-1 P-07,600,44.9441557,-93.1405216,"957 ASHLAND AVE, ST PAUL, MN, 55104",2.0,1
ST. PAUL W-1 P-07,600,44.944176899999995,-93.14240290000001,"1001 ASHLAND AVE, ST PAUL, MN, 55104",2.0,1
ST. PAUL W-1 P-07,600,44.94418710000001,-93.13368100000001,"791 ASHLAND AVE, ST PAUL, MN, 55104",2.0,2
ST. PAUL W-1 P-07,600,44.9441903,-93.1425793,"1005 ASHLAND AVE, ST PAUL, MN, 55104",2.0,2
ST. PAUL W-1 P-07,600,44.9442289,-93.12719759999999,"641 ASHLAND AVE, ST PAUL, MN, 55104",3.0,1
ST. PAUL W-1 P-07,600,44.944246,-93.1265707,"627 ASHLAND AVE, ST PAUL, MN, 55104",2.0,2
ST. PAUL W-1 P-07,600,44.944246299999996,-93.1392086,"93 MILTON ST N, ST PAUL, MN, 55104",5.0,1
ST. PAUL W-1 P-07,600,44.9442483,-93.1318214,"751 ASHLAND AVE, ST PAUL, MN, 55104",2.0,2
ST. PAUL W-1 P-07,600,44.944252500000005,-93.1316647,"747 ASHLAND AVE, ST PAUL, MN, 55104",2.0,2
ST. PAUL W-1 P-07,600,44.94425510000001,-93.1336967,"797 ASHLAND AVE, ST PAUL, MN, 55104",2.0,2
ST. PAUL W-1 P-07,600,44.9442561,-93.1333104,"787 ASHLAND AVE, ST PAUL, MN, 55104",6.0,1
ST. PAUL W-1 P-07,600,44.9442605,-93.1347017,"817 ASHLAND AVE, ST PAUL, MN, 55104",3.0,2
ST. PAUL W-1 P-07,600,44.944261600000004,-93.1319978,"753 ASHLAND AVE, ST PAUL, MN, 55104",2.0,2
ST. PAUL W-1 P-07,600,44.9442654,-93.1285299,"98 ST ALBANS ST N, ST PAUL, MN, 55104",1.0,1
ST. PAUL W-1 P-07,600,44.9442739,-93.1335457,"793 ASHLAND AVE, ST PAUL, MN, 55104",1.0,1
ST. PAUL W-1 P-07,600,44.94428679999999,-93.1277462,"657 ASHLAND AVE, ST PAUL, MN, 55104",11.0,2
ST. PAUL W-1 P-07,600,44.9442884,-93.1270213,"639 ASHLAND AVE, ST PAUL, MN, 55104",2.0,1
ST. PAUL W-1 P-07,600,44.944293200000004,-93.1275111,"651 ASHLAND AVE, ST PAUL, MN, 55104",2.0,2
ST. PAUL W-1 P-07,600,44.944295399999994,-93.1327619,"775 ASHLAND AVE, ST PAUL, MN, 55104",3.0,2
ST. PAUL W-1 P-07,600,44.9442986,-93.1349983,"827 ASHLAND AVE, ST PAUL, MN, 55104",1.0,1
ST. PAUL W-1 P-07,600,44.9443556,-93.1392086,"99 MILTON ST N, ST PAUL, MN, 55104",4.0,1
ST. PAUL W-1 P-07,600,44.944356799999994,-93.143814,"94 OXFORD ST N, ST PAUL, MN, 55104",1.0,1
ST. PAUL W-1 P-07,600,44.944382700000006,-93.14618540000001,"100 LEXINGTON PKWY N, ST PAUL, MN, 55104",2.0,2
ST. PAUL W-1 P-07,600,44.9446989,-93.1280009,"666 LAUREL AVE, ST PAUL, MN, 55104",1.0,1
ST. PAUL W-1 P-07,600,44.9447096,-93.1329382,"776 LAUREL AVE, ST PAUL, MN, 55104",3.0,2
ST. PAUL W-1 P-07,600,44.944721799999996,-93.1358186,"846 LAUREL AVE, ST PAUL, MN, 55104",3.0,1
ST. PAUL W-1 P-07,600,44.944725700000006,-93.1336828,"796 LAUREL AVE, ST PAUL, MN, 55104",2.0,1
ST. PAUL W-1 P-07,600,44.944726700000004,-93.12831440000001,"670 LAUREL AVE, ST PAUL, MN, 55104",2.0,1
ST. PAUL W-1 P-07,600,44.94473,-93.1281968,"668 LAUREL AVE, ST PAUL, MN, 55104",1.0,1
ST. PAUL W-1 P-07,600,44.9447305,-93.1275111,"648 LAUREL AVE, ST PAUL, MN, 55104",2.0,1
ST. PAUL W-1 P-07,600,44.944731,-93.1321545,"756 LAUREL AVE, ST PAUL, MN, 55104",2.0,2
ST. PAUL W-1 P-07,600,44.94473259999999,-93.1354267,"838 LAUREL AVE, ST PAUL, MN, 55104",2.0,2
ST. PAUL W-1 P-07,600,44.944736299999995,-93.1359558,"850 LAUREL AVE, ST PAUL, MN, 55104",4.0,2
ST. PAUL W-1 P-07,600,44.9447369,-93.1326052,"770 LAUREL AVE, ST PAUL, MN, 55104",4.0,3
ST. PAUL W-1 P-07,600,44.944737200000006,-93.1385816,"912 LAUREL AVE, ST PAUL, MN, 55104",2.0,2
ST. PAUL W-1 P-07,600,44.9447396,-93.1278442,"658 LAUREL AVE, ST PAUL, MN, 55104",2.0,2
ST. PAUL W-1 P-07,600,44.944745399999995,-93.13495640000001,"820 LAUREL AVE, ST PAUL, MN, 55104",1.0,1
ST. PAUL W-1 P-07,600,44.9447685,-93.1420894,"992 LAUREL AVE, ST PAUL, MN, 55104",5.0,2
ST. PAUL W-1 P-07,600,44.9447688,-93.13942420000001,"928 LAUREL AVE, ST PAUL, MN, 55104",2.0,2
ST. PAUL W-1 P-07,600,44.9447716,-93.1373274,"880 LAUREL AVE, ST PAUL, MN, 55104",2.0,2
ST. PAUL W-1 P-07,600,44.9447778,-93.1397573,"936 LAUREL AVE, ST PAUL, MN, 55104",3.0,2
ST. PAUL W-1 P-07,600,44.944780200000004,-93.13701390000001,"870 LAUREL AVE, ST PAUL, MN, 55104",2.0,1
ST. PAUL W-1 P-07,600,44.944782200000006,-93.138268,"904 LAUREL AVE, ST PAUL, MN, 55104",2.0,2
ST. PAUL W-1 P-07,600,44.9447982,-93.1403452,"952 LAUREL AVE, ST PAUL, MN, 55104",2.0,1
ST. PAUL W-1 P-07,600,44.9448115,-93.1405216,"956 LAUREL AVE, ST PAUL, MN, 55104",1.0,1
ST. PAUL W-1 P-07,600,44.9448959,-93.1412735,"974 LAUREL AVE, ST PAUL, MN, 55104",3.0,1
ST. PAUL W-1 P-08,610,44.945555600000006,-93.11905820000001,"143 ARUNDEL ST, ST PAUL, MN, 55102",3.0,1
ST. PAUL W-1 P-08,610,44.945570000000004,-93.116371,"385 LAUREL AVE, ST PAUL, MN, 55102",14.0,5
ST. PAUL W-1 P-08,610,44.945570200000006,-93.1202691,"475 LAUREL AVE, ST PAUL, MN, 55102",2.0,1
ST. PAUL W-1 P-08,610,44.9455739,-93.1152875,"361 LAUREL AVE, ST PAUL, MN, 55102",2.0,2
ST. PAUL W-1 P-08,610,44.945575700000006,-93.1204838,"481 LAUREL AVE, ST PAUL, MN, 55102",3.0,1
ST. PAUL W-1 P-08,610,44.9455824,-93.1149741,"355 LAUREL AVE, ST PAUL, MN, 55102",2.0,2
ST. PAUL W-1 P-08,610,44.9455998,-93.11701120000001,"403 LAUREL AVE, ST PAUL, MN, 55102",2.0,2
ST. PAUL W-1 P-08,610,44.945601,-93.12348,"559 LAUREL AVE, ST PAUL, MN, 55102",1.0,1
ST. PAUL W-1 P-08,610,44.9456126,-93.1165411,"391 LAUREL AVE, ST PAUL, MN, 55102",16.0,4
ST. PAUL W-1 P-08,610,44.9456133,-93.1171875,"407 LAUREL AVE, ST PAUL, MN, 55102",3.0,2
ST. PAUL W-1 P-08,610,44.9456155,-93.1244549,"573 LAUREL AVE, ST PAUL, MN, 55102",6.0,1
ST. PAUL W-1 P-08,610,44.9456578,-93.11755959999999,"415 LAUREL AVE, ST PAUL, MN, 55102",2.0,2
ST. PAUL W-1 P-08,610,44.94566469999999,-93.1226526,"535 LAUREL AVE, ST PAUL, MN, 55102",2.0,1
ST. PAUL W-1 P-08,610,44.94566589999999,-93.12394559999998,"561 LAUREL AVE, ST PAUL, MN, 55102",9.0,3
ST. PAUL W-1 P-08,610,44.9456688,-93.1198318,"469 LAUREL AVE, ST PAUL, MN, 55102",5.0,3
ST. PAUL W-1 P-08,610,44.9456713,-93.1250818,"593 LAUREL AVE, ST PAUL, MN, 55102",10.0,1
ST. PAUL W-1 P-08,610,44.9457015,-93.120635,"487 LAUREL AVE, ST PAUL, MN, 55102",2.0,1
ST. PAUL W-1 P-08,610,44.94571320000001,-93.1155226,"369 LAUREL AVE, ST PAUL, MN, 55102",22.0,2
ST. PAUL W-1 P-08,610,44.94571579999999,-93.1158536,"136 WESTERN AVE N, ST PAUL, MN, 55102",23.0,2
ST. PAUL W-1 P-08,610,44.945742200000005,-93.1211272,"144 MACKUBIN ST, ST PAUL, MN, 55102",1.0,1
ST. PAUL W-1 P-08,610,44.945763,-93.117982,"427 LAUREL AVE, ST PAUL, MN, 55102",1.0,1
ST. PAUL W-1 P-08,610,44.9457652,-93.1183046,"138 ARUNDEL ST, ST PAUL, MN, 55102",16.0,4
ST. PAUL W-1 P-08,610,44.945806700000006,-93.1185271,"140 ARUNDEL ST, ST PAUL, MN, 55102",13.0,3
ST. PAUL W-1 P-08,610,44.945831,-93.114092,"325 LAUREL AVE, ST PAUL, MN, 55102",80.0,9
ST. PAUL W-1 P-08,610,44.9458883,-93.1147506,"147 VIRGINIA ST, ST PAUL, MN, 55102",5.0,3
ST. PAUL W-1 P-08,610,44.9459634,-93.1150329,"155 VIRGINIA ST, ST PAUL, MN, 55102",9.0,1
ST. PAUL W-1 P-08,610,44.9459908,-93.1164947,"153 WESTERN AVE N, ST PAUL, MN, 55102",8.0,1
ST. PAUL W-1 P-08,610,44.94608,-93.1239949,"157 KENT ST, ST PAUL, MN, 55102",2.0,1
ST. PAUL W-1 P-08,610,44.94626969999999,-93.1178338,"400 SELBY AVE, ST PAUL, MN, 55102",102.0,4
ST. PAUL W-1 P-08,610,44.946275,-93.123998,"165 KENT ST, ST PAUL, MN, 55102",2.0,2
ST. PAUL W-1 P-08,610,44.9463336,-93.1248467,"584 SELBY AVE, ST PAUL, MN, 55102",7.0,1
ST. PAUL W-1 P-08,610,44.9463484,-93.121634,"504 SELBY AVE, ST PAUL, MN, 55102",16.0,2
ST. PAUL W-1 P-08,610,44.9463507,-93.1242198,"570 SELBY AVE, ST PAUL, MN, 55102",2.0,1
ST. PAUL W-1 P-08,610,44.946400700000005,-93.1166468,"165 WESTERN AVE N, ST PAUL, MN, 55102",53.0,9
ST. PAUL W-1 P-08,610,44.9464043,-93.12401640000002,"564 SELBY AVE, ST PAUL, MN, 55102",1.0,1
ST. PAUL W-1 P-08,610,44.946472299999996,-93.1256925,"608 SELBY AVE, ST PAUL, MN, 55102",4.0,1
ST. PAUL W-1 P-08,610,44.946483799999996,-93.12602710000002,"616 SELBY AVE, ST PAUL, MN, 55102",11.0,1
ST. PAUL W-1 P-08,610,44.946669,-93.1099941,"239 SELBY AVE, ST PAUL, MN, 55102",5.0,1
ST. PAUL W-1 P-08,610,44.946765899999995,-93.11288,"307 SELBY AVE, ST PAUL, MN, 55102",2.0,1
ST. PAUL W-1 P-08,610,44.94677100000001,-93.1233309,"553 SELBY AVE, ST PAUL, MN, 55102",2.0,1
ST. PAUL W-1 P-08,610,44.94677120000001,-93.1235714,"176 KENT ST, ST PAUL, MN, 55102",1.0,1
ST. PAUL W-1 P-08,610,44.946777000000004,-93.113031,"311 SELBY AVE, ST PAUL, MN, 55102",2.0,2
ST. PAUL W-1 P-08,610,44.94677799999999,-93.11233,"293 SELBY AVE, ST PAUL, MN, 55102",2.0,2
ST. PAUL W-1 P-08,610,44.946785600000005,-93.121634,"505 SELBY AVE, ST PAUL, MN, 55102",17.0,3
ST. PAUL W-1 P-08,610,44.946788,-93.113109,"313 SELBY AVE, ST PAUL, MN, 55102",1.0,1
ST. PAUL W-1 P-08,610,44.946788,-93.112491,"297 SELBY AVE, ST PAUL, MN, 55102",2.0,2
ST. PAUL W-1 P-08,610,44.9468131,-93.1179514,"425 SELBY AVE, ST PAUL, MN, 55102",31.0,2
ST. PAUL W-1 P-08,610,44.94682,-93.1193459,"453 SELBY AVE, ST PAUL, MN, 55102",2.0,1
ST. PAUL W-1 P-08,610,44.94682299999999,-93.120908,"182 MACKUBIN ST, ST PAUL, MN, 55102",5.0,2
ST. PAUL W-1 P-08,610,44.947118700000004,-93.11207540000001,"286 DAYTON AVE, ST PAUL, MN, 55102",12.0,1
ST. PAUL W-1 P-08,610,44.9471279,-93.1124084,"294 DAYTON AVE, ST PAUL, MN, 55102",11.0,2
ST. PAUL W-1 P-08,610,44.947134000000005,-93.11826,"432 DAYTON AVE, ST PAUL, MN, 55102",4.0,1
ST. PAUL W-1 P-08,610,44.94713489999999,-93.1243406,"570 DAYTON AVE, ST PAUL, MN, 55102",2.0,1
ST. PAUL W-1 P-08,610,44.947138,-93.11973,"464 DAYTON AVE, ST PAUL, MN, 55102",9.0,2
ST. PAUL W-1 P-08,610,44.947145500000005,-93.1210816,"498 DAYTON AVE, ST PAUL, MN, 55102",13.0,3
ST. PAUL W-1 P-08,610,44.9471559,-93.1199376,"468 DAYTON AVE, ST PAUL, MN, 55102",10.0,2
ST. PAUL W-1 P-08,610,44.947175,-93.123303,"552 DAYTON AVE, ST PAUL, MN, 55102",2.0,1
ST. PAUL W-1 P-08,610,44.9471875,-93.1169132,"396 DAYTON AVE, ST PAUL, MN, 55102",2.0,1
ST. PAUL W-1 P-08,610,44.9471929,-93.122731,"536 DAYTON AVE, ST PAUL, MN, 55102",2.0,1
ST. PAUL W-1 P-08,610,44.9472007,-93.1204391,"482 DAYTON AVE, ST PAUL, MN, 55102",2.0,2
ST. PAUL W-1 P-08,610,44.9472063,-93.1229073,"538 DAYTON AVE, ST PAUL, MN, 55102",4.0,3
ST. PAUL W-1 P-08,610,44.9472118,-93.1253757,"598 DAYTON AVE, ST PAUL, MN, 55102",1.0,1
ST. PAUL W-1 P-08,610,44.9472122,-93.1173442,"406 DAYTON AVE, ST PAUL, MN, 55102",3.0,1
ST. PAUL W-1 P-08,610,44.94722470000001,-93.1188916,"442 DAYTON AVE, ST PAUL, MN, 55102",3.0,3
ST. PAUL W-1 P-08,610,44.9475077,-93.1165901,"389 DAYTON AVE, ST PAUL, MN, 55102",21.0,2
ST. PAUL W-1 P-08,610,44.947549,-93.115733,"204 WESTERN AVE N, ST PAUL, MN, 55102",22.0,3
ST. PAUL W-1 P-08,610,44.9476054,-93.1129372,"309 DAYTON AVE, ST PAUL, MN, 55102",8.0,1
ST. PAUL W-1 P-08,610,44.9476107,-93.1207721,"487 DAYTON AVE, ST PAUL, MN, 55102",3.0,1
ST. PAUL W-1 P-08,610,44.947619,-93.1110962,"265 DAYTON AVE, ST PAUL, MN, 55102",18.0,1
ST. PAUL W-1 P-08,610,44.947621999999996,-93.1210267,"493 DAYTON AVE, ST PAUL, MN, 55102",4.0,1
ST. PAUL W-1 P-08,610,44.9476259,-93.1228877,"541 DAYTON AVE, ST PAUL, MN, 55102",5.0,2
ST. PAUL W-1 P-08,610,44.9476265,-93.1248663,"587 DAYTON AVE, ST PAUL, MN, 55102",4.0,1
ST. PAUL W-1 P-08,610,44.947627000000004,-93.115036,"203 VIRGINIA ST, ST PAUL, MN, 55102",8.0,2
ST. PAUL W-1 P-08,610,44.94763029999999,-93.1253953,"601 DAYTON AVE, ST PAUL, MN, 55102",5.0,2
ST. PAUL W-1 P-08,610,44.947653100000004,-93.1131918,"315 DAYTON AVE, ST PAUL, MN, 55102",2.0,2
ST. PAUL W-1 P-08,610,44.947657299999996,-93.1096861,"231 DAYTON AVE, ST PAUL, MN, 55102",24.0,1
ST. PAUL W-1 P-08,610,44.947671299999996,-93.11366690000001,"325 DAYTON AVE, ST PAUL, MN, 55102",2.0,1
ST. PAUL W-1 P-08,610,44.947684499999994,-93.1194009,"455 DAYTON AVE, ST PAUL, MN, 55102",33.0,8
ST. PAUL W-1 P-08,610,44.947686100000006,-93.12602220000001,"617 DAYTON AVE, ST PAUL, MN, 55102",5.0,2
ST. PAUL W-1 P-08,610,44.9476875,-93.1179514,"425 DAYTON AVE, ST PAUL, MN, 55102",8.0,1
ST. PAUL W-1 P-08,610,44.9477125,-93.12234000000001,"531 DAYTON AVE, ST PAUL, MN, 55102",2.0,2
ST. PAUL W-1 P-08,610,44.9477302,-93.1163844,"383 DAYTON AVE, ST PAUL, MN, 55102",20.0,1
ST. PAUL W-1 P-08,610,44.947796399999994,-93.1147724,"207 VIRGINIA ST, ST PAUL, MN, 55102",9.0,1
ST. PAUL W-1 P-08,610,44.9478602,-93.1149546,"219 VIRGINIA ST, ST PAUL, MN, 55102",5.0,1
ST. PAUL W-1 P-08,610,44.9478973,-93.1156009,"370 MARSHALL AVE, ST PAUL, MN, 55102",66.0,13
ST. PAUL W-1 P-08,610,44.947898200000004,-93.11891120000001,"217 ARUNDEL ST, ST PAUL, MN, 55102",4.0,2
ST. PAUL W-1 P-08,610,44.947911299999994,-93.10972530000001,"232 MARSHALL AVE, ST PAUL, MN, 55102",12.0,1
ST. PAUL W-1 P-08,610,44.947948,-93.11105699999999,"262 MARSHALL AVE, ST PAUL, MN, 55102",7.0,2
ST. PAUL W-1 P-08,610,44.9479586,-93.1106653,"250 MARSHALL AVE, ST PAUL, MN, 55102",10.0,2
ST. PAUL W-1 P-08,610,44.947973700000006,-93.1121735,"286 MARSHALL AVE, ST PAUL, MN, 55102",30.0,2
ST. PAUL W-1 P-08,610,44.94798249999999,-93.1124671,"300 MARSHALL AVE, ST PAUL, MN, 55102",8.0,5
ST. PAUL W-1 P-08,610,44.94802199999999,-93.1190483,"223 ARUNDEL ST, ST PAUL, MN, 55102",9.0,2
ST. PAUL W-1 P-08,610,44.948044200000005,-93.1215752,"221 MACKUBIN ST, ST PAUL, MN, 55102",6.0,1
ST. PAUL W-1 P-08,610,44.948204,-93.1177163,"420 MARSHALL AVE, ST PAUL, MN, 55102",27.0,8
ST. PAUL W-1 P-08,610,44.948208,-93.125787,"610 MARSHALL AVE, ST PAUL, MN, 55102",1.0,1
ST. PAUL W-1 P-08,610,44.948221999999994,-93.12095500000001,"492 MARSHALL AVE, ST PAUL, MN, 55102",2.0,2
ST. PAUL W-1 P-08,610,44.948231,-93.1198517,"466 MARSHALL AVE, ST PAUL, MN, 55102",1.0,1
ST. PAUL W-1 P-08,610,44.9482315,-93.120082,"472 MARSHALL AVE, ST PAUL, MN, 55102",2.0,2
ST. PAUL W-1 P-08,610,44.9482406,-93.1190483,"231 ARUNDEL ST, ST PAUL, MN, 55102",11.0,1
ST. PAUL W-1 P-08,610,44.948276,-93.12402800000001,"233 KENT ST, ST PAUL, MN, 55102",2.0,1
ST. PAUL W-1 P-08,610,44.94828769999999,-93.1246704,"580 MARSHALL AVE, ST PAUL, MN, 55102",5.0,2
ST. PAUL W-1 P-08,610,44.948289700000004,-93.11724620000001,"402 MARSHALL AVE, ST PAUL, MN, 55102",2.0,1
ST. PAUL W-1 P-08,610,44.9482968,-93.12500340000001,"590 MARSHALL AVE, ST PAUL, MN, 55102",5.0,2
ST. PAUL W-1 P-08,610,44.9482985,-93.1195968,"460 MARSHALL AVE, ST PAUL, MN, 55102",3.0,1
ST. PAUL W-1 P-08,610,44.9483118,-93.1244549,"574 MARSHALL AVE, ST PAUL, MN, 55102",2.0,2
ST. PAUL W-1 P-08,610,44.9483885,-93.1189699,"235 ARUNDEL ST, ST PAUL, MN, 55102",3.0,1
ST. PAUL W-1 P-08,610,44.9483888,-93.121634,"237 MACKUBIN ST, ST PAUL, MN, 55102",2.0,1
ST. PAUL W-1 P-08,610,44.9483949,-93.1260809,"240 DALE ST N, ST PAUL, MN, 55102",2.0,2
ST. PAUL W-1 P-08,610,44.9484454,-93.12166040000001,"239 MACKUBIN ST, ST PAUL, MN, 55102",1.0,1
ST. PAUL W-1 P-08,610,44.948711100000004,-93.11778259999998,"421 MARSHALL AVE, ST PAUL, MN, 55102",14.0,1
ST. PAUL W-1 P-08,610,44.948722499999995,-93.12075250000001,"487 MARSHALL AVE, ST PAUL, MN, 55102",4.0,3
ST. PAUL W-1 P-08,610,44.94872280000001,-93.1247488,"583 MARSHALL AVE, ST PAUL, MN, 55102",2.0,1
ST. PAUL W-1 P-08,610,44.948735799999994,-93.1195968,"463 MARSHALL AVE, ST PAUL, MN, 55102",4.0,1
ST. PAUL W-1 P-08,610,44.9487481,-93.1198122,"467 MARSHALL AVE, ST PAUL, MN, 55102",2.0,2
ST. PAUL W-1 P-08,610,44.948825899999996,-93.118948,"447 MARSHALL AVE, ST PAUL, MN, 55102",9.0,1
ST. PAUL W-1 P-08,610,44.9488282,-93.1176141,"415 MARSHALL AVE, ST PAUL, MN, 55102",15.0,1
ST. PAUL W-1 P-08,610,44.9488407,-93.1184215,"437 MARSHALL AVE, ST PAUL, MN, 55102",11.0,2
ST. PAUL W-1 P-08,610,44.94884709999999,-93.1181864,"431 MARSHALL AVE, ST PAUL, MN, 55102",11.0,2
ST. PAUL W-1 P-08,610,44.949163,-93.1260439,"616 IGLEHART AVE, ST PAUL, MN, 55103",9.0,2
ST. PAUL W-1 P-08,610,44.949166999999996,-93.124798,"584 IGLEHART AVE, ST PAUL, MN, 55103",5.0,1
ST. PAUL W-1 P-08,610,44.94917,-93.124039,"568 IGLEHART AVE, ST PAUL, MN, 55103",3.0,2
ST. PAUL W-1 P-08,610,44.949184,-93.12005490000001,"472 IGLEHART AVE, ST PAUL, MN, 55103",1.0,1
ST. PAUL W-1 P-08,610,44.949186,-93.119372,"456 IGLEHART AVE, ST PAUL, MN, 55103",2.0,2
ST. PAUL W-1 P-08,610,44.949188899999996,-93.118908,"444 IGLEHART AVE, ST PAUL, MN, 55103",9.0,2
ST. PAUL W-1 P-08,610,44.949599,-93.120908,"495 IGLEHART AVE, ST PAUL, MN, 55103",2.0,1
ST. PAUL W-1 P-08,610,44.949715000000005,-93.12022900000001,"479 IGLEHART AVE, ST PAUL, MN, 55103",2.0,2
ST. PAUL W-1 P-08,610,44.949715999999995,-93.119999,"473 IGLEHART AVE, ST PAUL, MN, 55103",2.0,1
ST. PAUL W-1 P-08,610,44.94971700000001,-93.11965500000001,"463 IGLEHART AVE, ST PAUL, MN, 55103",3.0,1
ST. PAUL W-1 P-08,610,44.94971899999999,-93.11931,"455 IGLEHART AVE, ST PAUL, MN, 55103",2.0,1
ST. PAUL W-1 P-08,610,44.94972,-93.118966,"445 IGLEHART AVE, ST PAUL, MN, 55103",2.0,1
ST. PAUL W-1 P-08,610,44.949785,-93.125914,"613 IGLEHART AVE, ST PAUL, MN, 55103",4.0,1
ST. PAUL W-1 P-08,610,44.9501391,-93.1209092,"494 CARROLL AVE, ST PAUL, MN, 55103",3.0,1
ST. PAUL W-1 P-08,610,44.9501396,-93.1184543,"300 ARUNDEL ST, ST PAUL, MN, 55103",20.0,4
ST. PAUL W-1 P-08,610,44.9501562,-93.12028240000001,"476 CARROLL AVE, ST PAUL, MN, 55103",4.0,2
ST. PAUL W-1 P-08,610,44.9501967,-93.1163648,"297 WESTERN AVE N, ST PAUL, MN, 55102",11.0,4
ST. PAUL W-1 P-08,610,44.95024919999999,-93.1163317,"295 WESTERN AVE N, ST PAUL, MN, 55102",12.0,1
ST. PAUL W-1 P-08,610,44.95080160000001,-93.1188398,"410 CONCORDIA AVE, ST PAUL, MN, 55103",16.0,3
ST. PAUL W-1 P-09,620,44.956171600000005,-93.1259124,"500 DALE ST N, ST PAUL, MN, 55103",44.0,4
ST. PAUL W-1 P-09,620,44.9564425,-93.118206,"428 SHERBURNE AVE, ST PAUL, MN, 55103",1.0,1
ST. PAUL W-1 P-09,620,44.956472399999996,-93.1171091,"402 SHERBURNE AVE, ST PAUL, MN, 55103",3.0,1
ST. PAUL W-1 P-09,620,44.9564741,-93.114367,"342 SHERBURNE AVE, ST PAUL, MN, 55103",3.0,1
ST. PAUL W-1 P-09,620,44.956815399999996,-93.1252385,"595 SHERBURNE AVE, ST PAUL, MN, 55103",2.0,1
ST. PAUL W-1 P-09,620,44.9568179,-93.1231424,"545 SHERBURNE AVE, ST PAUL, MN, 55103",3.0,1
ST. PAUL W-1 P-09,620,44.956818,-93.1244745,"575 SHERBURNE AVE, ST PAUL, MN, 55103",4.0,2
ST. PAUL W-1 P-09,620,44.9568357,-93.11848020000001,"437 SHERBURNE AVE, ST PAUL, MN, 55103",1.0,1
ST. PAUL W-1 P-09,620,44.956849,-93.1233383,"553 SHERBURNE AVE, ST PAUL, MN, 55103",4.0,2
ST. PAUL W-1 P-09,620,44.9568511,-93.1219278,"515 SHERBURNE AVE, ST PAUL, MN, 55103",4.0,2
ST. PAUL W-1 P-09,620,44.9568576,-93.1230248,"543 SHERBURNE AVE, ST PAUL, MN, 55103",1.0,1
ST. PAUL W-1 P-09,620,44.95685779999999,-93.1149937,"351 SHERBURNE AVE, ST PAUL, MN, 55103",4.0,1
ST. PAUL W-1 P-09,620,44.9568595,-93.12028240000001,"479 SHERBURNE AVE, ST PAUL, MN, 55103",1.0,1
ST. PAUL W-1 P-09,620,44.95686920000001,-93.10963290000001,"229 SHERBURNE AVE, ST PAUL, MN, 55103",5.0,2
ST. PAUL W-1 P-09,620,44.9568705,-93.117873,"423 SHERBURNE AVE, ST PAUL, MN, 55103",4.0,1
ST. PAUL W-1 P-09,620,44.956884499999994,-93.10839909999999,"199 SHERBURNE AVE, ST PAUL, MN, 55103",6.0,1
ST. PAUL W-1 P-09,620,44.956890200000004,-93.1124805,"295 SHERBURNE AVE, ST PAUL, MN, 55103",2.0,1
ST. PAUL W-1 P-09,620,44.956902,-93.125859,"611 SHERBURNE AVE, ST PAUL, MN, 55103",1.0,1
ST. PAUL W-1 P-09,620,44.9569391,-93.11802970000001,"425 SHERBURNE AVE, ST PAUL, MN, 55103",2.0,1
ST. PAUL W-1 P-09,620,44.9571883,-93.11891120000001,"529 ARUNDEL ST, ST PAUL, MN, 55103",1.0,1
ST. PAUL W-1 P-09,620,44.957303,-93.11935,"452 CHARLES AVE, ST PAUL, MN, 55103",5.0,4
ST. PAUL W-1 P-09,620,44.957319500000004,-93.1218103,"512 CHARLES AVE, ST PAUL, MN, 55103",4.0,4
ST. PAUL W-1 P-09,620,44.957322999999995,-93.1117809,"278 CHARLES AVE, ST PAUL, MN, 55103",1.0,1
ST. PAUL W-1 P-09,620,44.957325700000005,-93.1218887,"514 CHARLES AVE, ST PAUL, MN, 55103",2.0,2
ST. PAUL W-1 P-09,620,44.957325899999994,-93.125885,"610 CHARLES AVE, ST PAUL, MN, 55103",1.0,1
ST. PAUL W-1 P-09,620,44.95733,-93.1217319,"510 CHARLES AVE, ST PAUL, MN, 55103",2.0,1
ST. PAUL W-1 P-09,620,44.9573459,-93.1198122,"464 CHARLES AVE, ST PAUL, MN, 55103",2.0,1
ST. PAUL W-1 P-09,620,44.9573548,-93.1248271,"582 CHARLES AVE, ST PAUL, MN, 55103",2.0,2
ST. PAUL W-1 P-09,620,44.957365100000004,-93.1191071,"446 CHARLES AVE, ST PAUL, MN, 55103",1.0,1
ST. PAUL W-1 P-09,620,44.9573652,-93.1204391,"482 CHARLES AVE, ST PAUL, MN, 55103",2.0,1
ST. PAUL W-1 P-09,620,44.9573831,-93.1171091,"402 CHARLES AVE, ST PAUL, MN, 55103",1.0,1
ST. PAUL W-1 P-09,620,44.95738370000001,-93.12510340000001,"590 CHARLES AVE, ST PAUL, MN, 55103",1.0,1
ST. PAUL W-1 P-09,620,44.957395700000006,-93.1153071,"358 CHARLES AVE, ST PAUL, MN, 55103",2.0,1
ST. PAUL W-1 P-09,620,44.957410700000004,-93.1107485,"537 GALTIER ST, ST PAUL, MN, 55103",3.0,2
ST. PAUL W-1 P-09,620,44.95769809999999,-93.1257115,"607 CHARLES AVE, ST PAUL, MN, 55103",2.0,1
ST. PAUL W-1 P-09,620,44.9577251,-93.12468929999999,"579 CHARLES AVE, ST PAUL, MN, 55103",1.0,1
ST. PAUL W-1 P-09,620,44.9577571,-93.1200946,"473 CHARLES AVE, ST PAUL, MN, 55103",2.0,1
ST. PAUL W-1 P-09,620,44.957769799999994,-93.1169526,"399 CHARLES AVE, ST PAUL, MN, 55103",1.0,1
ST. PAUL W-1 P-09,620,44.9577843,-93.1170917,"401 CHARLES AVE, ST PAUL, MN, 55103",3.0,2
ST. PAUL W-1 P-09,620,44.957812,-93.1174091,"411 CHARLES AVE, ST PAUL, MN, 55103",2.0,1
ST. PAUL W-1 P-09,620,44.9578255,-93.1202592,"477 CHARLES AVE, ST PAUL, MN, 55103",2.0,2
ST. PAUL W-1 P-09,620,44.957947499999996,-93.10737940000001,"175 CHARLES AVE, ST PAUL, MN, 55103",105.0,3
ST. PAUL W-1 P-09,620,44.9582586,-93.1242203,"566 EDMUND AVE, ST PAUL, MN, 55103",4.0,1
ST. PAUL W-1 P-09,620,44.9582923,-93.1249903,"586 EDMUND AVE, ST PAUL, MN, 55103",2.0,1
ST. PAUL W-1 P-09,620,44.958586100000005,-93.1209012,"493 EDMUND AVE, ST PAUL, MN, 55103",2.0,1
ST. PAUL W-1 P-09,620,44.958605799999994,-93.12437220000001,"571 EDMUND AVE, ST PAUL, MN, 55103",5.0,2
ST. PAUL W-1 P-09,620,44.9586208,-93.1198155,"465 EDMUND AVE, ST PAUL, MN, 55103",3.0,1
ST. PAUL W-1 P-09,620,44.9586453,-93.1255948,"603 EDMUND AVE, ST PAUL, MN, 55103",1.0,1
ST. PAUL W-1 P-09,620,44.958655900000004,-93.1158507,"369 EDMUND AVE, ST PAUL, MN, 55103",2.0,2
ST. PAUL W-1 P-09,620,44.958672,-93.12461529999999,"579 EDMUND AVE, ST PAUL, MN, 55103",1.0,1
ST. PAUL W-1 P-09,620,44.958718299999994,-93.114227,"337 EDMUND AVE, ST PAUL, MN, 55103",2.0,2
ST. PAUL W-1 P-09,620,44.9587304,-93.1117727,"578 ELFELT ST, ST PAUL, MN, 55103",2.0,1
ST. PAUL W-1 P-09,620,44.9587508,-93.10946690000002,"219 EDMUND AVE, ST PAUL, MN, 55103",1.0,1
ST. PAUL W-1 P-09,620,44.958788,-93.1109933,"257 EDMUND AVE, ST PAUL, MN, 55103",3.0,2
ST. PAUL W-1 P-09,620,44.95881989999999,-93.10962190000001,"581 MARION ST, ST PAUL, MN, 55103",2.0,1
ST. PAUL W-1 P-09,620,44.959094,-93.120895,"494 THOMAS AVE, ST PAUL, MN, 55103",3.0,2
ST. PAUL W-1 P-09,620,44.9591281,-93.1252546,"594 THOMAS AVE, ST PAUL, MN, 55103",1.0,1
ST. PAUL W-1 P-09,620,44.9591496,-93.1204625,"482 THOMAS AVE, ST PAUL, MN, 55103",3.0,1
ST. PAUL W-1 P-09,620,44.959157,-93.1255328,"600 THOMAS AVE, ST PAUL, MN, 55103",1.0,1
ST. PAUL W-1 P-09,620,44.959171399999995,-93.1243357,"568 THOMAS AVE, ST PAUL, MN, 55103",3.0,1
ST. PAUL W-1 P-09,620,44.95917499999999,-93.11551429999999,"366 THOMAS AVE, ST PAUL, MN, 55103",2.0,1
ST. PAUL W-1 P-09,620,44.959175200000004,-93.1235305,"556 THOMAS AVE, ST PAUL, MN, 55103",1.0,1
ST. PAUL W-1 P-09,620,44.9591869,-93.1217634,"514 THOMAS AVE, ST PAUL, MN, 55103",4.0,1
ST. PAUL W-1 P-09,620,44.9592131,-93.1104449,"246 THOMAS AVE, ST PAUL, MN, 55103",1.0,1
ST. PAUL W-1 P-09,620,44.9592143,-93.1102292,"238 THOMAS AVE, ST PAUL, MN, 55103",1.0,1
ST. PAUL W-1 P-09,620,44.9592295,-93.1235335,"554 THOMAS AVE, ST PAUL, MN, 55103",2.0,1
ST. PAUL W-1 P-09,620,44.959504200000005,-93.124824,"581 THOMAS AVE, ST PAUL, MN, 55103",3.0,1
ST. PAUL W-1 P-09,620,44.959529700000004,-93.1158673,"604 WESTERN AVE N, ST PAUL, MN, 55103",2.0,1
ST. PAUL W-1 P-09,620,44.9595875,-93.11775959999999,"419 THOMAS AVE, ST PAUL, MN, 55103",1.0,1
ST. PAUL W-1 P-09,620,44.95959179999999,-93.1189389,"607 ARUNDEL ST, ST PAUL, MN, 55103",5.0,1
ST. PAUL W-1 P-09,620,44.9595982,-93.1173678,"411 THOMAS AVE, ST PAUL, MN, 55103",1.0,1
ST. PAUL W-1 P-09,620,44.9596095,-93.1115933,"273 THOMAS AVE, ST PAUL, MN, 55103",2.0,1
ST. PAUL W-1 P-09,620,44.959617,-93.119137,"451 THOMAS AVE, ST PAUL, MN, 55103",3.0,3
ST. PAUL W-1 P-09,620,44.9598437,-93.1137011,"613 FARRINGTON ST, ST PAUL, MN, 55103",1.0,1
ST. PAUL W-1 P-09,620,44.9598782,-93.11176,"614 ELFELT ST, ST PAUL, MN, 55103",2.0,1
ST. PAUL W-1 P-09,620,44.9599625,-93.1240488,"621 KENT ST, ST PAUL, MN, 55103",3.0,1
ST. PAUL W-1 P-09,620,44.960048,-93.116411,"382 LAFOND AVE, ST PAUL, MN, 55103",3.0,1
ST. PAUL W-1 P-09,620,44.9600586,-93.1191863,"452 LAFOND AVE, ST PAUL, MN, 55103",4.0,1
ST. PAUL W-1 P-09,620,44.9601265,-93.124047,"629 KENT ST, ST PAUL, MN, 55103",2.0,2
ST. PAUL W-1 P-09,620,44.9601865,-93.11314909999999,"626 FARRINGTON ST, ST PAUL, MN, 55103",3.0,1
ST. PAUL W-1 P-09,620,44.9602763,-93.1157613,"372 LAFOND AVE, ST PAUL, MN, 55103",2.0,1
ST. PAUL W-1 P-09,620,44.960288500000004,-93.1127476,"302 LAFOND AVE, ST PAUL, MN, 55103",2.0,1
ST. PAUL W-1 P-09,620,44.960426,-93.11639709999999,"631 WESTERN AVE N, ST PAUL, MN, 55103",1.0,1
ST. PAUL W-1 P-09,620,44.96043890000001,-93.1252798,"595 LAFOND AVE, ST PAUL, MN, 55103",4.0,2
ST. PAUL W-1 P-09,620,44.960440000000006,-93.1198959,"469 LAFOND AVE, ST PAUL, MN, 55103",2.0,1
ST. PAUL W-1 P-09,620,44.9604432,-93.1251231,"591 LAFOND AVE, ST PAUL, MN, 55103",2.0,2
ST. PAUL W-1 P-09,620,44.960445299999996,-93.1183639,"435 LAFOND AVE, ST PAUL, MN, 55103",2.0,2
ST. PAUL W-1 P-09,620,44.960449600000004,-93.1222155,"523 LAFOND AVE, ST PAUL, MN, 55103",4.0,4
ST. PAUL W-1 P-09,620,44.9604657,-93.1202917,"475 LAFOND AVE, ST PAUL, MN, 55103",4.0,2
ST. PAUL W-1 P-09,620,44.960503,-93.1189203,"637 ARUNDEL ST, ST PAUL, MN, 55103",3.0,1
ST. PAUL W-1 P-09,620,44.960535,-93.11640890000001,"635 WESTERN AVE N, ST PAUL, MN, 55103",3.0,1
ST. PAUL W-1 P-09,620,44.960558,-93.12603100000001,"642 DALE ST N, ST PAUL, MN, 55103",1.0,1
ST. PAUL W-1 P-09,620,44.960604100000005,-93.1111907,"263 LAFOND AVE, ST PAUL, MN, 55103",3.0,1
ST. PAUL W-1 P-09,620,44.96063849999999,-93.1139448,"331 LAFOND AVE, ST PAUL, MN, 55103",3.0,2
ST. PAUL W-1 P-09,620,44.960848999999996,-93.126029,"650 DALE ST N, ST PAUL, MN, 55103",5.0,1
ST. PAUL W-1 P-09,620,44.960957,-93.1169657,"400 BLAIR AVE, ST PAUL, MN, 55103",2.0,2
ST. PAUL W-1 P-09,620,44.960964000000004,-93.1173791,"410 BLAIR AVE, ST PAUL, MN, 55103",3.0,1
ST. PAUL W-1 P-09,620,44.96096989999999,-93.1245124,"574 BLAIR AVE, ST PAUL, MN, 55103",2.0,2
ST. PAUL W-1 P-09,620,44.9609854,-93.12193990000002,"512 BLAIR AVE, ST PAUL, MN, 55103",2.0,1
ST. PAUL W-1 P-09,620,44.9611783,-93.1108406,"653 GALTIER ST, ST PAUL, MN, 55103",49.0,5
ST. PAUL W-1 P-09,620,44.96120519999999,-93.1138689,"328 BLAIR AVE, ST PAUL, MN, 55103",2.0,2
ST. PAUL W-1 P-09,620,44.9612282,-93.1136946,"320 BLAIR AVE, ST PAUL, MN, 55103",5.0,1
ST. PAUL W-1 P-09,620,44.96134,-93.1249655,"581 BLAIR AVE, ST PAUL, MN, 55103",2.0,1
ST. PAUL W-1 P-09,620,44.961346,-93.1200733,"469 BLAIR AVE, ST PAUL, MN, 55103",1.0,1
ST. PAUL W-1 P-09,620,44.9613544,-93.1170876,"403 BLAIR AVE, ST PAUL, MN, 55103",2.0,1
ST. PAUL W-1 P-09,620,44.961402,-93.126038,"668 DALE ST N, ST PAUL, MN, 55103",3.0,1
ST. PAUL W-1 P-09,620,44.961557299999996,-93.11498780000001,"665 VIRGINIA ST, ST PAUL, MN, 55103",2.0,1
ST. PAUL W-1 P-09,620,44.9617016,-93.1163788,"673 WESTERN AVE N, ST PAUL, MN, 55103",2.0,1
ST. PAUL W-1 P-09,620,44.961847999999996,-93.1176915,"416 VANBUREN AVE, ST PAUL, MN, 55103",1.0,1
ST. PAUL W-1 P-09,620,44.9618513,-93.1189101,"442 VANBUREN AVE, ST PAUL, MN, 55103",2.0,1
ST. PAUL W-1 P-09,620,44.961873600000004,-93.1167512,"394 VANBUREN AVE, ST PAUL, MN, 55103",1.0,1
ST. PAUL W-1 P-09,620,44.9618769,-93.120642,"486 VANBUREN AVE, ST PAUL, MN, 55103",2.0,1
ST. PAUL W-1 P-09,620,44.961898100000006,-93.1158501,"682 WESTERN AVE N, ST PAUL, MN, 55103",3.0,1
ST. PAUL W-1 P-09,620,44.961920500000005,-93.1136913,"681 FARRINGTON ST, ST PAUL, MN, 55103",3.0,1
ST. PAUL W-1 P-09,620,44.96204909999999,-93.1123104,"286 VANBUREN AVE, ST PAUL, MN, 55103",6.0,1
ST. PAUL W-1 P-09,620,44.9622262,-93.11851870000001,"437 VANBUREN AVE, ST PAUL, MN, 55103",2.0,2
ST. PAUL W-1 P-09,620,44.9622433,-93.1178918,"421 VANBUREN AVE, ST PAUL, MN, 55103",1.0,1
ST. PAUL W-1 P-09,620,44.9622604,-93.1226096,"531 VANBUREN AVE, ST PAUL, MN, 55103",4.0,3
ST. PAUL W-1 P-09,620,44.9622732,-93.1167947,"395 VANBUREN AVE, ST PAUL, MN, 55103",1.0,1
ST. PAUL W-1 P-09,620,44.962399700000006,-93.1143741,"694 VIRGINIA ST, ST PAUL, MN, 55103",1.0,1
ST. PAUL W-1 P-09,620,44.9627497,-93.1180255,"424 MINNEHAHA AVE W, ST PAUL, MN, 55103",2.0,2
ST. PAUL W-1 P-09,620,44.962774200000005,-93.1251418,"590 MINNEHAHA AVE W, ST PAUL, MN, 55103",2.0,2
ST. PAUL W-1 P-09,620,44.96277429999999,-93.1184605,"436 MINNEHAHA AVE W, ST PAUL, MN, 55103",2.0,1
ST. PAUL W-1 P-09,620,44.9627785,-93.1169676,"398 MINNEHAHA AVE W, ST PAUL, MN, 55103",3.0,1
ST. PAUL W-1 P-09,620,44.962779600000005,-93.1236095,"714 KENT ST, ST PAUL, MN, 55103",1.0,1
ST. PAUL W-1 P-09,620,44.962801500000005,-93.1167933,"392 MINNEHAHA AVE W, ST PAUL, MN, 55103",2.0,2
ST. PAUL W-1 P-09,620,44.9628104,-93.1144562,"346 MINNEHAHA AVE W, ST PAUL, MN, 55103",3.0,1
ST. PAUL W-1 P-09,620,44.9633554,-93.1158515,"734 WESTERN AVE N, ST PAUL, MN, 55103",2.0,1
ST. PAUL W-1 P-09,620,44.9636834,-93.1158479,"744 WESTERN AVE N, ST PAUL, MN, 55103",2.0,1
ST. PAUL W-1 P-10,630,44.9638611,-93.1012511,"30 ACKER ST W, ST PAUL, MN, 55117",4.0,3
ST. PAUL W-1 P-10,630,44.9654971,-93.1044044,"100 LYTON PL, ST PAUL, MN, 55117",3.0,2
ST. PAUL W-1 P-10,630,44.9657246,-93.1023959,"55 LYTON PL, ST PAUL, MN, 55117",3.0,1
ST. PAUL W-1 P-10,630,44.9664,-93.1030192,"72 ATWATER ST, ST PAUL, MN, 55117",1.0,1
ST. PAUL W-1 P-10,630,44.967225899999995,-93.103314,"82 WINNIPEG AVE, ST PAUL, MN, 55117",4.0,3
ST. PAUL W-1 P-10,630,44.967227,-93.1034729,"84 WINNIPEG AVE, ST PAUL, MN, 55117",4.0,2
ST. PAUL W-1 P-10,630,44.9676349,-93.1018172,"39 WINNIPEG AVE, ST PAUL, MN, 55117",4.0,2
ST. PAUL W-1 P-10,630,44.9676355,-93.105709,"135 WINNIPEG AVE, ST PAUL, MN, 55117",25.0,4
ST. PAUL W-1 P-10,630,44.9681208,-93.1033825,"82 MANITOBA AVE, ST PAUL, MN, 55117",2.0,2
ST. PAUL W-1 P-10,630,44.9685529,-93.102899,"69 MANITOBA AVE, ST PAUL, MN, 55117",1.0,1
ST. PAUL W-1 P-10,630,44.9685657,-93.1024288,"57 MANITOBA AVE, ST PAUL, MN, 55117",5.0,3
ST. PAUL W-1 P-10,630,44.969189899999996,-93.10359670000001,"926 PARK ST, ST PAUL, MN, 55117",1.0,1
ST. PAUL W-1 P-10,630,44.969243,-93.104174,"925 PARK ST, ST PAUL, MN, 55117",2.0,1
ST. PAUL W-1 P-10,630,44.96966219999999,-93.1036479,"940 PARK ST, ST PAUL, MN, 55117",5.0,3
ST. PAUL W-1 P-10,630,44.97011089999999,-93.103225,"76 FRONT AVE, ST PAUL, MN, 55117",3.0,1
ST. PAUL W-1 P-10,630,44.97014250000001,-93.1040733,"94 FRONT AVE, ST PAUL, MN, 55117",2.0,1
ST. PAUL W-1 P-11,640,44.95182399999999,-93.1118796,"280 RAVOUX ST, ST PAUL, MN, 55103",157.0,38
ST. PAUL W-1 P-11,640,44.9522443,-93.11269370000001,"255 RAVOUX ST, ST PAUL, MN, 55103",7.0,1
ST. PAUL W-1 P-11,640,44.9525096,-93.1174813,"417 ST ANTHONY AVE, ST PAUL, MN, 55103",20.0,1
ST. PAUL W-1 P-11,640,44.95259420000001,-93.123064,"554 CENTRAL AVE W, ST PAUL, MN, 55103",106.0,8
ST. PAUL W-1 P-11,640,44.9526169,-93.1188916,"377 ARUNDEL ST, ST PAUL, MN, 55103",1.0,1
ST. PAUL W-1 P-11,640,44.9527352,-93.1252385,"600 CENTRAL AVE W, ST PAUL, MN, 55103",15.0,1
ST. PAUL W-1 P-11,640,44.9527945,-93.122398,"530 CENTRAL AVE W, ST PAUL, MN, 55103",3.0,3
ST. PAUL W-1 P-11,640,44.9528296,-93.11509170000001,"400 WESTERN AVE N, ST PAUL, MN, 55103",11.0,1
ST. PAUL W-1 P-11,640,44.952851,-93.1189895,"448 CENTRAL AVE W, ST PAUL, MN, 55103",1.0,1
ST. PAUL W-1 P-11,640,44.9528555,-93.12149690000001,"506 CENTRAL AVE W, ST PAUL, MN, 55103",2.0,2
ST. PAUL W-1 P-11,640,44.9528749,-93.1221237,"524 CENTRAL AVE W, ST PAUL, MN, 55103",3.0,3
ST. PAUL W-1 P-11,640,44.95331300000001,-93.123143,"543 CENTRAL AVE W, ST PAUL, MN, 55103",2.0,1
ST. PAUL W-1 P-11,640,44.9534186,-93.1225182,"521 CENTRAL AVE W, ST PAUL, MN, 55103",2.0,1
ST. PAUL W-1 P-11,640,44.9534186,-93.1215556,"509 CENTRAL AVE W, ST PAUL, MN, 55103",3.0,2
ST. PAUL W-1 P-11,640,44.95351779999999,-93.1098819,"240 FULLER AVE, ST PAUL, MN, 55103",5.0,1
ST. PAUL W-1 P-11,640,44.953529700000004,-93.1147023,"369 VIRGINIA ST, ST PAUL, MN, 55103",2.0,1
ST. PAUL W-1 P-11,640,44.9535504,-93.1132723,"363 FARRINGTON ST, ST PAUL, MN, 55103",1.0,1
ST. PAUL W-1 P-11,640,44.9535534,-93.114944,"387 VIRGINIA ST, ST PAUL, MN, 55103",1.0,1
ST. PAUL W-1 P-11,640,44.9535652,-93.113272,"365 FARRINGTON ST, ST PAUL, MN, 55103",1.0,1
ST. PAUL W-1 P-11,640,44.9535704,-93.1149438,"401 VIRGINIA ST, ST PAUL, MN, 55103",1.0,1
ST. PAUL W-1 P-11,640,44.953604600000006,-93.1220845,"515 CENTRAL AVE W, ST PAUL, MN, 55103",6.0,2
ST. PAUL W-1 P-11,640,44.95361949999999,-93.121536,"511 CENTRAL AVE W, ST PAUL, MN, 55103",4.0,2
ST. PAUL W-1 P-11,640,44.953624600000005,-93.1132708,"373 FARRINGTON ST, ST PAUL, MN, 55103",1.0,1
ST. PAUL W-1 P-11,640,44.95363029999999,-93.12247629999999,"519 CENTRAL AVE W, ST PAUL, MN, 55103",4.0,1
ST. PAUL W-1 P-11,640,44.9536691,-93.1132699,"379 FARRINGTON ST, ST PAUL, MN, 55103",1.0,1
ST. PAUL W-1 P-11,640,44.95368759999999,-93.1163648,"405 WESTERN AVE N, ST PAUL, MN, 55103",2.0,2
ST. PAUL W-1 P-11,640,44.953739399999996,-93.11513080000002,"354 FULLER AVE, ST PAUL, MN, 55103",2.0,1
ST. PAUL W-1 P-11,640,44.95389229999999,-93.1168741,"417 WESTERN AVE N, ST PAUL, MN, 55103",3.0,2
ST. PAUL W-1 P-11,640,44.9539895,-93.1114057,"266 FULLER AVE, ST PAUL, MN, 55103",4.0,1
ST. PAUL W-1 P-11,640,44.954065,-93.1192559,"472 AURORA AVE, ST PAUL, MN, 55103",2.0,1
ST. PAUL W-1 P-11,640,44.954110899999996,-93.1228877,"568 AURORA AVE, ST PAUL, MN, 55103",1.0,1
ST. PAUL W-1 P-11,640,44.954227200000005,-93.1105803,"253 FULLER AVE, ST PAUL, MN, 55103",4.0,1
ST. PAUL W-1 P-11,640,44.954237400000004,-93.11757920000001,"412 AURORA AVE, ST PAUL, MN, 55103",1.0,1
ST. PAUL W-1 P-11,640,44.9543592,-93.1191266,"470 AURORA AVE, ST PAUL, MN, 55103",3.0,3
ST. PAUL W-1 P-11,640,44.9544023,-93.1200475,"478 AURORA AVE, ST PAUL, MN, 55103",2.0,1
ST. PAUL W-1 P-11,640,44.9544471,-93.11756940000001,"408 AURORA AVE, ST PAUL, MN, 55103",1.0,1
ST. PAUL W-1 P-11,640,44.954507,-93.114367,"440 VIRGINIA ST, ST PAUL, MN, 55103",1.0,1
ST. PAUL W-1 P-11,640,44.954579100000004,-93.1170699,"392 AURORA AVE, ST PAUL, MN, 55103",1.0,1
ST. PAUL W-1 P-11,640,44.954624,-93.112045,"286 AURORA AVE, ST PAUL, MN, 55103",2.0,1
ST. PAUL W-1 P-11,640,44.954674100000005,-93.1182648,"428 AURORA AVE, ST PAUL, MN, 55103",3.0,1
ST. PAUL W-1 P-11,640,44.9546797,-93.1127022,"304 AURORA AVE, ST PAUL, MN, 55103",2.0,2
ST. PAUL W-1 P-11,640,44.954681,-93.1106457,"254 AURORA AVE, ST PAUL, MN, 55103",4.0,1
ST. PAUL W-1 P-11,640,44.9546863,-93.1104499,"248 AURORA AVE, ST PAUL, MN, 55103",2.0,2
ST. PAUL W-1 P-11,640,44.95469569999999,-93.12014520000001,"482 AURORA AVE, ST PAUL, MN, 55103",3.0,2
ST. PAUL W-1 P-11,640,44.9546976,-93.11740290000002,"400 AURORA AVE, ST PAUL, MN, 55103",1.0,1
ST. PAUL W-1 P-11,640,44.9547006,-93.1126042,"302 AURORA AVE, ST PAUL, MN, 55103",1.0,1
ST. PAUL W-1 P-11,640,44.9547138,-93.11144870000001,"445 GALTIER ST, ST PAUL, MN, 55103",33.0,7
ST. PAUL W-1 P-11,640,44.95471920000001,-93.1192834,"466 AURORA AVE, ST PAUL, MN, 55103",2.0,1
ST. PAUL W-1 P-11,640,44.9550153,-93.1134957,"321 AURORA AVE, ST PAUL, MN, 55103",3.0,1
ST. PAUL W-1 P-11,640,44.9550499,-93.1101581,"239 AURORA AVE, ST PAUL, MN, 55103",4.0,1
ST. PAUL W-1 P-11,640,44.9551056,-93.1204782,"485 AURORA AVE, ST PAUL, MN, 55103",2.0,2
ST. PAUL W-1 P-11,640,44.955119399999994,-93.1199689,"475 AURORA AVE, ST PAUL, MN, 55103",3.0,2
ST. PAUL W-1 P-11,640,44.955139,-93.110827,"261 AURORA AVE, ST PAUL, MN, 55103",6.0,2
ST. PAUL W-1 P-11,640,44.955231,-93.11546640000002,"470 WESTERN AVE N, ST PAUL, MN, 55103",61.0,2
ST. PAUL W-1 P-12,650,44.9433002,-93.1151504,"361 SUMMIT AVE, ST PAUL, MN, 55102",5.0,2
ST. PAUL W-1 P-12,650,44.94396,-93.1156793,"80 WESTERN AVE N, ST PAUL, MN, 55102",48.0,14
ST. PAUL W-1 P-12,650,44.9440861,-93.1137206,"329 SUMMIT AVE, ST PAUL, MN, 55102",4.0,2
ST. PAUL W-1 P-12,650,44.9444313,-93.1144257,"96 VIRGINIA ST, ST PAUL, MN, 55102",2.0,2
ST. PAUL W-1 P-12,650,44.9448895,-93.1143278,"118 VIRGINIA ST, ST PAUL, MN, 55102",3.0,2
ST. PAUL W-1 P-12,650,44.94490760000001,-93.11366190000001,"117 FARRINGTON ST, ST PAUL, MN, 55102",3.0,2
ST. PAUL W-1 P-12,650,44.944992,-93.11123609999999,"275 SUMMIT AVE, ST PAUL, MN, 55102",3.0,1
ST. PAUL W-1 P-12,650,44.945099,-93.110971,"271 SUMMIT AVE, ST PAUL, MN, 55102",5.0,3
ST. PAUL W-1 P-12,650,44.945155,-93.1126042,"294 LAUREL AVE, ST PAUL, MN, 55102",3.0,1
ST. PAUL W-1 P-12,650,44.9451646,-93.1122517,"286 LAUREL AVE, ST PAUL, MN, 55102",1.0,1
ST. PAUL W-1 P-12,650,44.9451984,-93.1130155,"130 FARRINGTON ST, ST PAUL, MN, 55102",2.0,2
ST. PAUL W-1 P-12,650,44.94523299999999,-93.1144257,"130 VIRGINIA ST, ST PAUL, MN, 55102",3.0,2
ST. PAUL W-1 P-12,650,44.9452864,-93.1104499,"261 SUMMIT AVE, ST PAUL, MN, 55102",6.0,2
ST. PAUL W-1 P-12,650,44.945290899999996,-93.111625,"130 NINA ST, ST PAUL, MN, 55102",1.0,1
ST. PAUL W-1 P-12,650,44.945448,-93.11155,"132 NINA ST, ST PAUL, MN, 55102",5.0,2
ST. PAUL W-1 P-12,650,44.9456292,-93.1099015,"245 SUMMIT AVE, ST PAUL, MN, 55102",2.0,1
ST. PAUL W-1 P-12,650,44.94578,-93.113063,"146 FARRINGTON ST, ST PAUL, MN, 55102",2.0,1
ST. PAUL W-1 P-12,650,44.945840999999994,-93.11305000000002,"148 FARRINGTON ST, ST PAUL, MN, 55102",1.0,1
ST. PAUL W-1 P-12,650,44.945899,-93.1130699,"150 FARRINGTON ST, ST PAUL, MN, 55102",1.0,1
ST. PAUL W-1 P-12,650,44.946005,-93.113032,"156 FARRINGTON ST, ST PAUL, MN, 55102",1.0,1
ST. PAUL W-1 P-12,650,44.946129,-93.111625,"162 NINA ST, ST PAUL, MN, 55102",1.0,1
ST. PAUL W-1 P-12,650,44.946155,-93.111051,"258 SELBY AVE, ST PAUL, MN, 55102",6.0,2
ST. PAUL W-1 P-12,650,44.946176,-93.112217,"161 NINA ST, ST PAUL, MN, 55102",1.0,1
ST. PAUL W-1 P-12,650,44.946219,-93.111607,"164 NINA ST, ST PAUL, MN, 55102",1.0,1
ST. PAUL W-1 P-12,650,44.946265999999994,-93.11313100000001,"166 FARRINGTON ST, ST PAUL, MN, 55102",5.0,1
ST. PAUL W-1 P-12,650,44.946288,-93.111607,"166 NINA ST, ST PAUL, MN, 55102",2.0,2
ST. PAUL W-1 P-12,650,44.94632429999999,-93.1104695,"250 SELBY AVE, ST PAUL, MN, 55102",31.0,1
ST. PAUL W-1 P-12,650,44.946346000000005,-93.112272,"284 SELBY AVE, ST PAUL, MN, 55102",2.0,2
ST. PAUL W-1 P-12,650,44.946349,-93.112473,"294 SELBY AVE, ST PAUL, MN, 55102",2.0,1
ST. PAUL W-1 P-12,650,44.946352000000005,-93.112978,"310 SELBY AVE, ST PAUL, MN, 55102",2.0,2
ST. PAUL W-1 P-12,650,44.946421,-93.11160600000001,"170 NINA ST, ST PAUL, MN, 55102",2.0,2
ST. PAUL W-1 P-13,660,44.9416047,-93.12521890000001,"597 SUMMIT AVE, ST PAUL, MN, 55102",2.0,1
ST. PAUL W-1 P-13,660,44.941632,-93.123379,"555 SUMMIT AVE, ST PAUL, MN, 55102",4.0,1
ST. PAUL W-1 P-13,660,44.94165,-93.125557,"605 SUMMIT AVE, ST PAUL, MN, 55102",2.0,1
ST. PAUL W-1 P-13,660,44.941651,-93.125022,"591 SUMMIT AVE, ST PAUL, MN, 55102",2.0,1
ST. PAUL W-1 P-13,660,44.941653499999994,-93.1235175,"557 SUMMIT AVE, ST PAUL, MN, 55102",2.0,2
ST. PAUL W-1 P-13,660,44.941663500000004,-93.123064,"545 SUMMIT AVE, ST PAUL, MN, 55102",1.0,1
ST. PAUL W-1 P-13,660,44.941786799999996,-93.117873,"421 SUMMIT AVE, ST PAUL, MN, 55102",5.0,1
ST. PAUL W-1 P-13,660,44.94196400000001,-93.12338000000001,"20 KENT ST, ST PAUL, MN, 55102",1.0,1
ST. PAUL W-1 P-13,660,44.941993200000006,-93.1189895,"21 ARUNDEL ST, ST PAUL, MN, 55102",1.0,1
ST. PAUL W-1 P-13,660,44.9419941,-93.1176184,"415 SUMMIT AVE, ST PAUL, MN, 55102",5.0,1
ST. PAUL W-1 P-13,660,44.942085,-93.12221600000001,"526 PORTLAND AVE, ST PAUL, MN, 55102",2.0,2
ST. PAUL W-1 P-13,660,44.942113899999995,-93.12316700000001,"548 PORTLAND AVE, ST PAUL, MN, 55102",3.0,2
ST. PAUL W-1 P-13,660,44.9421258,-93.122162,"524 PORTLAND AVE, ST PAUL, MN, 55102",1.0,1
ST. PAUL W-1 P-13,660,44.9421624,-93.12280940000001,"536 PORTLAND AVE, ST PAUL, MN, 55102",2.0,1
ST. PAUL W-1 P-13,660,44.94217099999999,-93.123416,"554 PORTLAND AVE, ST PAUL, MN, 55102",2.0,2
ST. PAUL W-1 P-13,660,44.94217099999999,-93.123336,"552 PORTLAND AVE, ST PAUL, MN, 55102",2.0,1
ST. PAUL W-1 P-13,660,44.94217099999999,-93.12325600000001,"550 PORTLAND AVE, ST PAUL, MN, 55102",2.0,2
ST. PAUL W-1 P-13,660,44.942173100000005,-93.1177359,"420 PORTLAND AVE, ST PAUL, MN, 55102",5.0,2
ST. PAUL W-1 P-13,660,44.9421755,-93.1203215,"482 PORTLAND AVE, ST PAUL, MN, 55102",1.0,1
ST. PAUL W-1 P-13,660,44.94217760000001,-93.1189995,"444 PORTLAND AVE, ST PAUL, MN, 55102",2.0,1
ST. PAUL W-1 P-13,660,44.942229600000005,-93.1183402,"438 PORTLAND AVE, ST PAUL, MN, 55102",8.0,3
ST. PAUL W-1 P-13,660,44.942242,-93.11806109999999,"436 PORTLAND AVE, ST PAUL, MN, 55102",10.0,1
ST. PAUL W-1 P-13,660,44.942370000000004,-93.123096,"546 PORTLAND AVE, ST PAUL, MN, 55102",4.0,1
ST. PAUL W-1 P-13,660,44.94259599999999,-93.1249447,"589 PORTLAND AVE, ST PAUL, MN, 55102",2.0,1
ST. PAUL W-1 P-13,660,44.9426076,-93.1171679,"405 PORTLAND AVE, ST PAUL, MN, 55102",3.0,1
ST. PAUL W-1 P-13,660,44.9426084,-93.12516020000001,"591 PORTLAND AVE, ST PAUL, MN, 55102",2.0,1
ST. PAUL W-1 P-13,660,44.942612100000005,-93.12568909999999,"609 PORTLAND AVE, ST PAUL, MN, 55102",7.0,2
ST. PAUL W-1 P-13,660,44.9426255,-93.1245333,"581 PORTLAND AVE, ST PAUL, MN, 55102",2.0,2
ST. PAUL W-1 P-13,660,44.942633799999996,-93.1215556,"501 PORTLAND AVE, ST PAUL, MN, 55102",6.0,1
ST. PAUL W-1 P-13,660,44.9426362,-93.12414150000001,"569 PORTLAND AVE, ST PAUL, MN, 55102",24.0,1
ST. PAUL W-1 P-13,660,44.9426447,-93.123828,"565 PORTLAND AVE, ST PAUL, MN, 55102",24.0,1
ST. PAUL W-1 P-13,660,44.942674100000005,-93.1220845,"523 PORTLAND AVE, ST PAUL, MN, 55102",5.0,2
ST. PAUL W-1 P-13,660,44.942684,-93.1167267,"389 PORTLAND AVE, ST PAUL, MN, 55102",2.0,2
ST. PAUL W-1 P-13,660,44.9426919,-93.12476840000001,"585 PORTLAND AVE, ST PAUL, MN, 55102",3.0,1
ST. PAUL W-1 P-13,660,44.94301289999999,-93.1183431,"56 ARUNDEL ST, ST PAUL, MN, 55102",11.0,2
ST. PAUL W-1 P-13,660,44.9430799,-93.1239064,"562 HOLLY AVE, ST PAUL, MN, 55102",20.0,4
ST. PAUL W-1 P-13,660,44.94308900000001,-93.1208493,"492 HOLLY AVE, ST PAUL, MN, 55102",3.0,2
ST. PAUL W-1 P-13,660,44.94311829999999,-93.1224959,"530 HOLLY AVE, ST PAUL, MN, 55102",2.0,2
ST. PAUL W-1 P-13,660,44.9431224,-93.1196751,"462 HOLLY AVE, ST PAUL, MN, 55102",4.0,2
ST. PAUL W-1 P-13,660,44.943133,-93.1192834,"454 HOLLY AVE, ST PAUL, MN, 55102",2.0,1
ST. PAUL W-1 P-13,660,44.9431394,-93.1190483,"446 HOLLY AVE, ST PAUL, MN, 55102",3.0,1
ST. PAUL W-1 P-13,660,44.9431424,-93.1222804,"526 HOLLY AVE, ST PAUL, MN, 55102",3.0,1
ST. PAUL W-1 P-13,660,44.9431437,-93.1188916,"444 HOLLY AVE, ST PAUL, MN, 55102",4.0,2
ST. PAUL W-1 P-13,660,44.9431461,-93.1214773,"500 HOLLY AVE, ST PAUL, MN, 55102",6.0,2
ST. PAUL W-1 P-13,660,44.9431589,-93.1210071,"496 HOLLY AVE, ST PAUL, MN, 55102",6.0,2
ST. PAUL W-1 P-13,660,44.9431621,-93.12490550000001,"590 HOLLY AVE, ST PAUL, MN, 55102",13.0,1
ST. PAUL W-1 P-13,660,44.9431733,-93.1198122,"468 HOLLY AVE, ST PAUL, MN, 55102",2.0,1
ST. PAUL W-1 P-13,660,44.943175700000005,-93.1177163,"420 HOLLY AVE, ST PAUL, MN, 55102",5.0,1
ST. PAUL W-1 P-13,660,44.94323370000001,-93.1182648,"436 HOLLY AVE, ST PAUL, MN, 55102",4.0,1
ST. PAUL W-1 P-13,660,44.94356459999999,-93.11823170000001,"433 HOLLY AVE, ST PAUL, MN, 55102",2.0,1
ST. PAUL W-1 P-13,660,44.943572100000004,-93.1165411,"79 WESTERN AVE N, ST PAUL, MN, 55102",53.0,14
ST. PAUL W-1 P-13,660,44.943574,-93.121444,"71 MACKUBIN ST, ST PAUL, MN, 55102",2.0,2
ST. PAUL W-1 P-13,660,44.9436152,-93.1249839,"595 HOLLY AVE, ST PAUL, MN, 55102",2.0,2
ST. PAUL W-1 P-13,660,44.943625899999994,-93.124592,"579 HOLLY AVE, ST PAUL, MN, 55102",1.0,1
ST. PAUL W-1 P-13,660,44.943634,-93.11832,"78 ARUNDEL ST, ST PAUL, MN, 55102",2.0,1
ST. PAUL W-1 P-13,660,44.94367570000001,-93.12343620000001,"72 KENT ST, ST PAUL, MN, 55102",3.0,2
ST. PAUL W-1 P-13,660,44.943686,-93.118003,"429 HOLLY AVE, ST PAUL, MN, 55102",2.0,1
ST. PAUL W-1 P-13,660,44.94369469999999,-93.12006690000001,"475 HOLLY AVE, ST PAUL, MN, 55102",2.0,2
ST. PAUL W-1 P-13,660,44.943841,-93.118279,"80 ARUNDEL ST, ST PAUL, MN, 55102",2.0,2
ST. PAUL W-1 P-13,660,44.943853000000004,-93.121492,"79 MACKUBIN ST, ST PAUL, MN, 55102",2.0,1
ST. PAUL W-1 P-13,660,44.9439726,-93.1240725,"87 KENT ST, ST PAUL, MN, 55102",6.0,2
ST. PAUL W-1 P-13,660,44.9440459,-93.1240115,"91 KENT ST, ST PAUL, MN, 55102",3.0,1
ST. PAUL W-1 P-13,660,44.9440959,-93.12406309999999,"93 KENT ST, ST PAUL, MN, 55102",5.0,1
ST. PAUL W-1 P-13,660,44.9441025,-93.1245439,"578 ASHLAND AVE, ST PAUL, MN, 55102",4.0,1
ST. PAUL W-1 P-13,660,44.9441408,-93.12241759999999,"528 ASHLAND AVE, ST PAUL, MN, 55102",9.0,5
ST. PAUL W-1 P-13,660,44.944153299999996,-93.1192834,"454 ASHLAND AVE, ST PAUL, MN, 55102",2.0,2
ST. PAUL W-1 P-13,660,44.9441789,-93.1183431,"436 ASHLAND AVE, ST PAUL, MN, 55102",9.0,4
ST. PAUL W-1 P-13,660,44.9442286,-93.1218691,"512 ASHLAND AVE, ST PAUL, MN, 55102",2.0,2
ST. PAUL W-1 P-13,660,44.944562700000006,-93.1204822,"487 ASHLAND AVE, ST PAUL, MN, 55102",2.0,2
ST. PAUL W-1 P-13,660,44.9446226,-93.11810809999999,"431 ASHLAND AVE, ST PAUL, MN, 55102",3.0,1
ST. PAUL W-1 P-13,660,44.9446231,-93.12343620000001,"555 ASHLAND AVE, ST PAUL, MN, 55102",4.0,2
ST. PAUL W-1 P-13,660,44.9446333,-93.1177163,"421 ASHLAND AVE, ST PAUL, MN, 55102",10.0,1
ST. PAUL W-1 P-13,660,44.9446439,-93.1173246,"409 ASHLAND AVE, ST PAUL, MN, 55102",10.0,1
ST. PAUL W-1 P-13,660,44.94464869999999,-93.12392879999999,"565 ASHLAND AVE, ST PAUL, MN, 55102",1.0,1
ST. PAUL W-1 P-13,660,44.944653,-93.1223392,"525 ASHLAND AVE, ST PAUL, MN, 55102",2.0,2
ST. PAUL W-1 P-13,660,44.9446594,-93.1221041,"521 ASHLAND AVE, ST PAUL, MN, 55102",2.0,2
ST. PAUL W-1 P-13,660,44.94466389999999,-93.1246116,"579 ASHLAND AVE, ST PAUL, MN, 55102",2.0,2
ST. PAUL W-1 P-13,660,44.9446847,-93.1232557,"553 ASHLAND AVE, ST PAUL, MN, 55102",2.0,2
ST. PAUL W-1 P-13,660,44.944697999999995,-93.116984,"399 ASHLAND AVE, ST PAUL, MN, 55102",8.0,1
ST. PAUL W-1 P-13,660,44.944705400000004,-93.12266650000001,"535 ASHLAND AVE, ST PAUL, MN, 55102",5.0,4
ST. PAUL W-1 P-13,660,44.944747,-93.1188916,"443 ASHLAND AVE, ST PAUL, MN, 55102",36.0,2
ST. PAUL W-1 P-13,660,44.944984600000005,-93.121536,"117 MACKUBIN ST, ST PAUL, MN, 55102",11.0,1
ST. PAUL W-1 P-13,660,44.945096,-93.1211057,"126 MACKUBIN ST, ST PAUL, MN, 55102",2.0,2
ST. PAUL W-1 P-13,660,44.945103100000004,-93.1218691,"512 LAUREL AVE, ST PAUL, MN, 55102",9.0,3
ST. PAUL W-1 P-13,660,44.9451089,-93.11630600000001,"384 LAUREL AVE, ST PAUL, MN, 55102",4.0,2
ST. PAUL W-1 P-13,660,44.945118,-93.122876,"538 LAUREL AVE, ST PAUL, MN, 55102",2.0,2
ST. PAUL W-1 P-13,660,44.94512,-93.122299,"526 LAUREL AVE, ST PAUL, MN, 55102",1.0,1
ST. PAUL W-1 P-13,660,44.945121,-93.118339,"434 LAUREL AVE, ST PAUL, MN, 55102",6.0,1
ST. PAUL W-1 P-13,660,44.945149900000004,-93.1248271,"586 LAUREL AVE, ST PAUL, MN, 55102",4.0,1
ST. PAUL W-1 P-13,660,44.945150500000004,-93.1254736,"602 LAUREL AVE, ST PAUL, MN, 55102",2.0,1
ST. PAUL W-1 P-13,660,44.9451566,-93.11656070000001,"388 LAUREL AVE, ST PAUL, MN, 55102",10.0,2
ST. PAUL W-1 P-13,660,44.945172,-93.12000809999999,"472 LAUREL AVE, ST PAUL, MN, 55102",1.0,1
ST. PAUL W-1 P-13,660,44.9451804,-93.1243766,"572 LAUREL AVE, ST PAUL, MN, 55102",3.0,1
ST. PAUL W-1 P-13,660,44.945187,-93.11945959999998,"458 LAUREL AVE, ST PAUL, MN, 55102",2.0,2
ST. PAUL W-1 P-13,660,44.9451913,-93.11930290000001,"452 LAUREL AVE, ST PAUL, MN, 55102",1.0,1
ST. PAUL W-1 P-13,660,44.94521100000001,-93.120844,"490 LAUREL AVE, ST PAUL, MN, 55102",2.0,2
ST. PAUL W-1 P-13,660,44.94521200000001,-93.1210679,"496 LAUREL AVE, ST PAUL, MN, 55102",2.0,2
ST. PAUL W-1 P-13,660,44.9454085,-93.1186236,"438 LAUREL AVE, ST PAUL, MN, 55102",9.0,1
ST. PAUL W-1 P-14,670,44.957552899999996,-93.0987789,"732 CAPITOL HTS, ST PAUL, MN, 55103",2.0,1
ST. PAUL W-1 P-14,670,44.957908,-93.0941173,"261 UNIVERSITY AVE E, ST PAUL, MN, 55130",106.0,10
ST. PAUL W-1 P-14,670,44.9581169,-93.1006412,"25 CHARLES AVE, ST PAUL, MN, 55103",3.0,2
ST. PAUL W-1 P-14,670,44.9585764,-93.1006781,"794 CEDAR ST, ST PAUL, MN, 55103",2.0,1
ST. PAUL W-1 P-14,670,44.9586124,-93.09991140000001,"773 CAPITOL HTS, ST PAUL, MN, 55103",2.0,1
ST. PAUL W-1 P-14,670,44.9586799,-93.1007359,"798 CEDAR ST, ST PAUL, MN, 55103",2.0,1
ST. PAUL W-1 P-14,670,44.9587841,-93.09336009999998,"180 MOUNT AIRY ST, ST PAUL, MN, 55130",3.0,1
ST. PAUL W-1 P-14,670,44.958935,-93.0957723,"116 MOUNT AIRY ST, ST PAUL, MN, 55130",2.0,2
ST. PAUL W-1 P-14,670,44.959118200000006,-93.1001517,"9 COMO AVE, ST PAUL, MN, 55103",2.0,2
ST. PAUL W-1 P-14,670,44.959130200000004,-93.0928091,"191 MOUNT AIRY ST, ST PAUL, MN, 55130",7.0,1
ST. PAUL W-1 P-14,670,44.9591473,-93.09766,"46 MOUNT AIRY ST, ST PAUL, MN, 55130",1.0,1
ST. PAUL W-1 P-14,670,44.959157,-93.0977713,"40 MOUNT AIRY ST, ST PAUL, MN, 55130",4.0,1
ST. PAUL W-1 P-14,670,44.959185999999995,-93.100682,"25 COMO AVE, ST PAUL, MN, 55103",2.0,1
ST. PAUL W-1 P-14,670,44.959200700000004,-93.10518470000001,"125 COMO AVE, ST PAUL, MN, 55103",5.0,1
ST. PAUL W-1 P-14,670,44.9592541,-93.0951613,"127 MOUNT AIRY ST, ST PAUL, MN, 55130",2.0,1
ST. PAUL W-1 P-14,670,44.9592934,-93.0937433,"171 MOUNT AIRY ST, ST PAUL, MN, 55130",2.0,1
ST. PAUL W-1 P-14,670,44.9594797,-93.1002657,"14 WINTER ST, ST PAUL, MN, 55103",1.0,1
ST. PAUL W-1 P-14,670,44.9594971,-93.0948751,"608 LINDEN ST, ST PAUL, MN, 55130",6.0,2
ST. PAUL W-1 P-14,670,44.9595358,-93.101892,"600 CAPITOL BLVD, ST PAUL, MN, 55103",2.0,1
ST. PAUL W-1 P-14,670,44.9595989,-93.0953778,"609 LINDEN ST, ST PAUL, MN, 55130",3.0,3
ST. PAUL W-1 P-14,670,44.9596097,-93.0983017,"25 MOUNT AIRY ST, ST PAUL, MN, 55130",2.0,2
ST. PAUL W-1 P-14,670,44.959619200000006,-93.0948446,"612 LINDEN ST, ST PAUL, MN, 55130",2.0,1
ST. PAUL W-1 P-14,670,44.95969239999999,-93.10413929999999,"609 PARK ST, ST PAUL, MN, 55103",5.0,2
ST. PAUL W-1 P-14,670,44.9597086,-93.0968922,"612 WALES ST, ST PAUL, MN, 55130",2.0,1
ST. PAUL W-1 P-14,670,44.9597561,-93.09531729999999,"623 LINDEN ST, ST PAUL, MN, 55130",4.0,1
ST. PAUL W-1 P-14,670,44.9597902,-93.0982177,"710 JACKSON ST, ST PAUL, MN, 55130",2.0,1
ST. PAUL W-1 P-14,670,44.95980489999999,-93.09204659999999,"208 ARCH ST E, ST PAUL, MN, 55130",1.0,1
ST. PAUL W-1 P-14,670,44.9598541,-93.0982537,"712 JACKSON ST, ST PAUL, MN, 55130",1.0,1
ST. PAUL W-1 P-14,670,44.9600799,-93.09681590000001,"630 WALES ST, ST PAUL, MN, 55130",2.0,1
ST. PAUL W-1 P-14,670,44.960099,-93.0918901,"213 ARCH ST E, ST PAUL, MN, 55130",2.0,1
ST. PAUL W-1 P-14,670,44.9601015,-93.092065,"209 ARCH ST E, ST PAUL, MN, 55130",1.0,1
ST. PAUL W-1 P-14,670,44.960111700000006,-93.0918494,"215 ARCH ST E, ST PAUL, MN, 55130",3.0,2
ST. PAUL W-1 P-14,670,44.9602092,-93.0928235,"200 ARCH ST E, ST PAUL, MN, 55130",155.0,55
ST. PAUL W-1 P-14,670,44.960305600000005,-93.09977059999999,"817 CAPITOL HTS, ST PAUL, MN, 55103",1.0,1
ST. PAUL W-1 P-14,670,44.96033120000001,-93.0991229,"828 CAPITOL HTS, ST PAUL, MN, 55103",3.0,1
ST. PAUL W-1 P-14,670,44.9604281,-93.0921484,"203 ARCH ST E, ST PAUL, MN, 55130",2.0,2
ST. PAUL W-1 P-14,670,44.9607599,-93.0938582,"168 ARCH ST E, ST PAUL, MN, 55130",2.0,2
ST. PAUL W-1 P-14,670,44.9607891,-93.09425159999999,"156 ARCH ST E, ST PAUL, MN, 55130",3.0,1
ST. PAUL W-1 P-14,670,44.96089480000001,-93.09527990000001,"137 ARCH ST E, ST PAUL, MN, 55130",3.0,1
ST. PAUL W-1 P-14,670,44.9609196,-93.0958255,"131 ARCH ST E, ST PAUL, MN, 55130",4.0,2
ST. PAUL W-1 P-14,670,44.9611497,-93.0932897,"169 ARCH ST E, ST PAUL, MN, 55130",13.0,1
ST. PAUL W-1 P-14,670,44.9611555,-93.0947953,"147 ARCH ST E, ST PAUL, MN, 55130",9.0,2
ST. PAUL W-1 P-14,670,44.961186299999994,-93.0934236,"167 ARCH ST E, ST PAUL, MN, 55130",2.0,1
ST. PAUL W-1 P-14,670,44.9612657,-93.0945273,"153 ARCH ST E, ST PAUL, MN, 55130",6.0,2
ST. PAUL W-1 P-14,670,44.9613021,-93.09615190000001,"129 ARCH ST E, ST PAUL, MN, 55130",6.0,1
ST. PAUL W-1 P-14,670,44.96132679999999,-93.0942877,"155 ARCH ST E, ST PAUL, MN, 55130",4.0,3
ST. PAUL W-1 P-15,675,44.9664278,-93.1113916,"264 ATWATER ST, ST PAUL, MN, 55117",2.0,1
ST. PAUL W-1 P-15,675,44.96711079999999,-93.1071428,"857 ALBEMARLE ST, ST PAUL, MN, 55117",1.0,1
ST. PAUL W-1 P-15,675,44.967236,-93.113784,"322 TOPPING ST, ST PAUL, MN, 55117",2.0,1
ST. PAUL W-1 P-15,675,44.9672866,-93.11531670000001,"362 TOPPING ST, ST PAUL, MN, 55117",2.0,2
ST. PAUL W-1 P-15,675,44.9672899,-93.1070617,"865 ALBEMARLE ST, ST PAUL, MN, 55117",2.0,1
ST. PAUL W-1 P-15,675,44.9676925,-93.1137888,"321 TOPPING ST, ST PAUL, MN, 55117",1.0,1
ST. PAUL W-1 P-15,675,44.967983700000005,-93.11078459999999,"888 GALTIER ST, ST PAUL, MN, 55117",1.0,1
ST. PAUL W-1 P-15,675,44.968090999999994,-93.1253982,"598 BURGESS ST, ST PAUL, MN, 55103",1.0,1
ST. PAUL W-1 P-15,675,44.968148,-93.111737,"274 BURGESS ST, ST PAUL, MN, 55117",2.0,1
ST. PAUL W-1 P-15,675,44.968169700000004,-93.1250234,"586 BURGESS ST, ST PAUL, MN, 55103",2.0,2
ST. PAUL W-1 P-15,675,44.968186200000005,-93.1143927,"338 BURGESS ST, ST PAUL, MN, 55117",1.0,1
ST. PAUL W-1 P-15,675,44.9684398,-93.10773950000001,"180 WAYZATA ST W, ST PAUL, MN, 55117",82.0,5
ST. PAUL W-1 P-15,675,44.9685411,-93.11004940000001,"905 MARION ST, ST PAUL, MN, 55117",3.0,2
ST. PAUL W-1 P-15,675,44.968605700000005,-93.125071,"591 BURGESS ST, ST PAUL, MN, 55103",1.0,1
ST. PAUL W-1 P-15,675,44.9686591,-93.11642900000001,"907 WESTERN AVE N, ST PAUL, MN, 55117",1.0,1
ST. PAUL W-1 P-15,675,44.969072499999996,-93.1146267,"344 STINSON ST, ST PAUL, MN, 55117",2.0,2
ST. PAUL W-1 P-15,675,44.969120700000005,-93.12489140000001,"582 COMO AVE, ST PAUL, MN, 55103",1.0,1
ST. PAUL W-1 P-15,675,44.969487,-93.1141216,"333 STINSON ST, ST PAUL, MN, 55117",5.0,1
ST. PAUL W-1 P-15,675,44.9694903,-93.11534040000001,"363 STINSON ST, ST PAUL, MN, 55117",3.0,1
ST. PAUL W-1 P-15,675,44.9694946,-93.1151836,"361 STINSON ST, ST PAUL, MN, 55117",1.0,1
ST. PAUL W-1 P-15,675,44.969654999999996,-93.124618,"587 COMO AVE, ST PAUL, MN, 55103",5.0,2
ST. PAUL W-1 P-15,675,44.969739000000004,-93.124771,"591 COMO AVE, ST PAUL, MN, 55103",2.0,1
ST. PAUL W-1 P-15,675,44.96975430000001,-93.1163517,"947 WESTERN AVE N, ST PAUL, MN, 55117",2.0,2
ST. PAUL W-1 P-15,675,44.9697772,-93.1088082,"945 WOODBRIDGE ST, ST PAUL, MN, 55117",2.0,2
ST. PAUL W-1 P-15,675,44.96995089999999,-93.11582290000001,"956 WESTERN AVE N, ST PAUL, MN, 55117",1.0,1
ST. PAUL W-1 P-15,675,44.9700111,-93.11427690000001,"334 FRONT AVE, ST PAUL, MN, 55117",3.0,1
ST. PAUL W-1 P-16,678,44.9672969,-93.1422675,"996 TOPPING ST, ST PAUL, MN, 55103",1.0,1
ST. PAUL W-1 P-16,678,44.968508899999996,-93.12661329999999,"903 DALE ST N, ST PAUL, MN, 55103",5.0,1
ST. PAUL W-1 P-16,678,44.9694819,-93.1423108,"997 STINSON ST, ST PAUL, MN, 55103",2.0,1
ST. PAUL W-1 P-16,678,44.969981700000005,-93.128052,"658 FRONT AVE, ST PAUL, MN, 55103",2.0,1
ST. PAUL W-1 P-16,678,44.9700185,-93.12832440000001,"668 FRONT AVE, ST PAUL, MN, 55103",1.0,1
ST. PAUL W-1 P-16,678,44.9700365,-93.1420177,"988 FRONT AVE, ST PAUL, MN, 55103",2.0,2
ST. PAUL W-1 P-16,678,44.9702057,-93.1404975,"674 FRONT AVE, ST PAUL, MN, 55103",1.0,1
